2015/03/17 05:00
AGGC 170500Z 29004KT 9999 BKN017 FEW018CB BKN350 29/26 Q1007
