2015/12/15 21:00
AGGM 152100Z 27003KT 9999 HZ FEW016 SCT027 BKN300 27/25 Q1007
