2014/01/13 12:55
AK15 131255Z 160006KT 20SM M32/M36 A2955
