2007/12/25 12:00
AKKR 251200Z 12006KT CAVOK 31/03 Q1011 NOSIG
