2007/12/18 10:00
ALMG 181000Z 00000KT 9999 SCT080 24/23 Q1008
