2007/12/09 02:00
ANAU 090200Z 12010KT 30KM FEW020 SCT050 31/27 Q1006
