2010/05/24 15:50
AOKB 241550Z 33015KT CAVOK 24/M05 Q1014 NOSIG RMK BLU BLU
