2015/11/06 03:00
ASVC 060300Z 24001KT 9000 NSC 13/08 Q1018
