2011/06/01 18:00
ATAR 011800Z METAR FMNM 011800Z 26008KT CAVOK 25/24 Q1015
