2015/04/08 02:00
AYGN 080200Z 25004KT 9999 BKN020 BKN150 31/25 Q1009 RMKS
