2012/07/20 01:00
AYMH 200100Z 00000KT 9999 SCT025 SCT140 BKN300 21/16 Q1021
