2015/12/14 20:00
AYNZ 142000Z 00000KT 9999 FEW010 SCT030 BKN120 25/23 Q1007
