2015/12/18 00:00
AYWK 180000Z 00000KT 9999 FEW018 SCT030 OVC140 26/25 Q1010 RESH
