2007/08/11 18:50
AZTX 111850Z 36012KT 9999 FEW040 22/14 Q1014 A2997
