2015/12/18 10:53
AZUH 181053Z 00000KT 6000 BKN025 OVC080 01/M01 Q1026
