2012/02/17 22:00
BDAB 172200Z 09006KT 9999 SCT020 26/23 Q1014
