2009/02/11 15:00
BFMN 111500Z 08005KT 9999 BKN030 FEW035TCU 34/17 Q1012
