2007/05/03 14:00
BFSP 031400Z 08007KT 9999 SCT030 26/09 Q1021
