2014/07/24 10:50
BGCO 241050Z 16008KT 9999 FEW220 11/06 Q1011
