2013/05/07 14:00
BGFU 071400Z 11018KT 9999 FEW020 29/25 Q1008
