2015/12/18 10:50
BGGH 181050Z 06011KT 9999 FEW200 M13/M15 Q1005
