2015/12/18 10:50
BGJN 181050Z 10019KT 9999 -SN BLSN BKN070 M16/M20 Q1008
