2015/12/18 10:50
BGKK 181050Z AUTO 15001KT 9999NDV NCD M08/M16 Q1000
