2014/07/24 10:50
BGMQ 241050Z 30004KT 210V320 9999 FEW100 12/07 Q1012
