2015/12/18 10:50
BGSF 181050Z AUTO 05006KT 9999NDV BKN038/// M20/M24 Q1010
