2015/12/18 10:58
BGTL 181058Z AUTO VRB05KT 9999 CLR M25/M28 A2960 RMK AO2 SLP016 T12461280
