2014/07/24 10:50
BGUK 241050Z 11002KT 0400 -DZ PRFG VV007 08/08 Q1015
