2014/07/24 10:50
BGUQ 241050Z 12006KT 9999 FEW010 BKN038 10/10 Q1015
