2015/12/18 11:00
BIAR 181100Z VRB03KT 9999 OVC043 M03/M07 Q0996 18120615 R01/790155
