2015/12/18 11:00
BIEG 181100Z 01009KT 9999 VCSH SCT025 BKN033 BKN046 M04/M04 Q0994 R04/790294 RMK RWY SANDED
