2015/10/01 16:38
BIGR 011638Z 29010KT 7000 DZ BR BKN007 07/06 Q0997
