2015/12/18 11:00
BIIS 181100Z 03016G27KT 9999 BKN040 M02/M07 Q0996
