2015/12/18 11:00
BIKF 181100Z 05009KT CAVOK M01/M06 Q0990
