2014/12/16 14:50
BIKR 161450Z 18030KT 9999 01/01 Q0987 R01/410195 RMK ?TEST 
