2015/12/18 11:00
BIRK 181100Z 06011KT CAVOK M02/M08 Q0990
