2015/12/18 11:00
BKPR 181100Z VRB02KT 3500 BR SCT008 OVC015 M02/M04 Q1028 NOSIG RMK 17010095 
