2015/12/18 11:00
CBBC 181100Z AUTO 13003KT 9SM SCT027 OVC034 03/01 A2938 RMK SLP952
