2007/06/29 02:00
CBYD 290200Z 300005KT 9999 SCT011 S METAR GVAC 290200Z 04011KT 9999 SCT015 22/19 Q1015 NOSIG
