2012/03/05 20:00
CCAT 052000Z 26011KT CAVOK 25/14 Q1012
