2008/04/02 13:00
CGSL 021300Z 10006KT 060V140 8000 SCT013 FEW020CB OVC130 28/22 Q1007 TEMPO 4000 TSRA
