2013/10/06 22:00
CLRB 062200Z 00000KT 9999 SCT030 BKN070 19/16 Q1018
