2014/11/04 23:00
CORR 042300Z 05013KT 8000 3000N DZ SCT010 BKN100 28/25 A2980
