2015/12/18 01:00
CWAE 180100Z 32002KT 15SM OVC050 M04/M06 A2965 RMK SC8 LAST OBS/NEXT 181500UTC WND ESTD SLP068
