2015/12/18 11:00
CWCA 181100Z 17003KT 15SM FEW070 M16/M19 A3004 RMK AC2 PRESFR SLP175
