2015/12/18 11:00
CWEU 181100Z 14003KT 10SM SKC M35/M40 A3008 RMK IC SLP190
