2015/12/17 21:00
CWGZ 172100Z 00000KT 6SM -SN BKN030 M30/M34 A3000 RMK SC5 -18.1/-31.4/0/1 SNW CVR/MCH LOOSE LAST OB/NEXT 181300 SLP168 DENSITY ALT MISG
