2015/12/18 11:00
CWHN 181100Z AUTO 25002KT 9SM OVC001 OVC027 M17/M18 A2999 RMK ICG SLP215
