2015/12/18 11:00
CWLY 181100Z AUTO 00000KT 1 1/4SM -SN FEW004 OVC023 M03/M04 A2954 RMK PRESFR SLP015
