2015/12/18 11:18
CWSA 181118Z AUTO 15024G29KT 1 1/4SM -RA BR OVC044 10/10 A2978 RMK PRESFR SLP084
