2015/12/18 00:00
CWSW 180000Z 00000KT 20SM FEW035 OVC070 M10/M33 A2995 RMK SC1AS7 LAST STFD OBS/NEXT 181400UTC WND ESTD SLP220
