2015/12/18 11:00
CWWU 181100Z 01703KT 15SM OVC027 M03/M06 A3016 RMK SC8 SLP215
