2015/12/18 08:00
CYAB 180800Z VRB02KT 6SM IC BKN042 M32/M37 A3005 RMK SC5 CALLOUT LAST STFD OBS/NXT 181200Z SLP183 DENSITY ALT MISG
