2015/12/18 11:13
CYAH 181113Z AUTO 14006KT 9SM -SN BKN014 OVC033 M01/M03 A2947 RMK SLP000
