2015/12/18 11:00
CYAM 181100Z 25009G15KT 15SM FEW024 BKN085 M03/M08 A2965 RMK SC1AC6 FROIN SLP052
