2015/12/17 22:00
CYAS 172200Z 02006KT 290V020 15SM FEW200 M26/M29 A3005 RMK CS1 CS TR SNOW COVER MUCH LOOSE LAST OBS NEXT 181300UTC SLP199
