2015/12/18 11:15
CYAT 181115Z AUTO 19009KT 9SM -SN SCT050 M09/M10 A2936 RMK SLP943
