2015/12/16 20:25
CYAW 162025Z 35011G19KT 15SM FEW030 01/M02 A3006 RMK SC2 DA-1638FT LAST OBS/NEXT 041100 UTC SLP181
