2015/12/18 11:00
CYAY 181100Z AUTO 17005KT 9SM CLR M09/M11 A3006 RMK SLP182
