2015/12/18 01:00
CYAZ 180100Z 08007KT 10SM FEW012 SCT018 BKN023 OVC030 05/04 A2953 RMK CF2SC1SC4SC1 LAST OBS/NEXT 181500UTC SLP000
