2015/12/18 00:00
CYBB 180000Z 25005KT 220V280 15SM IC FEW020 M30/M34 A3029 RMK SC1 SC TR -25.2/-35.5/0.0/50/SNW CVR/MUCH LOOSE/LAST OBS/NXT181300Z SLP260 DENSITY ALT MISG
