2015/12/18 11:00
CYBC 181100Z AUTO 09010KT 4SM -RA BR OVC004 00/00 A2968 RMK SLP054
