2015/12/18 01:00
CYBD 180100Z 06007G16KT 030V130 15SM BKN070TCU BKN100 02/M06 A2960 RMK TCU6AC1 LAST STFD OBS/NEXT 181500UTC/ SLP026
