2015/12/18 11:00
CYBG 181100Z 10003KT 15SM FEW002 OVC017 00/M00 A2962 RMK SF1SC7 CIG VRB 12-22 SLP039
