2015/12/18 11:00
CYBK 181100Z 35018KT 10SM -SN OVC012 M20/M23 A3018 RMK SC8 SLP223
