2015/12/18 05:00
CYBL 180500Z 10004KT 2SM -RASN FEW003 BKN008 OVC012 01/01 A2952 RMK SF2SF4SC2 LAST OBS/NEXT 181400 UTC SLP002
