2015/12/18 11:00
CYBN 181100Z AUTO 23005KT 9SM OVC034 00/M06 A2980 RMK SLP098
