2015/12/18 11:10
CYBQ 181110Z AUTO 35006KT 9SM SCT017 M19/M21 A2987 RMK SLP148
