2015/12/18 11:09
CYBR 181109Z 32016G22KT 15SM DRSN FEW021 M17/M21 A2986 RMK SC2 SLP154
