2015/12/18 11:00
CYBU 181100Z AUTO 29011KT 9SM CLR M17/M19 A2997 RMK SLP186
