2015/12/17 22:00
CYBV 172200Z 33006KT 6SM -SN BKN015 BKN140 BKN220 M12/M15 A2960 RMK SC5AC1CS1 SN CVR/MUCH LOOSE/LAST OBS/NEXT 181300Z SLP046
