2015/12/18 11:05
CYBW 181105Z AUTO 14008KT 9SM -SN OVC008 M14/M15 A2973 RMK SLP158
