2015/12/18 11:00
CYBX 181100Z 04005KT 15SM BKN050 M09/M11 A3004 RMK SC7 SLP178
