2015/12/18 11:00
CYCB 181100Z 36004KT 12SM IC FEW007 FEW012 M35/M40 A3044 RMK SF1SC1 SF TR SLP316 DENSITY ALT MISG
