2015/12/18 05:00
CYCD 180500Z 14002KT 1 1/2SM RA BR SCT003 BKN006 OVC012 02/01 A2954 RMK SF3SF4SC1 CIG RAG LAST OBS/NEXT 181400UTC SLP006
