2015/12/18 01:00
CYCG 180100Z 35006KT 15SM FEW025 BKN085 OVC130 M03/M08 A2998 RMK SC1AC4AC3 LAST OBS/NEXT 181400UTC SLP178
