2015/12/18 11:00
CYCO 181100Z 31002KT 12SM IC FEW110 FEW150 M36/M39 A3039 RMK AC1AS1 AC TR SLP296 DENSITY ALT MISG
