2015/12/18 00:00
CYCP 180000Z VRB02KT 15SM BKN060 OVC140 M09/M11 A2990 RMK SC6AC2 LAST OB/NEXT 181400 UTC SLP173
