2015/12/18 00:00
CYCQ 180000Z 03004KT 360V070 35SM FEW040 SCT090 OVC190 M16/M19 A2993 RMK SC1AC3CI5 SC TR DIST FU S+W LAST STFD OBS/NEXT 181400Z SLP196
