2015/12/17 23:00
CYCS 172300Z 06008KT 6SM -SN OVC015 M15/M16 A3010 RMK SC8 -13.0/-15.2/0.2/30 MUCH LOOSE LAST STFD OBS/NEXT 18 1300 SLP195
