2015/12/18 11:00
CYCX 181100Z 01003KT 3/8SM -DZ FG VV002 02/02 A2960 RMK FG8 DA-901FT VIS VRB 1/4-1/2 SLP026
