2015/12/18 11:17
CYCY 181117Z AUTO 00000KT 9SM OVC022 M21/M23 A2985 RMK SLP113
