2015/12/18 00:00
CYDA 180000Z 24003KT 6SM -SN OVC020 M19/M21 A2959 RMK SC8 CLIMAT -18.8/-23.0/TR CM/TR MWE LAST STFD OBS/NXT 181500Z SLP067
