2015/12/18 11:10
CYDB 181110Z AUTO 00000KT 9SM -SN BKN017 M18/M20 A2937 RMK SLP018
