2015/12/18 01:00
CYDC 180100Z 00000KT 10SM OVC040 M07/M09 A2976 RMK SC8 LAST STFD OB/NEXT 18 1500UTC SLP118
