2015/12/18 11:00
CYDF 181100Z 03005KT 15SM OVC016 M04/M07 A3006 RMK SC8 SLP183
