2015/12/18 11:00
CYDL 181100Z AUTO 09006KT 010V120 9SM BKN140 OVC160 M12/M14 A2945 RMK SLP018
