2015/12/18 11:00
CYDN 181100Z AUTO 27015KT 9SM OVC025 M17/M20 A2986 RMK SLP143
