2015/12/18 11:00
CYDP 181100Z VRB03KT 15SM BKN120 M17/M22 A2996 RMK AS6 SLP147
