2015/12/18 11:00
CYDQ 181100Z AUTO 04007KT 9SM OVC140 M18/M19 A2983 RMK SLP160
