2015/12/18 11:00
CYED 181100Z AUTO 13010KT 9SM OVC012 M14/M16 A2993 RMK SLP189
