2015/12/18 11:00
CYEG 181100Z 14014KT 15SM -SHSN OVC009 M15/M18 A2990 RMK ST8 SN VRY LGT CIG RAG SLP189
