2015/12/18 11:20
CYEK 181120Z AUTO 01014KT 8SM OVC140 M17/M19 A2995 RMK SLP146
