2015/12/18 11:00
CYEN 181100Z 31011KT 15SM DRSN SCT024 M17/M19 A2994 RMK SC3 SLP188
