2015/12/18 11:05
CYER 181105Z AUTO 36009KT 6SM -SN OVC012 M07/M08 A2935 RMK SLP942
