2015/12/18 11:16
CYET 181116Z AUTO 06010KT 5SM -SN OVC004 M18/M20 A2977 RMK SLP158
