2015/12/18 11:00
CYEV 181100Z 08005KT 15SM SKC M21/M24 A2987 RMK SLP126
