2015/12/18 11:05
CYFC 181105Z AUTO 33007KT 1 1/4SM -RA BR OVC006 02/02 A2960 RMK SLP027
