2015/12/18 00:00
CYFO 180000Z 31009G16KT 6SM -SN DRSN BKN150 M16/M19 A2979 RMK SN3AS3 LAST OBS/NEXT 181200UTC SNW CVR/MUCH LOOSE SLP119
