2015/12/17 23:00
CYFR 172300Z 13003KT 14SM -SN OVC015 M18/M21 A3018 RMK SC8 /TR/51/ SNW CVR/MUCH LOOSE LAST STFD OBS/NEXT181500Z SLP239
