2015/12/18 11:00
CYFS 181100Z 14005KT 100V160 15SM FEW005 M24/M28 A3010 RMK SF2 SLP221
