2015/12/18 11:00
CYFT 181100Z 21007KT 15SM BKN120 M17/M22 A2997 RMK AS6 SLP159
