2015/12/18 00:00
CYGE 180000Z 08003KT 070V250 20SM FEW030 BKN120 M10/M13 A3004 RMK SC1AC4 LAST OBS/NEXT 181400Z SLP232
