2015/12/18 00:00
CYGH 180000Z 06005KT 12SM FEW100 SCT230 M21/M24 A2996 RMK AC1CS2 -19.8/-23.2/40 SNW CVR/ MUCH LOOSE LAST OBS/ NXT 181400Z SLP159
