2015/12/18 11:00
CYGK 181100Z 27006KT 15SM OVC047 02/M03 A2979 RMK SC8 SLP093
