2015/12/18 11:00
CYGL 181100Z 20007KT 15SM FEW008 OVC030 M04/M06 A2946 RMK SF1SC7 SLP990
