2015/12/18 11:13
CYGP 181113Z 06008KT 2SM -DZ BR OVC008 01/00 A2971 RMK ST8 SLP065
