2015/12/18 11:00
CYGQ 181100Z 23010KT 2SM -SN VV013 M12/M14 A2945 RMK SN8 VIS VRB 1-3 SLP002
