2015/12/18 11:00
CYGR 181100Z 14013KT 8SM -RA OVC015 03/03 A2978 RMK SC8 SLP086
