2015/12/18 11:00
CYGT 181100Z 30007G16KT 10SM DRSN SKC M33/M36 A3013 RMK -28.7/-34.2/0.0/24/ TR LOOSE SLP215 DENSITY ALT MISG
