2015/12/18 11:20
CYGV 181120Z AUTO 10009G15KT 1 3/4SM -UP BR OVC006 00/00 A2979 RMK SLP092
