2015/12/18 11:00
CYGW 181100Z AUTO 17005KT 9SM OVC110 M02/M04 A2943 RMK SLP968
