2015/12/18 03:00
CYGX 180300Z 03017KT 5SM -SN BLSN SCT006 OVC033 M09/M11 A2962 RMK SF3SC5 /S01 LAST STFD OBS/NEXT 181500Z SLP044
