2015/12/17 22:00
CYHA 172200Z 30004KT 1SM IC BR VV005 M17/M19 A3009 RMK FG8 SN COV/NIL LAST OBS/NEXT 181300 UTC VIA CYQB SLP195
