2015/12/18 11:15
CYHD 181115Z AUTO 27013KT 9SM -SN BKN018 OVC043 M14/M16 A2960 RMK SLP060
