2015/12/18 11:00
CYHE 181100Z AUTO 10012G20KT 9SM -SN OVC041 01/M01 A2949 RMK SLP990
