2015/10/30 20:00
CYHH 302000Z 28016KT 2SM -SHSN DRSN OVC011 M01/M03 A2978 RMK SC7 LAST OBS/NEXT 021200 UTC SLP099
