2015/12/18 01:00
CYHI 180100Z 03008KT 15SM SKC M31/M34 A3043 RMK -30.6/-31.4 /S TR/ TR LOOSE LAST OBS TAKEN/ NEXT 181500Z SLP311 DENSITY ALT MISG
