2015/12/18 11:00
CYHK 181100Z AUTO 36011KT 9SM BKN024 BKN032 M34/M37 A3033 RMK ICG INTMT SLP283 DENSITY ALT MISG
