2015/12/18 11:00
CYHM 181100Z 24006KT 15SM OVC029 M01/M06 A2984 RMK SC8 SLP115
