2015/12/18 11:00
CYHU 181100Z AUTO 25008KT 9SM OVC049 03/01 A2971 RMK SLP064
