2015/12/18 11:00
CYHY 181100Z 16004KT 15SM -SN OVC008 M20/M22 A3020 RMK SC8 SLP249
