2015/12/18 11:00
CYHZ 181100Z 13014KT 1 1/4SM -RA BR OVC003 09/09 A2959 RMK ST8 PRESFR SLP028
