2015/12/17 19:00
CYIK 171900Z 07004KT 15SM VCFG FEW009 M21/M24 A3008 RMK ST1 ST TR SLP192
