2015/12/18 01:12
CYIN 180112Z AUTO 12015G23KT 9SM SCT075 OVC092 M07/M09 A2959 RMK SLP078
