2015/12/18 11:11
CYIO 181111Z AUTO 19011KT 6SM HZ FEW019 SCT060 M33/M37 A2995 RMK SLP155 DENSITY ALT MISG
