2015/12/18 11:00
CYIV 181100Z 33010G15KT 4SM -SN DRSN OVC010 M11/M13 A2957 RMK SC8 SLP038
