2015/12/16 23:00
CYJF 162300Z 22005KT 15SM FEW090 M26/M30 A3018 RMK AC1 TR AC/-25.3/-29.5/0/25 SNW CVR/MEDIUM PACK/LAST OBS/NEXT 061500UTC SLP251
