2015/12/18 11:00
CYJT 181100Z 08011KT 3SM -SN FEW008 OVC015 M01/M02 A2999 RMK SF2SC6 SLP158
