2015/12/18 11:00
CYKA 181100Z 09010KT 1SM -SN BKN006 OVC016 M02/M03 A2959 RMK SF5SC3 /S02/ PRESFR SLP039
