2015/12/18 00:00
CYKD 180000Z 17005KT 15SM FEW100 M26/M30 A3002 RMK AC2 -26.5/-29.4/0.0/LAST OBS/NXT 181400Z SLP169 DENSITY ALT MISG
