2015/12/18 11:00
CYKF 181100Z AUTO 25009KT 9SM OVC030 M01/M06 A2981 RMK SLP106
