2015/12/17 20:00
CYKG 172000Z 30004KT 15SM SKC M18/M23 A3004 RMK SLP196
