2015/12/18 11:20
CYKJ 181120Z AUTO 32005KT 9SM -SN OVC007 M19/M20 A2995 RMK SLP197
