2015/12/18 11:03
CYKL 181103Z AUTO 16006KT 7SM -SN BKN032 BKN043 OVC050 M11/M12 A2963 RMK SLP080
