2015/12/15 15:00
CYKO 151500Z 10014KT 15SM DRSN SCT015 M16/M19 A3027 RMK SC4 SLP254
