2015/12/18 11:00
CYKP 181100Z AUTO 25009G15KT 210V270 3SM -SN OVC040 M11/M13 A2935 RMK SLP958
