2015/12/17 22:00
CYKQ 172200Z 17007KT 10SM FEW008 BKN025 02/01 A2941 RMK CF2SC5 LAST OBS/NEXT 181400 UTC SLP963
