2015/12/18 11:00
CYKY 181100Z 03003KT 15SM OVC014 M15/M18 A2998 RMK SC8 SLP211
