2015/12/18 11:00
CYKZ 181100Z 26006KT 210V290 15SM OVC033 01/M06 A2982 RMK SC8 SLP105
