2015/12/10 15:30
CYLC 101530Z 13013KT 10SM -SG DRSN OVC015 M07/M10 A2976 RMK SN1SC7 -7.3/-15.3/TR/TR TRACE LOOSE LAST OB SLP082
