2015/12/18 11:00
CYLH 181100Z AUTO 26011G16KT 3SM -SN OVC025 M12/M14 A2934 RMK SLP957
