2015/12/18 00:00
CYLJ 180000Z 32008KT 15SM -SN OVC023 M13/M17 A2997 RMK SC8 LAST STFD OB/NXT 181200UTC SLP192
