2015/12/10 01:00
CYLK 100100Z 06008KT 10SM -SN OVC020 M16/M18 A2966 RMK SC8 -15.0/-17.0/1.0/22 MUCH LOOSE/LAST OB/NXT 101500Z SLP064
