2015/12/16 20:00
CYLT 162000Z 32004KT 15SM SCT030 OVC065 M25/M28 A2997 RMK SC3SC5 LAST OBS/NEXT 181300 UTC SLP154
