2015/12/17 22:00
CYLU 172200Z 13005KT 5SM BCFG BKN004 M18/M21 A3010 RMK ST6 SNW CVR/MUCH LOOSE LAST OBS/NEXT 181300Z SLP202
