2015/12/18 11:02
CYLW 181102Z AUTO 11003KT 100V200 1 1/2SM -SN BKN021 OVC031 M04/M04 A2966 RMK SLP067
