2015/12/18 11:00
CYMA 181100Z 02010KT 340V050 15SM BKN050 M09/M12 A2949 RMK SC6 SLP031
