2015/12/18 11:00
CYMH 181100Z AUTO VRB02KT 9SM CLR M16/M18 A3007 RMK SLP185
