2015/12/18 11:00
CYMJ 181100Z 34015KT 8SM -SN OVC021 M13/M16 A2999 RMK SC8 FST OBS SLP201
