2015/12/18 11:13
CYMM 181113Z AUTO 08003KT 5SM -SN OVC018 M16/M18 A3010 RMK SLP232
