2015/12/18 11:00
CYMO 181100Z AUTO 20009KT 9SM CLR M06/M08 A2949 RMK SLP990
