2015/12/18 11:00
CYMT 181100Z 20005KT 1 1/2SM -SHSN OVC005 00/M00 A2954 RMK SN1ST7 SLP021
