2015/12/17 21:00
CYMU 172100Z 12024G33KT 1SM -SHSN DRSN OVC060 M10/M14 A2956 RMK SN2SC6 LASTOBS/NEXT 18 1300Z SLP019
