2015/12/18 11:00
CYMX 181100Z 23004KT 25SM OVC050 02/01 A2972 RMK SC8 SLP070
