2015/12/18 11:18
CYNA 181118Z AUTO 12009KT 7SM -UP OVC005 00/M00 A2987 RMK SLP116
