2015/12/17 21:00
CYNC 172100Z 15007KT 15SM OVC010 M01/M02 A2938 RMK SC8 LAST OBS/NEXT 181400Z SLP951
