2015/12/18 02:00
CYND 180200Z 29006KT 15SM FEW004 OVC025 05/05 A2965 RMK SF2SC6 LAST OBS/NEXT 181200 UTC SLP046
