2015/12/18 11:00
CYNM 181100Z AUTO 18004KT 9SM SCT190 SCT220 M06/M07 A2958 RMK SLP033
