2015/12/18 00:00
CYOA 180000Z 04014KT 12SM DRSN OVC050 M24/M26 A3014 RMK SC8 -22.0/-23.7/0/57 TRACE LOOSE LAST OB/NEXT 181200Z SLP275
