2015/12/17 21:00
CYOC 172100Z 06009KT 5SM -SN OVC013 M16/M18 A2988 RMK ST8 VIS N 2 CLIMAT -15.4/-17.0/0.4 CM/0.2 MWE/LAST STFD OBS/NXT 181400 UTC SLP150
