2015/12/18 11:00
CYOD 181100Z 32003KT 12SM -SN OVC018 M13/M16 A3003 RMK SC8 SLP215
