2015/12/18 11:17
CYOJ 181117Z AUTO 00000KT 9SM OVC003 M23/M26 A3009 RMK SLP234
