2015/12/18 11:00
CYOO 181100Z AUTO 26006KT 9SM OVC035 01/M06 A2982 RMK SLP104
