2015/12/18 11:00
CYOW 181100Z 25005KT 15SM FEW048 OVC054 02/M00 A2974 RMK SC1SC7 SLP076
