2015/12/18 11:00
CYOY 181100Z AUTO 01003KT 1/8SM OVC001 00/00 A2961 RMK SLP036
