2015/12/18 11:00
CYPA 181100Z 29007KT 15SM FEW020 M17/M20 A2999 RMK SC1 SLP199
