2015/12/18 00:00
CYPC 180000Z 12004KT 060V170 15SM BKN030 M14/M19 A3026 RMK SC7 -14.4/-21.0/TR/17 MEDIUM PACK LAST OB/NEXT 181400Z SLP249
