2015/12/18 11:00
CYPD 181100Z AUTO 09011G16KT 1/2SM -RA FG VV003 04/04 A2978 RMK PRESFR SLP091
