2015/12/18 11:00
CYPE 181100Z 07008KT 15SM -SN OVC007 M18/M20 A2995 RMK SC8 SLP199
