2015/12/18 02:00
CYPG 180200Z 28017KT 15SM OVC041 M11/M15 A2977 RMK SC8 SLP102
