2015/12/18 11:00
CYPO 181100Z AUTO 33004KT 1 1/2SM -SN BKN018 OVC024 M04/M05 A2922 RMK SLP899
