2015/12/18 11:00
CYPQ 181100Z AUTO 25006KT 9SM OVC037 01/M03 A2979 RMK SLP097
