2015/12/18 11:00
CYPR 181100Z AUTO 07006KT 9SM BKN040 BKN050 02/02 A2940 RMK SLP959
