2015/12/18 03:00
CYPW 180300Z VRB02KT 3SM -RASN FEW004 BKN009 OVC015 01/00 A2958 RMK SF2SF5SC1 LAST STFD OBS/NEXTV 181500 UTC SLP024
