2015/12/18 11:00
CYPX 181100Z AUTO 08020G27KT 9SM BKN210 OVC230 M17/M20 A2971 RMK SLP065
