2015/12/18 11:00
CYPY 181100Z AUTO 31003KT 280V340 9SM -SN OVC012 M19/M21 A3016 RMK SLP243
