2015/12/18 11:00
CYQA 181100Z AUTO 22005KT 9SM OVC034 00/M05 A2974 RMK SLP085
