2015/12/18 11:18
CYQB 181118Z 30003KT 260V040 1 1/2SM BR BKN003 OVC009 01/01 A2964 RMK SF6SF2 SLP041
