2015/12/18 11:00
CYQD 181100Z 30014KT 15SM -SN OVC016 M15/M18 A2986 RMK SC8 CIG PROJ 1600 FT SLP140
