2015/12/18 11:00
CYQF 181100Z 13012KT 2SM -SN OVC006 M15/M17 A2982 RMK SF8 SLP174
