2015/12/18 11:00
CYQG 181100Z 24009G16KT 15SM BKN033 00/M06 A2987 RMK SC7 SLP123
