2015/12/18 11:00
CYQH 181100Z 30002KT 8SM M17/M19 A2963 RMK SLP099
