2015/12/18 11:00
CYQI 181100Z 24014G20KT 1/4SM -SHRA FG VV001 11/11 A2950 RMK FG8 PRESRR SLP993
