2015/12/18 11:00
CYQK 181100Z 28009KT 8SM -SN DRSN OVC018 M16/M18 A2966 RMK SF8 SLP080
