2015/12/18 11:00
CYQL 181100Z AUTO 15005KT 100V170 9SM BKN060 OVC077 M11/M12 A2983 RMK SLP169
