2015/12/18 11:00
CYQM 181100Z 06005KT 3/8SM R06/2200FT/N R29/4000FT/U -RA FG VV004 02/02 A2961 RMK FG8 SLP031
