2015/12/18 11:00
CYQQ 181100Z 35003KT 5SM -RA BR SCT006 OVC015 01/01 A2942 RMK ST4SC4 SLP963
