2015/12/18 11:00
CYQR 181100Z 33012KT 10SM -SN DRSN OVC021 M14/M18 A2997 RMK SC8 SLP200
