2015/12/18 11:00
CYQT 181100Z 26013KT 8SM -SN SCT043 OVC070 M10/M13 A2963 RMK SC4AC4 SLP050
