2015/12/18 11:00
CYQU 181100Z 06014KT 25SM FEW150 M18/M21 A2980 RMK AC2 FROIN SLP156
