2015/12/18 11:00
CYQV 181100Z AUTO 31011KT 9SM BKN034 M18/M20 A2989 RMK SLP169
