2015/12/18 11:00
CYQW 181100Z AUTO 33005KT 9SM -SN OVC017 M14/M16 A3004 RMK SLP219
