2015/12/18 11:00
CYQX 181100Z 21004KT 15SM BKN090 BKN120 OVC150 M06/M08 A3009 RMK AC5AC1AC2 SLP200
