2015/12/18 11:10
CYQY 181110Z 13009KT 1SM R07/P6000FT/D -DZ BR OVC002 03/03 A2988 RMK ST8 SLP122
