2015/12/18 11:00
CYQZ 181100Z AUTO 31004KT 1SM -SN VV015 M07/M07 A2949 RMK SLP024
