2015/12/18 01:00
CYRA 180100Z 00000KT 15SM IC FEW070 M34/M37 A3023 RMK AC1 -30.4/-35.3/0/36.0 SNW CVR/MUCH LOOSE LAST OBS/NEXT 181500Z SLP278 DENSITY ALT MISG
