2015/12/18 11:00
CYRB 181100Z 33018KT 15SM IC FEW090 M37/M40 A3018 RMK AC1 SLP236 DENSITY ALT MISG
