2015/12/18 11:00
CYRJ 181100Z 24010KT 20SM OVC030 02/00 A2960 RMK SC8 SLP033
