2015/12/18 11:00
CYRL 181100Z 28013KT 250V310 15SM -SN DRSN BKN015 M15/M17 A2957 RMK SC7 SLP048
