2015/12/18 11:00
CYRT 181100Z 03013KT 10SM IC FEW020 BKN120 M18/M21 A3004 RMK SC2AC3 SLP178
