2015/12/18 11:03
CYRV 181103Z AUTO 18002KT 1 3/4SM -SN OVC028 M05/M05 A2977 RMK SLP107
