2015/12/18 11:00
CYSB 181100Z 20009KT 15SM -SN BKN030 OVC050 M03/M06 A2965 RMK SC5SC3 SLP058
