2015/12/18 11:15
CYSC 181115Z AUTO 25009G15KT 9SM SCT017 BKN023 OVC035 04/03 A2969 RMK SLP061
