2010/04/03 06:00
CYSE 030600Z 16006KT 1 1/2SM RA BR SCT005 OVC016 04/03 A2932 RMK SF3SC5 LAST OBS/END OF CONTRACT SLP929
