2015/12/18 11:18
CYSF 181118Z AUTO 28005KT 6SM -SN OVC018 M19/M22 A3006 RMK SLP210
