2015/12/18 11:00
CYSJ 181100Z 10009KT 2SM -RA BR SCT004 OVC010 09/08 A2955 RMK SF3SC5 SLP011
