2015/12/17 23:00
CYSK 172300Z 11021KT 4SM -SN DRSN OVC014 M07/M08 A2946 RMK SC8 -6.7/-9.4/M/M LAST OBS/NEXT 181300UTC SLP982
