2014/06/30 20:00
CYSL 302000Z 28005KT 3SM HZ SCT030 30/17 A2982 RMK CU4 LAST OFFICIAL OBS/STATION CLOSING PERMANENTLY/ ANY OBS AFTER THIS IS NOT DONE BY CERTIFIED PERSON/ SLP097
