2015/12/18 11:00
CYSM 181100Z 00000KT 15SM IC SKC M28/M31 A3017 RMK FROIN SLP248 DENSITY ALT MISG
