2015/12/18 02:00
CYSN 180200Z 28008G17KT 15SM OVC033 04/M01 A2979 RMK SC8 LAST STFD OBS / NEXT 181200 UTC SLP092
