2015/12/17 22:00
CYSP 172200Z 26016G26KT 12SM DRSN FEW008 BKN015 OVC090 M05/M08 A2946 RMK SC2SC4AC2 LAST STFD OBS/NEXT 181300UTC SLP995
