2015/12/18 00:00
CYSY 180000Z 10012KT 15SM FEW210 M23/M27 A3035 RMK CI1 SNW CVR HARD PACK SLP293
