2015/12/18 11:18
CYTE 181118Z AUTO 07004KT 360V100 6SM -SN FEW006 M19/M21 A3002 RMK SLP173
