2007/10/24 21:00
CYTJ 242100Z 34002KT 15SM BKN030 04/M03 A3025 RMK SC5 LAST OBS/ PERIOD. ABANDONED WX STATION. BYE-BYE! SLP258
