2015/12/18 11:05
CYTL 181105Z AUTO 34007G16KT 9SM -SN OVC025 M09/M11 A2936 RMK SLP961
