2015/12/17 22:00
CYTQ 172200Z 00000KT 1/2SM FZFG SCT011 M29/M33 A3007 RMK SC3 LAST STFD NXT/181300Z SLP192 DENSITY ALT MISG
