2015/12/18 11:00
CYTR 181100Z 25007KT 15SM OVC042 03/M04 A2981 RMK SC8 SLP098
