2015/12/18 11:00
CYTS 181100Z 20007KT 15SM SCT044 M06/M08 A2954 RMK SC3 SLP020
