2015/12/18 11:00
CYTZ 181100Z AUTO 28008KT 9SM OVC037 02/M06 A2984 RMK SLP109
