2015/12/18 06:00
CYUB 180600Z 09016KT 15SM DRSN SCT050 M20/M23 A3001 RMK SC3 SNW CVR ONE LOOSE SLP164
