2015/12/18 11:00
CYUL 181100Z 26009KT 15SM OVC053 04/01 A2973 RMK SC8 SLP068
