2015/12/17 23:00
CYUT 172300Z 36021G27KT 6SM BLSN SKC M25/M28 A3020 RMK AURBO -17.1/-25.4/TR/7.0 SNW CVR/TRACE LOOSE LAST STFD OBS/NXT 181300Z SLP231 DENSITY ALT MISG
