2015/12/18 11:00
CYUX 181100Z AUTO 30011KT 9SM CLR M34/M38 A3018 RMK SLP223 DENSITY ALT MISG
