2015/12/18 11:00
CYUY 181100Z 20004KT 190V250 15SM -SN BKN040 M03/M05 A2961 RMK SC5 SLP043
