2015/12/18 11:00
CYVC 181100Z 28009KT 15SM -SN OVC015 M17/M20 A3001 RMK SC8 SLP203
