2015/12/18 11:00
CYVL 181100Z AUTO 09009KT 9SM SCT140 SCT160 M20/M23 A2986 RMK SLP151
