2015/12/18 11:00
CYVM 181100Z AUTO 20007KT 9SM BKN029 M22/M26 A2990 RMK SLP127
