2015/12/18 11:00
CYVO 181100Z 22008KT 0SM R18/P6000FT/N -SN OVC022 M02/M03 A2962 RMK SC8 /S02 AFT 00UTC/ SLP052
