2015/12/18 11:00
CYVP 181100Z 04006KT 15SM -SN OVC130 M19/M21 A2982 RMK AC8 SLP103
