2015/12/18 11:00
CYVQ 181100Z 13016G21KT 30SM SCT260 M19/M21 A2981 RMK CI4 SLP108
