2015/12/18 11:00
CYVR 181100Z 09005KT 070V140 4SM -RA BR FEW002 SCT006 OVC019 03/03 A2943 RMK SF1SF2SC5 SLP968
