2015/12/18 04:00
CYVT 180400Z 34007KT 15SM -SN FEW016 OVC033 M16/M19 A3001 RMK SC2SC6 PCPN VRY LGT SNW CVR/TRACE LOOSE LAST STFD OBS/NEXT 181200 UTC SLP206
