2015/12/18 11:00
CYVV 181100Z 25010G18KT 12SM OVC035 01/M06 A2975 RMK SC8 SLP083
