2015/12/18 11:00
CYWA 181100Z AUTO 31003KT 9SM OVC037 01/M01 A2974 RMK SLP077
