2015/12/18 11:00
CYWE 181100Z AUTO 08006KT 9SM BKN055 M22/M25 A3014 RMK SLP260
