2015/12/18 11:00
CYWG 181100Z 29017KT 6SM -SN DRSN BKN032 M14/M17 A2981 RMK SC6 SLP116
