2015/12/18 05:00
CYWH 180500Z 09012KT 2 1/2SM -RA BR BKN003 OVC008 06/04 A2952 RMK SF5SC3 VIS SW 10 LAST STFD OBS/NEXT 181400 UTC SLP996
