2015/12/18 00:00
CYWJ 180000Z 09018G26KT 40SM SKC M23/M26 A3007 RMK -21.5/-24.0/0/25 MUCH LOOSE LAST OB/NXT 181400UTC SLP212
