2015/12/18 11:00
CYWK 181100Z 13003KT 100V160 15SM -SN OVC024 M07/M08 A2962 RMK SC8 SLP072
