2015/12/18 11:00
CYWL 181100Z 10009KT 1 1/2SM -SN OVC015 M05/M06 A2940 RMK SN4ST4 /S03/ SLP003
