2015/12/17 23:00
CYWY 172300Z 12008KT 15SM SCT010 BKN240 M25/M29 A3014 RMK SF3CI3 -24.3/-28.2/0/44 SNW CVR/MUCH LOOSE LAST OB/NXT 181500Z SLP231
