2015/12/18 11:00
CYXC 181100Z 00000KT 2SM -SN OVC013 M09/M11 A2979 RMK SN5SC3 SLP143
