2015/12/18 11:00
CYXE 181100Z 36010KT 15SM -SN OVC020 M13/M17 A3002 RMK SC8 SLP212
