2015/12/18 11:00
CYXH 181100Z AUTO 06006KT 9SM -SN OVC009 M12/M13 A2994 RMK SLP185
