2015/12/18 11:00
CYXJ 181100Z 33004KT 15SM SCT008 OVC080 M21/M24 A2984 RMK ST4AC4 SLP176
