2015/12/18 11:00
CYXL 181100Z 28010G17KT 6SM -SN DRSN FEW016 OVC024 M14/M16 A2956 RMK SF2SC6 SLP044
