2015/12/18 01:00
CYXP 180100Z 00000KT 15SM FEW070 M24/M26 A2998 RMK AC2 CALL OUT LAST STFD OBS/NEXT 181200 WND ESTD SLP157
