2015/12/17 23:00
CYXQ 172300Z 16002KT 10SM -SN OVC035 M15/M17 A2944 RMK SC8 CLIMAT -15.0/-17.5/2.0CM/0.1MWE LAST STFD OBS NEXT 181700UTC VIA CYXY SLP038
