2015/12/18 11:08
CYXR 181108Z AUTO 23007G15KT 9SM SCT041 BKN055 M03/M07 A2964 RMK ICG SLP050
