2015/12/18 11:00
CYXS 181100Z AUTO 36010KT 9SM OVC060 M08/M08 A2947 RMK PRESFR SLP030
