2015/12/18 11:00
CYXT 181100Z 01015G23KT 15SM FEW005 BKN049 M03/M06 A2950 RMK SF1SC6 SLP001
