2015/12/18 11:00
CYXU 181100Z 24007KT 15SM OVC034 M01/M06 A2983 RMK SC8 SLP114
