2015/12/18 11:00
CYXX 181100Z VRB02KT 8SM RA FEW005 BKN020 OVC025 02/01 A2946 RMK SF2SC4SC2 PRESRR SLP980
