2015/12/18 11:00
CYXY 181100Z 18015KT 15SM -SN SCT023 OVC045 M08/M10 A2940 RMK SC3SC5 SLP006
