2015/12/18 11:00
CYXZ 181100Z 26005KT 190V310 3/8SM SN VV003 M05/M06 A2952 RMK SN8 SLP015
