2015/12/18 11:07
CYYB 181107Z AUTO 23005KT 210V290 9SM -SN SCT027 BKN035 OVC045 M02/M05 A2967 RMK SLP065
