2015/12/18 11:07
CYYC 181107Z 15009KT 6SM -SN BR BKN008 OVC014 M13/M15 A2977 RMK SC5SC3 SLP159
