2015/12/18 11:00
CYYD 181100Z AUTO VRB02KT 8SM -SN OVC041 M06/M07 A2953 RMK SLP027
