2015/12/18 11:00
CYYE 181100Z 20003KT 15SM SCT030 BKN050 M23/M25 A2993 RMK SC3SC3 SLP179
