2015/12/18 11:00
CYYF 181100Z 14011G19KT 6SM -SN FEW015 BKN025 OVC050 M01/M04 A2966 RMK SC2SC3SC3 PRESFR SLP059
