2015/12/18 11:00
CYYG 181100Z 13012G18KT 10SM -SHRA OVC004 05/05 A2968 RMK SF8 SLP054
