2015/12/18 11:00
CYYH 181100Z 17005KT 130V250 15SM IC SKC M36/M40 A3030 RMK FROIN SLP268 DENSITY ALT MISG
