2015/12/18 11:00
CYYJ 181100Z 26006KT 1 1/2SM -RA BR FEW002 BKN005 BKN008 OVC012 04/03 A2944 RMK FG1SF1SF4SC2SC1 SF TR SLP971
