2015/12/18 11:00
CYYL 181100Z AUTO 32010KT 9SM -SN OVC009 M16/M17 A2984 RMK SLP143
