2015/12/18 11:00
CYYN 181100Z AUTO 33009KT 9SM -SN OVC008 M15/M17 A2992 RMK SLP197
