2015/12/18 11:00
CYYQ 181100Z 02022KT 4SM -SN BLSN OVC014 M10/M12 A2976 RMK SC8 SLP083
