2015/12/18 11:14
CYYR 181114Z 06007KT 5SM -SHSN OVC042 M13/M16 A2998 RMK SC8 SLP158
