2015/12/18 11:00
CYYT 181100Z 18005KT 15SM OVC018 M04/M07 A3013 RMK SC8 SLP214
