2015/12/18 11:00
CYYU 181100Z 25006KT 15SM FEW025 M09/M12 A2952 RMK SC2 SLP013
