2015/12/18 11:01
CYYW 181101Z AUTO 28009KT 9SM -SN BKN170 OVC190 M15/M17 A2947 RMK SLP017
