2015/12/18 11:00
CYYY 181100Z 15003KT 100V180 15SM OVC015 01/M00 A2966 RMK SC8 SLP048
