2015/12/18 11:00
CYYZ 181100Z 25009KT 15SM BKN035 01/M07 A2983 RMK SC7 SLP108
