2015/12/18 11:00
CYZE 181100Z AUTO 24018G23KT 9SM FEW046 OVC060 00/M06 A2968 RMK SLP061
