2015/12/18 11:00
CYZF 181100Z 07005KT 3/4SM R34/3500FT/D BR OVC003 M25/M28 A3020 RMK FG4ST4 SLP261
