2015/12/17 22:00
CYZG 172200Z VRB02KT 15SM SKC M17/M19 A3000 RMK SNW CVR MUCH LOOSE LAST OBS/NXT 181300 UTC SLP191
