2015/12/18 11:00
CYZH 181100Z AUTO 13010G16KT 9SM -SN OVC011 M14/M16 A2996 RMK SLP197
