2015/12/18 11:00
CYZP 181100Z AUTO VRB02KT 9SM FEW050 SCT130 02/00 A2938 RMK SLP950
