2015/12/18 11:00
CYZR 181100Z AUTO 24007KT 9SM OVC038 01/M06 A2984 RMK SLP113
