2015/12/18 11:00
CYZS 181100Z 00000KT 15SM SKC M19/M22 A3003 RMK SLP179
