2015/12/18 11:00
CYZT 181100Z 19003KT 150V220 8SM -RA BKN009 OVC015 03/02 A2938 RMK SC6SC2 SLP950
