2015/12/18 05:00
CYZU 180500Z 10009KT 12SM -SG BKN003 M17/M19 A2992 RMK SF7 FROIN LAST OBS/NEXT 181300Z SLP200
