2015/12/18 11:00
CYZV 181100Z 06007KT 15SM -SN OVC007 M02/M02 A2973 RMK SF8 SLP071
