2015/12/18 01:00
CYZW 180100Z 11008KT 2SM -SN BKN021 OVC041 M09/M11 A2951 RMK SN3SC3SC2 CLIMAT -8.9/-12.9/0.3 CM/TR MM MWE/LAST OBS/NEXT 181700 UTC SLP049
