2015/12/18 11:00
CYZY 181100Z AUTO 33006KT 320V030 9SM BKN100 M09/M13 A2959 RMK PRESFR SLP069
