2015/12/18 11:00
CZBF 181100Z 00000KT 1/4SM -RA FG VV001 00/00 A2966 RMK FG8 SLP050
