2015/12/17 21:00
CZEM 172100Z 15006KT 15SM BKN008 OVC035 02/01 A2940 RMK SC5SC3 LAST OBS/NEXT 201500 UTC SLP958
