2015/12/17 23:00
CZFA 172300Z 12009KT 30SM FEW025 BKN100 BKN120 OVC180 M18/M21 A2963 RMK SC1AC6AC1AC1 SC TR CLIMAT -17.6/-21.5/0.0 LAST STFD OBS/NEXT 181500UTC SLP113
