2015/12/18 00:00
CZFM 180000Z 17002KT 15SM FEW140 M29/M32 A3001 RMK AC2 -27.3/-33.1/TR/SNW CVR/MUCH LOOSE LAST OBS/NXT 181400Z SLP169 DENSITY ALT MISG
