2015/12/18 00:00
CZFN 180000Z 03013G19KT 30SM FEW025 FEW240 M24/M27 A3004 RMK SC1CI1 SC TR SCTR CITR-22.4/-24.5/0.0/22/SN COV/ MUCH LOOSE/LAST OBS/ NEXT 181600 SLP190
