2015/12/18 11:00
CZMD 181100Z AUTO 30007KT 280V350 3SM -SN OVC030 M10/M11 A2942 RMK SLP988
