2015/12/18 02:00
CZMT 180200Z 19004KT 15SM FEW015 SCT020 BKN045 04/04 A2935 RMK SC1SC2SC2 LAST OBS/NEXT 181500 UTC SLP939
