2015/12/18 11:00
CZPC 181100Z AUTO 16002KT 1 3/4SM -SN OVC032 M12/M13 A2974 RMK SLP143
