2015/12/18 11:13
CZSJ 181113Z AUTO 30006KT 5SM -SN BKN055 OVC066 M12/M13 A2950 RMK SLP016
