2015/12/18 01:00
CZST 180100Z VRB03KT 6SM -SN OVC035 M02/M03 A2960 RMK SC8 LAST STFD OBS/NEXT181500Z SLP025
