2015/12/18 11:09
CZUM 181109Z AUTO 11008KT 5SM -SN BKN035 OVC050 M11/M12 A2973 RMK SLP109
