2015/12/18 11:02
CZVL 181102Z AUTO 14006KT 9SM -SN OVC011 M15/M17 A2991 RMK SLP187
