2015/12/18 11:00
DAAD 181100Z 00000KT CAVOK 14/06 Q1031
