2015/12/18 11:00
DAAE 181100Z 28008KT CAVOK 18/09 Q1029
