2015/12/18 11:00
DAAG 181100Z 24003KT 200V290 CAVOK 19/10 Q1030
