2013/04/27 13:10
DAAI 271310Z 22016KT 9999 SCT023 FEW030CB 24/13 Q1007
