2015/12/18 11:00
DAAP 181100Z 05010KT CAVOK 16/03 Q1030
