2015/12/18 11:00
DAAS 181100Z 28005KT CAVOK 14/05 Q1031
