2015/12/18 11:00
DAAT 181100Z 07010KT 030V100 CAVOK 18/M09 Q1028
