2015/12/18 11:00
DAAY 181100Z 20008KT CAVOK 16/07 Q1034
