2015/03/15 09:15
DAAZ 150915Z 00000KT 3000 BR BKN020 08/08 Q1019
