2015/12/18 11:00
DABB 181100Z 24003KT 210V270 9999 FEW030 17/07 Q1029
