2015/12/18 11:00
DABC 181100Z 00000KT CAVOK 14/07 Q1030
