2015/05/31 15:20
DABM 311520Z 32012KT 8000 SCT030CB 32/12 Q1012
