2010/05/04 17:00
DABR 041700Z 28012KT 9999 SCT030 11/05 Q1008
