2015/12/18 11:00
DAEF 181100Z 06006KT CAVOK 17/02 Q1030
