2015/12/18 11:00
DAEN 181100Z 06004KT CAVOK 17/02 Q1031
