2015/06/30 18:00
DAER 301800Z 06012KT CAVOK 38/06 Q1014
