2014/05/20 12:25
DAMI 201225Z 36010KT 8000 TS FEW026TCU FEW030CB 27/15 Q1009
