2010/05/04 17:00
DAML 041700Z 34008KT 9999 BKN026TCU 12/10 Q1007
