2008/10/11 14:00
DAMZ 111400Z 00000KT CAVOK 31/19 Q1020
