2015/12/18 11:00
DAOB 181100Z 00000KT CAVOK 19/06 Q1030
