2014/04/23 13:00
DAOG 231300Z 30005KT 9999 FEW026 SCT233 21/12 Q1022
