2015/12/18 11:00
DAOI 181100Z 10004KT CAVOK 16/08 Q1030
