2015/11/24 06:00
DAOL 240600Z 27010KT 7000 -RA FEW020TCU BKN026 08/07 Q1024
