2015/12/18 11:00
DAON 181100Z 00000KT CAVOK 21/04 Q1030
