2015/12/18 11:00
DAOO 181100Z 21006KT CAVOK 17/11 Q1029
