2015/12/18 11:00
DAOV 181100Z 00000KT CAVOK 17/09 Q1031
