2015/12/18 11:00
DAOY 181100Z 36002KT CAVOK 15/05 Q1033
