2012/07/23 06:00
DATG 230600Z 18007KT 8000 SCT046TCU SCT100 30/12 Q1009
