2015/12/18 11:00
DAUA 181100Z 02016KT CAVOK 18/05 Q1030
