2015/12/18 11:00
DAUG 181100Z VRB02KT CAVOK 19/03 Q1031
