2015/12/18 11:00
DAUH 181100Z 20006KT CAVOK 17/05 Q1030
