2015/12/18 11:00
DAUI 181100Z 06020KT 9000 DRSA NSC 20/M01 Q1028
