2015/12/18 11:00
DAUK 181100Z 00000KT 9999 FEW040 SCT233 14/06 Q1031
