2015/12/18 11:00
DAUL 181100Z 00000KT 9999 FEW036 19/07 Q1031
