2015/12/18 11:00
DAUO 181100Z 00000KT CAVOK 17/06 Q1030
