2015/12/18 10:00
DAUT 181000Z 09006KT CAVOK 15/01 Q1031
