2015/12/18 11:00
DAUU 181100Z 00000KT CAVOK 17/02 Q1030
