2015/12/18 11:00
DAUZ 181100Z 04010KT 9999 FEW040 16/06 Q1029
