2015/12/18 09:00
DBBB 180900Z 36010KT 2500 HZ NSC 25/12 Q1014 NOSIG
