2015/07/02 15:00
DBBC 021500Z 19009KT 9999 SCT012 BKN100 27/24 Q1011 NOSIG
