2009/09/21 17:00
DFCC 211700Z 18004KT 9999 FEW020 31/20 Q1010
