2007/05/12 14:00
DFFB 121400Z 24008KT 180V300 8000 NSC 38/17 Q1011 NOSIG
