2015/12/18 11:00
DFFD 181100Z 11011KT 080V140 4500 DU NSC 26/01 Q1020 BECMG 6000 NSW
