2007/05/12 17:00
DFOD 121700Z 22006KT CAVOK 38/16 Q1009
