2015/12/18 11:00
DGAA 181100Z 02009KT 360V060 4000 HZ NSC 31/12 Q1014 NOSIG
