2010/01/16 10:00
DGSN 161000Z 00000KT 8000 HZ FEW014 BKN100 25/23 Q1015 NOSIG
