2015/12/18 11:00
DIAD 181100Z 32006KT 6000 BKN013 29/26 Q1010 NOSIG
