2015/12/18 11:00
DIAP 181100Z 35008KT 320V020 7000 FEW015 28/24 Q1014 NOSIG
