2015/12/02 20:30
DIAQ 022030Z 24003KT 9999 SCT012 28/25 Q1012 NOSIG
