2015/12/18 11:00
DIBK 181100Z 10010KT 5000 HZ NSC 28/03 Q1018 NOSIG
