2015/12/18 11:00
DIBU 181100Z 00000KT 4000 HZ NSC 29/01 Q1015 NOSIG
