2015/12/18 11:00
DIGA 181100Z 34004KT 6000 NSC 28/22 Q1014 REFG BECMG HZ
