2015/12/18 11:00
DIKO 181100Z 06010KT 5000 HZ NSC 27/02 Q1018 NOSIG
