2015/12/18 11:00
DIMN 181100Z 06004KT 5000 HZ NSC 28/10 Q1017 NOSIG
