2015/12/18 11:00
DIOD 181100Z 06010KT 3000 HZ NSC 29/04 Q1018 NOSIG
