2015/12/18 11:00
DISP 181100Z 24002KT 6000 NSC 30/21 Q1014 NOSIG
