2015/12/18 11:00
DITB 181100Z 28006KT 8000 NSC 29/23 Q1014 NOSIG
