2015/12/18 11:00
DIYO 181100Z 36006KT 4000 HZ NSC 27/19 Q1016 NOSIG
