2009/11/09 19:00
DMJB 091900Z 07008KT 7000 -RA FEW014CB BKN016 OVC300 24/23 Q1012 CB/NE/E/SW
