2010/11/18 08:37
DMMM 180837Z 27010KT 9999 BKN013 29/25 Q1011 NOSIG
