2015/12/18 11:00
DNAA 181100Z 12005KT CAVOK 30/00 Q1016 NOSIG
