2010/01/29 14:00
DNBA 291400Z 00000KT CAVOK 38/04 Q1008
