2015/12/17 17:00
DNBE 171700Z 05004KT 8000 NSC 32/07 Q1012
