2015/11/27 19:00
DNEN 271900Z 00000KT 7000 FEW010 28/24 Q1011
