2015/12/15 07:00
DNGO 150700Z 11013KT 1200 HZ NSC 17/02 Q1018
