2015/12/17 16:00
DNIB 171600Z 24006KT 8000 NSC 33/11 Q1012
