2015/12/13 14:00
DNIL 131400Z 36006KT 5000 HZ NSC 34/05 Q1012
