2015/12/17 17:00
DNIM 171700Z 00000KT 7000 NSC 31/20 Q1011
