2011/06/08 08:00
DNIN 080800Z 00000KT 8000 BKN100 22/21 Q1013
