2015/12/13 16:00
DNJO 131600Z 02017KT 9000 NSC 24/03 Q1018
