2015/12/15 04:00
DNKN 150400Z 08004KT 3000 HZ NSC 12/12 Q1018 NOSIG
