2015/12/03 19:00
DNKT 031900Z 09005KT 3000 HZ NSC 22/M02 Q1012
