2013/05/02 11:00
DNMA 021100Z 30015KT CAVOK 38/19 Q1006
