2015/08/19 11:00
DNMK 191100Z 00000KT 9999 BKN013 30/24 Q1012
