2015/12/18 11:00
DNMM 181100Z 03006KT 350V060 4500 HZ NSC 31/08 Q1015 NOSIG
