2015/12/17 20:00
DNMN 172000Z 36009KT 9999 NSC 26/07 Q1011
