2011/05/03 15:33
DNNN 031533Z 21011KT 160V250 9999 BKN014 FEW020CB 31/24 Q1009 TEMPO 04019G32KT TS SQ
