2015/12/17 22:00
DNPO 172200Z 00000KT 7000 NSC 22/18 Q1013 NOSIG
