2015/05/13 06:10
DNYO 130610Z 00000KT CAVOK 31/22 Q1012
