2015/12/17 16:00
DNZA 171600Z 06014KT 8000 NSC 25/02 Q1015
