2015/12/18 11:00
DRRM 181100Z 08016KT 1500 DU NSC 24/M03 Q1020
