2015/12/18 11:00
DRRN 181100Z 08015KT 060V120 CAVOK 26/M01 Q1019 NOSIG
