2015/12/18 11:00
DRRT 181100Z 10016KT 8000 NSC 25/M03 Q1019
