2007/06/23 07:00
DRRZ 230700Z 26012KT CAVOK 29/19 Q1010
