2015/12/18 11:00
DRZA 181100Z 08016KT CAVOK 23/M01 Q1023
