2015/12/18 11:00
DRZR 181100Z 06014KT 3000 DU NSC 23/M04 Q1021
