2015/12/18 11:00
DTMB 181100Z 33005KT 280V010 8000 FEW026 18/07 Q1030 NOSIG
