2015/12/18 11:00
DTNH 181100Z AUTO 03004KT 350V060 CAVOK 16/09 Q1030
