2015/12/18 11:00
DTTA 181100Z 18003KT 120V240 8000 FEW026 16/11 Q1030 NOSIG
