2015/12/18 11:00
DTTB 181100Z 21004KT 5000 FEW020 14/13 Q1030
