2015/12/18 11:00
DTTD 181100Z VRB02KT 9999 SCT030 17/07 Q1031
