2015/12/18 11:00
DTTG 181100Z VRB02KT 8000 FEW020 SCT030 17/11 Q1030 NOSIG
