2010/01/15 09:00
DTTH 150900Z 28021KT 8000 FEW010 BKN023 05/03 Q0884
