2015/12/18 11:00
DTTZ 181100Z VRB02KT CAVOK 18/08 Q1030 NOSIG
