2015/12/08 08:00
DTVG 080800Z 28003KT 0300 FG NSC 10/10 Q1034 NOSIG
