2014/01/04 17:00
DUDU 041700Z 31009KT CAVOK 27/09 Q1015
