2011/06/08 10:00
DVEN 081000Z 13005KT 9999 SCT010 BKN100 24/23 Q1012
