2015/07/23 15:00
DXLK 231500Z 28006KT 9999 SCT016 SCT130 BKN260 30/23 Q1012
