2007/08/14 06:00
DXMG 140600Z 18002KT 9999 BKN010 OVC130 23/22 Q1010
