2008/04/24 23:00
DXPX 242300Z 18004KT 9999 TS FOW015 FEW020CB BKN230 29/26 Q1010 NOSIG
