2007/07/14 18:00
DXTA 141800Z 00000KT 9999 FEW013 SCT130 BKN260 28/25 Q1011
