2015/12/18 11:00
DXXX 181100Z 01011KT 350V050 6000 NSC 32/07 Q1014 NOSIG
