2015/12/18 10:50
EBAW 181050Z 22008KT 9999 BKN032 13/08 Q1022 NOSIG
