2015/12/18 10:55
EBBE 181055Z AUTO 22009KT 9999 BKN023/// BKN028/// 12/09 Q1023 WHT
