2015/12/18 10:50
EBBR 181050Z 23007KT 9999 FEW014 BKN030 12/08 Q1023 NOSIG
