2015/12/18 10:50
EBCI 181050Z 22008KT 9999 FEW010 BKN025 11/08 Q1024 NOSIG
