2015/12/18 10:55
EBCV 181055Z AUTO 20008KT 9999 OVC029/// 12/10 Q1023 BLU
