2015/12/18 10:55
EBFN 181055Z 20008KT 9999 FEW025 BKN038 12/10 Q1022 BLU
