2015/12/18 10:55
EBFS 181055Z 21007KT 9999 FEW010 BKN025 11/09 Q1024 BLU BLU TEMPO WHT
