2010/09/23 04:00
EBKE 230400Z 16012KT CAVOK 22/M02 Q1017
