2010/09/17 13:25
EBLH 171325Z 25010KT 9999 FEW033 SCT060 BKN075 14/08 Q1015 BLU
