2015/12/18 10:50
EBOS 181050Z 20010KT 9999 FEW018 BKN035 12/10 Q1022 NOSIG
