2015/12/18 10:50
EDAC 181050Z 23007KT 9000 -RA FEW024 BKN060 11/11 Q1022
