2015/12/18 10:50
EDAH 181050Z 25010KT 6000 -RA BKN003 10/09 Q1016
