2015/12/18 10:50
EDBC 181050Z 25008KT CAVOK 12/10 Q1020
