2015/12/18 10:50
EDDB 181050Z 24012KT 9999 -RA BKN008 12/11 Q1019 BECMG BKN015
