2015/12/18 10:50
EDDE 181050Z 24010KT 9999 FEW016 SCT052 11/09 Q1022 NOSIG
