2015/12/18 10:50
EDDH 181050Z 25010KT 230V290 9999 BKN011 BKN016 12/10 Q1018 BECMG SCT012
