2015/12/18 10:50
EDDK 181050Z 29008KT 9999 FEW022 BKN040 13/10 Q1023 NOSIG
