2015/12/18 10:50
EDDM 181050Z 21006KT 9999 SCT034 BKN090 07/07 Q1026 NOSIG
