2015/12/18 10:50
EDDN 181050Z VRB02KT 9000 -RADZ BKN015 09/08 Q1025 BECMG BKN012
