2015/12/18 10:50
EDDR 181050Z 23008KT 9999 SCT008 BKN012 10/08 Q1025 NOSIG
