2015/12/18 10:50
EDDS 181050Z VRB04KT 9999 FEW043 SCT300 13/08 Q1025 NOSIG
