2015/12/18 10:50
EDDT 181050Z 26012KT 6000 -DZ FEW005 BKN008 BKN009 12/11 Q1019 TEMPO 3500 DZ
