2015/12/18 10:50
EDDV 181050Z 25009KT 230V290 9999 BKN024 12/10 Q1020 NOSIG
