2015/12/18 10:50
EDFH 181050Z 25008KT 5000 -DZ BR BKN004 09/09 Q1024
