2015/12/18 10:50
EDFM 181050Z 17004KT 140V210 9999 OVC018 12/09 Q1025
