2015/12/18 10:50
EDGS 181050Z 27009KT 3000 BR FEW001 BKN003 09/09 Q1023
