2015/12/18 10:50
EDHK 181050Z 25011KT 9000 -DZRA OVC006 10/10 Q1016
