2015/12/18 10:50
EDHL 181050Z 25012KT 9999 BKN016 12/10 Q1017
