2015/12/18 10:50
EDJA 181050Z 22007KT CAVOK 09/06 Q1027
