2015/12/18 10:50
EDLN 181050Z 25006KT 210V300 9999 BKN033 13/09 Q1023
