2015/12/18 10:50
EDLP 181050Z 25010KT 220V300 9999 BKN035 11/07 Q1022
