2015/12/18 10:50
EDLV 181050Z 22007KT 9999 BKN032 13/09 Q1022
