2015/12/18 10:50
EDLW 181050Z 24011KT 9999 BKN019 11/07 Q1022
