2015/12/18 10:50
EDMO 181050Z 23009KT CAVOK 10/08 Q1026
