2015/12/18 10:50
EDOP 181050Z 24011KT 9999 FEW020 SCT026 12/10 Q1017
