2007/07/01 15:50
EDQD 011550Z 01011KT CAVOK 23/15 Q1012
