2015/12/18 10:50
EDQM 181050Z 23010KT 5000 -RA BKN003 OVC006 08/07 Q1023
