2015/12/18 10:50
EDSB 181050Z 23006KT 9999 BKN035 14/08 Q1025
