2014/04/30 16:20
EDTD 301620Z 20005KT 9000 -RA BKN007 OVC011 10/10 Q1011 LAST ?
