2015/12/18 10:50
EDVE 181050Z 26009KT 9999 BKN046 13/10 Q1020
