2015/12/18 10:50
EEEI 181050Z 15008KT 4300 -DZ BR OVC002 04/04 Q1003 R24/290095 NOSIG
