2009/03/29 20:00
EEJN 292000Z 34008KT CAVOK 21/11 Q1012 NOSIG
