2015/12/18 10:50
EEKA 181050Z 19008KT 4000 -DZ BR OVC003 07/07 Q1003
