2015/12/18 10:50
EEKE 181050Z 24008KT 210V270 0400 R17/0600 -DZ FG VV002 06/06 Q1005 R17/290095
