2007/06/13 07:00
EEMH 130700Z 09004KT CAVOK 34/12 Q1012
