2015/12/18 10:50
EEPU 181050Z 18009KT 0600 -DZ FG VV002 05/05 Q1005
