2015/12/18 11:20
EETN 181120Z 16008KT 6000 -DZ OVC002 02/02 Q1003 R08/290195 TEMPO 2000 BR
