2015/12/18 10:50
EETU 181050Z 15005KT 3500 BR OVC002 01/M00 Q1007
