2015/12/18 10:50
EFET 181050Z 16010KT 130V210 2700 -SN OVC020 M07/M08 Q0992
