2015/12/18 10:50
EFHA 181050Z 14009KT 2800 BR OVC004 01/00 Q1000
