2015/12/18 10:50
EFHF 181050Z 14006KT 110V170 3000 -DZ BR OVC003 04/03 Q1003
