2015/12/18 10:50
EFHK 181050Z 14011KT 5000 -DZ BR SCT001 OVC003 03/03 Q1003 TEMPO 4000
