2015/12/18 10:50
EFIV 181050Z 16007KT 120V210 5000 -SN OVC016 M07/M09 Q0998
