2015/12/18 10:50
EFJY 181050Z 15011KT 4900 BR -DZ BKN004 01/01 Q1001
