2014/11/19 09:20
EFKA 190920Z 19005KT 9999 OVC012 00/M01 Q1034
