2015/12/18 10:50
EFKE 181050Z AUTO 14011KT 110V170 1900 BR OVC004 M02/M02 Q0997
