2015/12/18 10:50
EFKI 181050Z 12010KT 2500 -FZDZ BR BKN007 OVC009 M03/M03 Q1001
