2015/12/18 10:50
EFKK 181050Z 14007KT 4000 -SNRA FEW002 BKN004 OVC011 00/00 Q0996
