2015/12/18 10:50
EFKS 181050Z 14015KT 2600 -FZRA BR OVC005 M07/M07 Q1002
