2015/12/18 10:50
EFKT 181050Z 15009KT 100V180 2800 -SN OVC014 M06/M07 Q0996 R16/49//93
