2015/12/18 11:20
EFKU 181120Z 14017KT 3500 -FZDZ OVC005 00/M01 Q1003 REFZDZ
