2015/12/18 10:50
EFLP 181050Z AUTO 14008KT 100V190 9999 OVC004 M02/M02 Q1006
