2015/12/18 10:50
EFMA 181050Z 21009KT 7000 OVC002 07/07 Q0999
