2015/12/18 10:50
EFMI 181050Z AUTO 13008KT 090V190 7000 -UP OVC008 M00/M01 Q1005
