2015/12/18 10:50
EFOU 181050Z AUTO 15012KT 4200 BR OVC004/// M01/M02 Q0998 R12/69//95
