2015/12/18 10:50
EFRO 181050Z 14009KT 100V180 2500 -FZDZ BR BKN003 M05/M06 Q0998
