2015/12/18 10:50
EFSI 181050Z AUTO 14009KT 110V180 4600 DZ BR OVC003 02/02 Q0996
