2015/12/18 10:50
EFTP 181050Z 15009KT 3500 -RA BR OVC004 03/03 Q1000
