2015/12/18 10:50
EFTU 181050Z AUTO 21006KT 170V260 6000 -RA OVC004/// 06/06 Q0999 R08/29//95
