2015/12/18 10:50
EFUT 181050Z 14013KT 3500 -DZ BR OVC002 M00/M00 Q1005
