2015/12/18 10:50
EFVA 181050Z AUTO 15007KT 2500 BR OVC005/// 01/01 Q0995 R16/29//95
