2015/12/18 10:50
EGAA 181050Z 19013KT 9999 -RA SCT014 BKN046 12/10 Q1006
