2015/12/18 10:50
EGAC 181050Z 19012G24KT 9000 -RA FEW012 SCT017 BKN023 12/08 Q1006
