2015/12/18 10:50
EGAE 181050Z 20017KT 9999 -RADZ FEW012 SCT045 13/11 Q1003
