2015/12/18 10:50
EGBB 181050Z 20008KT 170V240 9999 FEW020 11/09 Q1016
