2015/12/18 10:50
EGBJ 181050Z 21013KT 9999 FEW015 SCT040 13/10 Q1017
