2015/12/18 10:50
EGCC 181050Z 19012KT 9999 FEW012 12/09 Q1014
