2015/12/18 10:50
EGCN 181050Z 21010KT CAVOK 12/09 Q1015
