2013/06/21 07:50
EGDL 210750Z AUTO 25008KT //// // BKN002/// BKN014/// 14/14 Q1010
