2015/12/18 10:50
EGDR 181050Z 20015KT 9000 BR SCT004 SCT012 BKN060 12/12 Q1017 YLO2 NOSIG
