2015/12/18 10:50
EGDY 181050Z 19012KT 9999 -DZ FEW012 SCT020 BKN030 13/11 Q1018 WHT WHT TEMPO SCT012 GRN
