2015/12/18 10:50
EGEC 181050Z 16012KT 130V190 9999 RA FEW010 SCT025 BKN048 11/10 Q1005
