2015/12/18 10:50
EGEO 181050Z 20014KT 9999 -DZ SCT014 BKN020 11/09 Q1004
