2008/01/30 12:00
EGES 301200Z 00000KT 9999 FEW027 SCT020 BKN080 25/22 Q1008
