2015/12/18 10:50
EGGW 181050Z AUTO 22013KT 9999 BKN011 BKN029 12/11 Q1018
