2015/12/18 10:50
EGHE 181050Z 19025KT 8000 FEW003 SCT045 13/12 Q1016
