2015/12/18 10:50
EGHH 181050Z 21009KT 9999 FEW011 SCT014 BKN031 13/11 Q1020
