2015/12/18 10:50
EGHI 181050Z 19010KT 160V230 9999 FEW014 SCT034 12/10 Q1020 
