2012/10/31 16:50
EGHK 311650Z 28006KT 9999 -RA SCT010 BKN014 09/07 Q0981 RERA BECMG SCT015
