2015/12/18 10:50
EGHQ 181050Z 19013KT 9999 BKN010 12/11 Q1018
