2015/12/18 10:50
EGJA 181050Z 19011KT CAVOK 12/11 Q1021
