2015/12/18 10:50
EGJB 181050Z 19012KT 9999 FEW005 12/11 Q1021
