2015/12/18 10:50
EGKA 181050Z 21013KT 9999 FEW009 SCT035 13/11 Q1020
