2015/12/18 10:50
EGLC 181050Z 21010KT 9999 FEW018 SCT035 14/10 Q1020
