2015/12/18 10:50
EGLF 181050Z 22012KT 9999 FEW014 13/11 Q1020
