2015/12/18 10:50
EGMC 181050Z 20010KT 9999 FEW015 BKN036 12/09 Q1020
