2015/12/18 10:50
EGNC 181050Z 21010KT 9999 VCSH SCT018 SCT024 12/09 Q1009
