2015/12/18 10:50
EGNJ 181050Z 19013KT CAVOK 11/10 Q1015
