2015/12/18 10:50
EGNM 181050Z 22014KT 9999 FEW033 10/08 Q1013
