2015/12/18 10:50
EGNO 181050Z 17008KT 9999 SCT020 11/09 Q1012
