2015/12/18 10:50
EGNS 181050Z 21021KT 9000 -RA BKN006 12/11 Q1009 NOSIG
