2015/12/18 10:50
EGNT 181050Z 21012KT 9999 FEW025 BKN035 12/08 Q1010
