2015/12/18 10:50
EGNV 181050Z 13010KT 9999 FEW030 11/08 Q1012
