2015/12/18 10:50
EGNX 181050Z 21016KT 9999 FEW030 11/09 Q1016
