2015/12/18 10:50
EGOM 181050Z AUTO 21014KT 2600 SHRA FEW007/// BKN016/// 09/09 Q1008
