2015/12/18 10:50
EGOP 181050Z AUTO 20019KT 5000 // SCT009/// BKN018/// 12/12 Q1016
