2015/12/18 10:50
EGOS 181050Z AUTO 18008KT 9999 FEW022/// BKN150/// 12/09 Q1015
