2015/12/18 10:50
EGOV 181050Z 19023KT 6000 -RA FEW008 BKN010 BKN018 12/11 Q1012 RERA GRN TEMPO 3000 RA BKN004 YLO2
