2015/12/16 14:50
EGOW 161450Z 25011KT 9999 FEW011 SCT020 13/12 Q1015 WHT
