2015/12/18 10:50
EGPB 181050Z 23025KT 9000 -RADZ FEW010 SCT015 BKN028 10/08 Q0997 RERA NOSIG
