2015/12/18 10:50
EGPC 181050Z 20008KT 9999 FEW046 10/07 Q1000
