2015/12/18 10:50
EGPD 181050Z 18012KT 9999 FEW017 10/08 Q1003 NOSIG
