2015/12/18 10:50
EGPE 181050Z 23021KT 9999 VCSH FEW004 SCT020 BKN045 12/09 Q1000
