2015/12/18 10:50
EGPF 181050Z AUTO 22016KT 8000 -RA OVC015 11/09 Q1006
