2015/12/18 10:50
EGPH 181050Z AUTO 23012KT 9999 OVC023 12/09 Q1006
