2015/12/18 10:50
EGPI 181050Z 17015KT 130V190 9999 -SHRA FEW006 11/10 Q1004
