2015/12/18 10:50
EGPK 181050Z 19015KT 6000 -RA SCT020 12/10 Q1006
