2015/12/18 10:50
EGPL 181050Z 19020KT 6000 -RADZ FEW002 BKN004 BKN010 10/10 Q0999
