2015/12/18 10:50
EGPM 181050Z 24025G36KT 9999 VCSH FEW014 09/07 Q0994 NOSIG
