2015/12/18 10:50
EGPO 181050Z 23006KT 7000 -DZ BKN012 10/09 Q0998
