2015/12/18 10:50
EGPU 181050Z 20021KT 9000 RA SCT049 11/10 Q1001
