2015/12/18 10:50
EGQK 181050Z AUTO 23011KT 9999 BKN048/// 12/08 Q1000
