2015/12/18 10:50
EGQL 181050Z 24013KT 9999 BKN017 SCT029 11/09 Q1005 WHT
