2015/12/18 10:50
EGQS 181050Z 21010KT 9999 FEW030 SCT060 OVC230 11/08 Q1001 BLU NOSIG
