2014/10/17 09:50
EGRP 170950Z AUTO 12022KT 9999 FEW019/// BKN024/// 10/07 Q1009 W///S4
