2014/10/17 09:50
EGRW 170950Z AUTO 20018KT 9999 NCD 14/14 Q1009 W///S3
