2015/12/18 10:50
EGSC 181050Z 19009KT 9999 SCT029 13/10 Q1018
