2015/12/18 10:50
EGSH 181050Z 22011KT CAVOK 12/10 Q1018 NOSIG
