2015/12/18 10:50
EGSS 181050Z AUTO 21011KT 9999 FEW015 BKN030 12/10 Q1019
