2015/12/18 10:50
EGTC 181050Z 21012KT 9999 BKN030 12/10 Q1018
