2015/12/18 10:50
EGTK 181050Z 21011KT 9999 FEW036 12/10 Q1018
