2015/12/18 10:50
EGUB 181050Z 20011KT 9999 FEW016 BKN036 13/12 Q1019 BLU TEMPO SCT016 WHT
