2015/12/18 10:58
EGUL 181058Z AUTO 20008KT 9999 OVC033 13/09 A3005 RMK AO2 SLP179 T01270094
