2015/12/18 10:58
EGUN 181058Z AUTO 21009KT 9999 OVC034 13/10 A3006 RMK AO2 SLP183 T01280103
