2015/12/18 10:50
EGUO 181050Z 20011KT 9999 FEW010 BKN050 12/10 Q1019 BLU
