2015/12/18 11:03
EGVA 181103Z AUTO 21013KT 9999 SCT036 BKN150 12/12 A3005 RMK AO2
