2015/12/18 10:50
EGVN 181050Z 21009KT 9999 SCT018 BKN032 12/09 Q1018 WHT TEMPO SCT012 GRN
