2015/12/18 10:50
EGVO 181050Z 20014KT 9999 FEW014 SCT032 BKN110 13/09 Q1019 BLU
