2015/12/18 10:50
EGVP 181050Z AUTO 19008KT 9999 // SCT013/// BKN030/// 12/10 Q1019
