2015/12/17 12:50
EGWC 171250Z 20012KT 9999 -RADZ SCT018 BKN022 14/12 Q1010 WHT
