2015/12/18 10:50
EGXC 181050Z 19008KT CAVOK 10/09 Q1016 BLU
