2015/12/18 10:50
EGXD 181050Z 19008KT 9999 SCT032 BKN090 BKN210 11/08 Q1013 BLU NOSIG
