2015/12/18 10:50
EGXE 181050Z AUTO 19012KT 9999 BKN090/// BKN220/// 12/08 Q1012
