2013/12/19 08:50
EGXG 190850Z AUTO 23014KT 9999 NCD 04/M01 Q0996
