2015/12/18 10:50
EGXP 181050Z AUTO 21013KT 9999 // FEW220/// 11/09 Q1015
