2015/12/18 10:50
EGXS 181050Z AUTO 19013KT 9999 // NCD 11/09 Q1015
