2015/12/18 10:50
EGXT 181050Z 21015KT CAVOK 11/10 Q1016 BLU
