2015/12/18 10:50
EGXU 181050Z 21016KT 9999 FEW030 SCT090 BKN210 12/07 Q1013 BLU NOSIG
