2015/12/18 10:50
EGXV 181050Z AUTO 21010KT 9999 SCT230/// 11/09 Q1014
