2015/12/18 10:50
EGXW 181050Z 22016KT CAVOK 11/08 Q1015 BLU NOSIG
