2015/12/18 10:50
EGXZ 181050Z 21014KT CAVOK 11/09 Q1013 BLU
