2015/12/18 10:50
EGYD 181050Z 22019KT CAVOK 11/08 Q1016 BLU NOSIG
