2015/12/17 18:50
EGYH 171850Z 24015KT 9999 SCT035 BKN100 13/11 Q1012 BLU
