2015/12/18 10:50
EGYM 181050Z 19009KT 9999 FEW035 BKN250 12/10 Q1017 BLU NOSIG
