2010/03/16 08:50
EGYW 160850Z AUTO 25005KT 9999NDV // NCD 05/02 Q1025
