2015/12/18 10:55
EHAK 181055Z AUTO 23028KT 9000 NCD 10/08 Q1012
