2015/12/18 10:55
EHBK 181055Z AUTO 24008KT 210V280 9999 FEW021 OVC035 12/09 Q1023 NOSIG
