2015/12/18 10:55
EHDL 181055Z AUTO 23009KT 190V260 9999 OVC031 12/10 Q1021 BLU
