2015/12/18 10:55
EHDV 181055Z AUTO 24018KT 200V270 9999 NSC 10/08 Q1015
