2015/12/18 10:55
EHEH 181055Z AUTO 22010KT 9999 OVC032 12/09 Q1022 BLU 23010KT 9999 FEW015 BKN033
