2015/12/18 10:55
EHFD 181055Z AUTO 25029KT 9000 NSC 10/09 Q1014
