2015/12/18 10:55
EHFS 181055Z AUTO 21012KT 9999 OVC035/// 11/09 Q1021
