2015/12/18 10:55
EHFZ 181055Z AUTO 23022KT 9999 NCD 11/09 Q1016
