2015/12/18 10:55
EHGG 181055Z AUTO 24014KT 9999 BKN011 OVC013 12/10 Q1019 NOSIG
