2015/12/18 10:55
EHGR 181055Z AUTO 21006KT 170V260 9999 FEW025 OVC029 12/09 Q1022 BLU 22006KT 9999 FEW022 BKN035
