2015/12/18 10:55
EHJA 181055Z AUTO 22022KT 9999 FEW016/// 10/09 Q1016
