2015/12/18 10:55
EHJR 181055Z AUTO 24027G29KT //// ///////// 12/09 Q1017 W11/H15
