2015/12/18 10:55
EHKD 181055Z AUTO 23014KT 9000 BR NCD 11/10 Q1019 BLU 23015KT 8000 BR FEW045
