2015/12/18 10:55
EHKV 181055Z AUTO 23023KT //// // NSC 12/10 Q1018 RE//
