2015/12/18 11:11
EHLW 181111Z AUTO 23012KT 9999 FEW007 SCT014 12/10 Q1018 GRN 24011KT 9999 FEW007 SCT011
