2015/12/18 10:55
EHMA 181055Z AUTO 23018KT 9999 BKN041 10/09 Q1018
