2015/12/18 10:55
EHMG 181055Z AUTO 24025KT 9999 NCD 11/09 Q1017
