2015/12/18 10:55
EHPG 181055Z AUTO 22023KT 9999 FEW033 12/10 Q1019
