2015/12/18 10:55
EHRD 181055Z AUTO 22011KT 190V250 9999 OVC038 12/10 Q1021 NOSIG
