2015/12/18 10:55
EHSA 181055Z AUTO 22016G19KT 9999 ///////// 12/10 Q1020 W11/H9
