2008/11/20 09:25
EHSB 200925Z AUTO 28014KT 9999 // 11/09 Q1010
