2015/12/18 10:55
EHSC 181055Z AUTO 22021G23KT 9999 ///////// 11/09 Q1020 W11/H8
