2008/04/07 12:25
EHTW 071225Z AUTO 01006KT //// // BKN200/// 08/M04 Q1002 RE//
