2010/04/01 07:55
EHVB 010755Z AUTO 25017KT 9999NDV FEW021/// BKN037/// 05/01 Q1003 BLU
