2015/12/18 11:17
EHVL 181117Z AUTO 24017KT 7000 BR NCD 11/10 Q1018 WHT
