2015/12/18 10:55
EHWO 181055Z AUTO 22007KT 9999 OVC033 13/09 Q1021 BLU 22010KT 9999 BKN030
