2015/11/22 16:30
EIAP 221630Z 21008KT 9000 TS SCT011 FEW020CB 28/26 Q1007 NOSIG
