2015/08/31 05:00
EIBK 310500Z 22006KT 8000 SCT004 SCT010 21/21 Q1017 NOSIG
