2015/12/18 11:00
EICK 181100Z 19016KT 150V210 6000 FEW002 OVC003 11/11 Q1009 TEMPO 2000
