2015/12/18 11:00
EIDW 181100Z 19016G26KT 9999 -RA FEW030 BKN070 12/10 Q1008 NOSIG
