2015/12/18 11:00
EIKN 181100Z 18016KT 150V230 9999 -DZ BKN008 BKN017 10/10 Q1003 NOSIG
