2015/12/18 10:30
EIKY 181030Z 19015G28KT 9999 BKN026 14/11 Q1006
