2015/12/18 11:00
EIME 181100Z 20023KT 9999 -RA FEW014 BKN090 12/10 Q1008
