2015/12/18 11:00
EINN 181100Z 16021KT 9999 FEW018 BKN050 13/11 Q1006 NOSIG
