2015/12/18 11:00
EISG 181100Z 16013KT 6000 -RA SCT018 OVC023 11/10 Q1002
