2015/12/18 11:20
EKAH 181120Z AUTO 24008KT 210V280 9999NDV BKN010/// 10/08 Q1012
