2014/12/11 07:20
EKAV 110720Z AUTO 21028KT 9999NDV FEW013/// SCT033/// BKN058/// 05/03 Q0995
