2015/12/18 10:50
EKBI 181050Z AUTO 24013KT 8000NDV OVC006/// 10/09 Q1013
