2015/12/18 10:50
EKCH 181050Z 24014KT 9999 FEW011 BKN016 10/09 Q1013 TEMPO BKN012
