2015/12/18 11:20
EKEB 181120Z AUTO 25015KT 8000NDV BKN006/// 10/09 Q1013
