2014/12/11 07:20
EKGC 110720Z AUTO 25023G35KT 9999NDV 07/02 Q0992
