2015/12/03 09:59
EKGF 030959Z 21007KT 2000 SCT003 OVC005 09/08 Q1020
