2014/12/11 07:20
EKHA 110720Z AUTO 24036KT //// 07/00 Q0993
