2014/12/11 07:20
EKHD 110720Z AUTO 27039G54KT 8000NDV 04/01 Q0988
