2014/12/11 07:20
EKHN 110720Z AUTO 24010G34KT 190V270 9999NDV SCT030/// 08/05 Q0993
