2015/12/18 11:20
EKKA 181120Z 24013KT 9999 SCT009 BKN010 11/09 Q1011 TEMPO SCT010 BKN015
