2015/12/18 11:20
EKOD 181120Z 24014KT 8000 SCT006 BKN008 10/09 Q1014
