2015/12/18 11:20
EKRK 181120Z AUTO 26015KT 9999NDV FEW009/// BKN011/// OVC014/// 10/09 Q1013
