2015/12/18 11:20
EKRN 181120Z AUTO 26018KT 4500NDV BR OVC003/// 09/09 Q1014
