2015/12/18 11:20
EKSB 181120Z 25014KT 9999 BKN010 11/09 Q1014
