2015/12/18 10:50
EKSN 181050Z 25018KT 8000 BKN010 10/10 Q1008
