2015/12/18 11:20
EKSP 181120Z 25014KT 7000 SCT005 BKN007 10/09 Q1014 BECMG BKN008
