2014/12/11 07:20
EKTE 110720Z AUTO 23029G42KT 9999NDV 07/01 Q0992
