2015/12/18 11:20
EKVD 181120Z 25015KT 8000 SCT005 BKN006 10/09 Q1014
