2015/12/18 11:20
EKVG 181120Z AUTO 28010KT 9999NDV BKN006/// 07/06 Q0988
