2015/12/18 10:50
EKVJ 181050Z 23012KT 6000 FEW030 09/08 Q1013
