2015/12/18 11:20
EKYT 181120Z 24017KT 9999 OVC010 10/09 Q1009
