2015/12/18 10:50
ELLX 181050Z 21006KT 160V240 0500 R24/1300V1900U -DZ OVC001 10/10 Q1025 NOSIG
