2015/12/18 10:50
ENAL 181050Z 21019KT 9999 SCT004 BKN019 BKN024 09/07 Q0992
