2015/12/18 10:50
ENAT 181050Z 16013G24KT 9999 -SN FEW014 BKN030 M03/M08 Q0991 RMK WIND 700FT 18029G41KT
