2015/12/18 10:50
ENBL 181050Z 21007KT 9999 4000E -DZRA FEW003 SCT008 BKN014 06/06 Q0996
