2015/12/18 10:50
ENBO 181050Z 09020KT 9999 4000E -SHRA FEW008 SCT012 BKN020 04/02 Q0985 RESHRA BECMG 20020KT TEMPO 22025G35KT SHRA BKN012CB
