2015/12/18 10:50
ENBR 181050Z 21013KT 9000 -DZ FEW003 SCT006 BKN010 09/08 Q1000 TEMPO 22020G30KT SHRA SCT010TCU BKN020 RMK WIND 1200FT 22021G33KT
