2015/12/18 10:50
ENBS 181050Z 16028KT 9999 BLSN FEW020 M08/M11 Q0998
