2015/12/18 10:50
ENBV 181050Z 15017G28KT 9999 BLSN NSC M07/M11 Q0998
