2015/12/18 10:50
ENCN 181050Z 24012KT 9999 BKN014 10/08 Q1005
