2008/06/01 12:20
ENCR 011220Z 33004KT CAVOK 21/10 Q1020 NOSIG 
