2015/12/18 10:50
ENDR 181050Z AUTO 21029KT 09/08 Q0988
