2015/12/18 10:50
ENDU 181050Z 13007KT 110V180 9999 VCSH FEW030 BKN045 01/M03 Q0984 TEMPO 15015G25KT
