2015/12/18 10:50
ENEV 181050Z 12016KT 9999 VCSH SCT008 BKN015 04/01 Q0984 RMK WIND 1400FT 14010KT
