2015/12/18 10:50
ENFB 181050Z AUTO 22040KT 9999NDV FEW015/// BKN034/// 10/07 Q0993 W///S5
