2015/12/18 10:50
ENFG 181050Z 22007KT 170V260 9999 FEW/// SCT045 03/M00 Q0996
