2015/12/18 10:50
ENFL 181050Z 21020KT 9999 -DZ FEW007 SCT011 BKN014TCU 10/08 Q0995
