2015/12/18 10:50
ENGC 181050Z 24038KT 9999 SCT015 SCT040 10/08 Q0995 W08/S5
