2015/12/18 10:50
ENGM 181050Z 16003KT 110V190 0800 0250SE R19R/1100U R01R/0325N FG VV002 03/03 Q1000 TEMPO 5000 BR
