2015/12/18 10:50
ENHD 181050Z 21016KT 7000 FEW008 BKN038 OVC053 10/09 Q1002
