2015/12/18 10:50
ENHE 181050Z 22036KT 6000 -RA BKN010 08/08 Q0983 W///S4
