2015/12/18 10:50
ENHF 181050Z 19021G39KT 150V220 5000 BLSN BKN015 M03/M06 Q0985 RMK WIND 1254FT 17051G64KT
