2015/12/18 07:20
ENHK 180720Z 15031G41KT 9000 BLSN VCSH SCT020 BKN060 01/M03 Q0988
