2015/12/18 09:50
ENHV 180950Z 19024G38KT 150V220 0600 +BLSN VV003 M03/M05 Q0994
