2015/12/18 10:50
ENKB 181050Z 20007KT 9999 FEW008 SCT035 BKN045 09/06 Q0991
