2015/12/18 10:50
ENKR 181050Z 17017KT 9999 SCT030 BKN053 M10/M14 Q1001 RMK WIND 731FT 17029KT
