2015/12/18 10:50
ENLA 181050Z AUTO 23034KT 8000NDV FEW220/// 10/08 Q1006 W///S4
