2007/08/13 08:50
ENLI 130850Z 18010KT 9999 SCT012 BKN018 18/15 Q1003
