2015/12/18 10:50
ENLK 181050Z 17021KT 5000 SHRA SCT007 BKN010 07/07 Q0981
