2015/12/18 10:50
ENMH 181050Z 17027KT 5000 +BLSN VV020 M05/M07 Q0995
