2015/12/18 10:50
ENML 181050Z 06006KT 350V100 2000 BCFG SCT001 BKN050 04/04 Q0992
