2015/12/18 10:50
ENMS 181050Z VRB03KT 8000 FEW008 SCT016 BKN025 03/02 Q0988 RMK WIND 412FT 18005KT 0900V250
