2015/12/18 10:50
ENNA 181050Z 17027KT 3000 -SN VV015 M05/M07 Q0991 RMK WIND 1800FT 17061KT
