2015/12/18 10:50
ENNE 181050Z 23029KT 9999 FEW010 08/07 Q0983 W///S5
