2015/12/18 10:50
ENNK 181050Z 04011KT 9999 FEW020 BKN038 04/M00 Q0985
