2015/12/18 10:50
ENNM 181050Z 05005KT 010V120 9999 VCSH FEW003 SCT014 BKN026 03/03 Q0991
