2015/12/18 10:50
ENNO 181050Z 29003KT 0800 FG OVC002 00/00 Q1003
