2015/12/18 10:50
ENOL 181050Z 22010KT 9999 VCSH FEW007 FEW015CB BKN020 08/07 Q0992 NOSIG
