2015/12/18 10:50
ENQA 181050Z AUTO 22032KT 9999NDV BKN045/// BKN059/// 10/08 Q0997 W07/S4
