2015/12/18 10:50
ENQC 181050Z AUTO 21031KT 9999NDV BKN019/// 10/08 Q0996 W///S4
