2015/12/18 10:50
ENQR 181050Z AUTO 23035KT 9999NDV BKN015/// BKN099/// 10/08 Q0991 W///S5
