2015/12/18 10:50
ENRM 181050Z 22020KT 9999 -RA FEW004 SCT008 BKN010 08/07 Q0990
