2015/12/18 10:50
ENRO 181050Z VRB02KT 4000 1000N R32/0400V0800N VCFG BKN003 M00/M00 Q0994
