2015/12/18 10:50
ENRY 181050Z 19005KT 8000 5000E BKN003 07/07 Q1002 TEMPO 4000 BR
