2015/12/18 10:50
ENSB 181050Z 12030G40KT 4000 -SN BLSN VV008 M03/M07 Q0991 RMK WIND 1400FT 10043KT
