2015/12/18 10:50
ENSD 181050Z VRB06KT 9999 -SHDZRA FEW001 SCT030 BKN045 07/06 Q0995 RMK WIND 1138FT VRB07KT
