2015/12/18 10:50
ENSE 181050Z AUTO 23038KT 5000NDV -RA FEW015/// SCT029/// BKN036/// 09/06 Q0993 W///S5
