2015/12/18 10:50
ENSF 181050Z AUTO 23042KT 9999NDV SCT016/// BKN029/// 10/07 Q0993 W///S5
