2015/12/18 10:50
ENSG 181050Z 24008KT 9999 -RA FEW025 BKN035 05/04 Q0996 RMK WIND 3901FT /////KT
