2015/12/18 10:50
ENSH 181050Z 19028KT 8000 SHRA FEW005 SCT008 BKN010 06/05 Q0982
