2015/12/18 10:50
ENSK 181050Z 19018KT 9999 VCSH FEW015 SCT025 BKN030 07/04 Q0981
