2015/12/18 10:50
ENSL 181050Z 24036KT 9000 SCT055 10/09 Q1002 W08/S5
