2015/11/09 08:50
ENSN 090850Z 20010G22KT 150V240 CAVOK 07/03 Q1000
