2015/12/18 10:50
ENSO 181050Z 22010KT 130V250 7000 2000E -RADZ SCT010 BKN030 09/08 Q1001
