2015/12/18 10:50
ENSS 181050Z 17029KT CAVOK M03/M10 Q1003 RMK WIND 500FT 18030KT
