2015/12/18 10:50
ENTC 181050Z 19025KT 9999 FEW022 SCT030 BKN038 03/M01 Q0983 TEMPO BKN012 RMK WIND 2600FT /////KT
