2015/12/18 10:50
ENTO 181050Z 22012KT 9000 BKN006 08/08 Q1002
