2015/12/18 10:50
ENVA 181050Z 11007KT 9999 3000SE VCFG FEW010 BKN056 03/03 Q0993 TEMPO 1200 BCFG SCT001 BKN050 BECMG NSW RMK WIND 670FT 15008KT
