2015/12/18 10:50
ENVD 181050Z 16020KT 9999 FEW015 BKN050 M06/M12 Q1002
