2015/12/18 10:50
ENVH 181050Z AUTO 23035KT 9000NDV NCD 10/08 Q1010 W///S4
