2015/12/18 10:50
ENZV 181050Z 21011KT 9000 OVC009 10/09 Q1004 BECMG SCT010 BKN020
