2015/12/18 11:00
EPBY 181100Z 24007KT CAVOK 11/09 Q1017 
