2015/12/18 11:00
EPGD 181100Z 27011KT 9999 FEW009 10/09 Q1014 
