2007/12/20 04:30
EPKC 200430Z 11003KT 6000 SKC 17/03 Q1019 NOSIG
