2015/12/18 11:00
EPKK 181100Z 26011KT CAVOK 09/06 Q1021 
