2015/12/18 11:00
EPLB 181100Z 24011KT 3500 -DZ BR SCT004 OVC005 07/07 Q1019 
