2015/12/18 11:00
EPLL 181100Z 25008KT CAVOK 09/08 Q1019 
