2015/12/18 11:00
EPMO 181100Z 25010KT 2500 BR OVC004 09/09 Q1017 
