2014/03/03 07:00
EPMZ 030700Z 22004KT 9999 FEW018 32/22 Q1010 A2985
