2015/12/18 11:00
EPPO 181100Z 25009KT 9999 BKN009 11/10 Q1018 
