2015/12/18 11:00
EPRZ 181100Z 22013KT 9999 BKN026 04/01 Q1022 
