2015/12/18 11:00
EPSC 181100Z 23007KT 200V260 6000 SCT004 BKN006 11/10 Q1016 
