2015/12/18 11:00
EPWA 181100Z 27007KT 6000 BKN007 10/09 Q1018 NOSIG
