2015/12/18 11:00
EPWR 181100Z 25006KT CAVOK 14/08 Q1021 
