2015/12/18 11:00
EPZG 181100Z 22010KT 8000 -RA FEW012 SCT020 BKN043 11/11 Q1019 
