2009/10/07 05:00
EQAP 070500Z VRB00KT 8000 VCFG NSC 06/06 Q1024
