2010/03/16 12:55
EQAR 161255Z AUTO 22008G18KT 9999 CLR 10/M07 Q1020 RMK AO2 SLP225 BLU
