2007/12/06 12:30
EQAT 061230Z AUTO 36011KT 320V050 CAVOK 03/M02 Q1018
