2010/02/28 22:50
EQBM 282250Z 23014KT 8000 -RA BKN020 BKN030 11/10 Q1014 WHT WHT
