2008/02/24 02:50
EQBN 240250Z 30004KT 9999 SKC 07/M03 Q1023 BLU NOSIG
