2008/12/12 20:00
EQQL 122000Z 08008KT 9999 -RA SCT020 SCT100 26/24 Q1011
