2010/03/16 14:30
EQTK 161430Z AUTO 18004KT 3400 HZ SKC 22/00 Q1021
