2009/04/28 22:55
EQYC 282255Z AUTO VRB02KT 9999 -SHRA BKN040 OVC047 07/07 A2979 RMK AO2 SLP087
