2008/04/29 18:55
EQYF 291855Z AUTO 00000KT 9999 FEW065 07/06 A2973 RMK AO2 SLP078
