2010/03/16 13:56
EQYG 161356Z AUTO VRB05KT 10SM CLR 17/03 A3021 RMK AO2 SLP225 T01670028 TSNO FIBI
