2010/03/16 13:55
EQYK 161355Z AUTO 34008KT 9999 SCT110 16/M02 A2994 RMK AO2 SLP131 T01601017
