2010/03/16 13:55
EQYL 161355Z AUTO 17014G23KT 9999 BKN027 16/11 A2992 RMK AO2 PK WND 15026/1312 BKN V OVC SLP131 T01560106 $
