2015/12/18 10:50
ESDF 181050Z 26008KT 230V290 7000 BR FEW004 OVC006 10/09 Q1010
