2015/12/18 11:20
ESGP 181120Z 22010KT 8000 BR BKN006 BKN009 09/08 Q1007 R19/29//95
