2015/12/18 10:50
ESGR 181050Z AUTO 23013KT 9999 OVC012/// 10/07 Q1004
