2015/12/18 11:20
ESGT 181120Z 24016KT 8000 BR OVC005 10/09 Q1006
