2015/12/18 10:50
ESIB 181050Z 23016KT 8000 BR BKN006 08/08 Q1005
