2015/12/18 10:50
ESKM 181050Z AUTO VRB03KT 9999 OVC010/// 05/04 Q0998
