2015/12/18 10:50
ESKN 181050Z 26016KT 9999 BKN017 10/09 Q1002 R26/290195
