2015/12/18 10:50
ESMS 181050Z 26012KT 4500 BR OVC006 10/09 Q1012 R17/29//95
