2015/12/18 11:20
ESMT 181120Z 25012KT 6000 BR FEW004 OVC014 09/07 Q1010
