2015/12/18 10:50
ESNG 181050Z 08003KT 2400 -SN VV010 M06/M07 Q0992
