2015/12/18 10:50
ESNK 181050Z AUTO 34003KT 4600 -RA FEW001/// SCT040/// OVC066/// 00/00 Q0995
