2015/12/18 10:50
ESNL 181050Z AUTO 11004KT 9999 SCT002/// BKN011/// OVC014/// M01/M02 Q0992 RESG
