2015/12/18 10:50
ESNN 181050Z 00000KT 5000 SG FEW034 BKN088 M00/M00 Q0994 RESG R16/29//29
