2015/12/18 10:50
ESNO 181050Z AUTO 05001KT 1100 R12/P1500D R30/P1500N FZDZ SCT037/// BKN057/// OVC078/// M00/M00 Q0993
