2015/12/18 10:50
ESNQ 181050Z 18009KT 9999 OVC013 M04/M05 Q0988
