2015/12/18 10:50
ESNS 181050Z 17003KT 1500 -SN VV010 00/00 Q0995
