2015/12/18 10:50
ESNU 181050Z VRB02KT 4300 -SN VV008 00/00 Q0995 R14/79//39
