2015/12/18 10:50
ESNV 181050Z AUTO 00000KT 9999 OVC004/// M01/M02 Q0992
