2015/12/18 10:50
ESNX 181050Z 13004KT 9999 -SN SCT005 M03/M03 Q0991
