2012/01/03 12:20
ESNY 031220Z AUTO 17005KT 9999 SKC 02/00 Q0994
