2015/12/18 10:50
ESNZ 181050Z 19004KT 0150 R12/0350N R30/0400N FZFG VV002 M01/M01 Q0993
