2015/12/18 10:50
ESOE 181050Z 23015G26KT 9999 BKN008 10/09 Q1002
