2015/12/18 10:50
ESOW 181050Z 24009KT 210V270 9999 OVC010 09/07 Q1000 R19/290195
