2015/12/18 10:50
ESPA 181050Z 17006KT 1900 RASN VV007 00/M00 Q0995
