2015/12/18 10:50
ESSA 181050Z 25015KT 9999 BKN013 09/08 Q1000 R01L/29//95 R08/29//95 R01R/29//95 NOSIG
