2015/12/18 10:50
ESSD 181050Z 27005KT 230V300 9999 OVC017 07/06 Q0998
