2015/12/18 10:50
ESSL 181050Z 25010KT 220V290 9999 FEW018 SCT020 BKN024 10/08 Q1004 R29/29//95
