2015/12/18 10:50
ESSP 181050Z 25017KT 9999 BKN019 10/08 Q1003 R27/19//95
