2015/12/18 10:50
ESST 181050Z AUTO 24005KT 200V260 9999 OVC012/// 08/06 Q1000
