2015/12/11 10:50
ESTL 111050Z 21011KT 9999 FEW012 SCT016 BKN041 07/05 Q1010
