2015/12/18 10:50
ESUD 181050Z AUTO 00000KT 9999 BKN012/// M02/M03 Q0992
