2015/12/18 10:50
ESUP 181050Z AUTO 13009KT 1700 -SN VV006 M06/M07 Q0994
