2015/12/18 10:50
ESUT 181050Z AUTO 10007KT 7000 SG OVC016/// M03/M04 Q0989 RESN
