2015/12/18 11:16
ETAD 181116Z AUTO 21009KT 9999 OVC007 11/10 A3024 RMK AO2
