2007/12/19 06:54
ETGA 190654Z 23001KT 3000 R09/0650N BR OVC002 M06/M06 Q1036 BLACKAMB AMB TEMPO RED
