2015/12/18 10:20
ETGG 181020Z 24018G28KT 2500 BR BKN007 10/09 Q1015 YLO
