2015/12/18 05:20
ETGQ 180520Z AUTO 24004KT //// // ////// 11/10 Q1022 ///
