2007/05/23 17:50
ETGT 231750Z 28008KT CAVOK 26/M05 Q1011 BLU NOSIG 
