2015/11/18 08:06
ETGV 180806Z 22010G32KT 9999 14/06 Q1019 BLU+RED
