2015/12/18 11:00
ETHN 181100Z 23010KT 9000 -RA FEW005 SCT009 BKN030 09/08 Q1025 RERA BLU FCST CANCEL
