2013/06/14 22:55
ETIE 142255Z AUTO 10007KT 9999 SCT050 17/09 A3000 RMK AO2 SLP159 T01690085 401950098
