2015/12/18 11:20
ETIK 181120Z AUTO 23009KT 9999 FEW010 OVC049 10/09 A3026 RMK AO2 RAE20
