2015/12/18 10:20
ETML 181020Z AUTO 24010G20KT //// // ////// 10/09 Q1015 ///
