2015/12/18 07:20
ETND 180720Z 23012KT 9999 BKN012 SCT019 BKN046 12/10 Q1018 GRN
