2015/12/18 10:20
ETNH 181020Z 24011KT 5000 BR BKN007 10/09 Q1016 GRN YLO TEMPO GRN
