2013/09/26 12:05
ETNJ 261205Z 05007KT 9999 FEW025 BKN030 13/07 Q1018 BLU LAST REPORT OVER AND OUT GOODBYE
