2015/12/18 10:20
ETNL 181020Z 25008KT 9000 SCT012 SCT270 11/10 Q1016 BLU+
