2015/12/18 11:04
ETNN 181104Z 21003KT 9999 FEW015 BKN030 13/09 Q1023 BLU FCST CANCEL
