2015/12/18 10:20
ETNS 181020Z 24016KT 5000 BR OVC004 10/09 Q1016 YLO
