2015/12/18 11:00
ETNW 181100Z 23012KT 9999 FEW015 SCT028 BKN042 12/09 Q1020 BLU FCST CANCEL
