2015/12/18 10:58
ETOU 181058Z AUTO 24004KT 9999 FEW010 SCT017 OVC025 11/11 A3025 RMK AO2 RAB0958E08 SLP248 P0000 T01100110 $
