2015/12/18 10:20
ETSB 181020Z AUTO 24008KT 4000 // ////// 09/09 Q1024 ///
