2007/10/09 05:44
ETSF 090544Z 19001KT 1500 R27/2300D BR FEW300 04/04 Q1024 BLACKAMB AMB BECMG YLO
