2015/12/18 10:20
ETSH 181020Z 23009KT 8000 -RA SCT006 SCT020 BKN030 12/11 Q1020 BLU
