2015/12/18 10:20
ETSI 181020Z VRB01KT 9999 FEW045 SCT090 BKN160 06/06 Q1026 BLU BLU TEMPO WHT
