2015/12/18 10:20
ETSL 181020Z AUTO 23008KT 9999 // ////// 10/07 Q1026 ///
