2014/10/09 05:50
EVLA 090550Z AUTO 14005KT 110V170 4700 BKN006 BKN022 OVC041 13/13 Q1008
