2015/12/18 11:20
EVRA 181120Z 21008KT 190V250 3500 BR OVC002 06/06 Q1008 R18/290195 NOSIG
