2015/12/18 11:20
EVVA 181120Z AUTO 22014KT 1000 PRFG OVC002 08/08 Q1007
