2015/12/18 11:20
EYKA 181120Z 25011KT 5000 BR OVC004 08/07 Q1012 R08/290095
