2015/12/18 11:20
EYPA 181120Z 22005KT 190V270 5000 BR OVC006 08/08 Q1011 R19/2///95
