2015/12/18 11:20
EYSA 181120Z 25013KT 2600 BR OVC002 07/07 Q1010 R32R/290195 R32L/290195 AMB TEMPO OVC003 YLO2
