2015/12/18 11:20
EYVI 181120Z 21006KT 0200 R02/0500N -DZ FG VV002 05/05 Q1012 R02/2///95 NOSIG
