2009/03/11 13:00
FAAB 111300Z AUTO 21011KT //// // ////// 31/16 Q1007
