2014/01/30 09:00
FAAL 300900Z 36006KT 320V060 9999 BKN025 24/17 Q1019 NOSIG
