2015/12/18 11:00
FABL 181100Z VRB05G24KT CAVOK 34/01 Q1020 NOSIG
