2015/12/18 06:36
FABM 180636Z 31005KT CAVOK 24/14 Q1027
