2015/12/18 11:00
FACT 181100Z 16010KT 120V210 9999 FEW037 26/13 Q1014 NOSIG
