2015/12/18 07:32
FACV 180732Z 27003KT CAVOK 29/M03 Q1017
