2010/05/05 08:00
FADN 050800Z AUTO 20008KT //// // ////// 26/20 Q1011
