2015/12/18 07:43
FADY 180743Z 30009KT CAVOK 32/M05 Q1019
