2015/12/18 11:00
FAEL 181100Z 06013KT CAVOK 28/20 Q1010
