2015/12/18 07:54
FAEO 180754Z 33008KT CAVOK 23/16 Q1027
