2015/12/18 11:00
FAGG 181100Z 16008KT 130V190 9999 FEW008 24/18 Q1013
