2015/12/17 16:00
FAGM 171600Z 14007KT 8000 TSRA NSC 16/16 Q1026
