2015/12/18 11:00
FAHS 181100Z AUTO 34002KT //// // ////// 31/16 Q1018
