2008/04/09 01:50
FAHW 090150Z 15015KT 9999 SCT022 BKN350 27/21 Q1012 WHT
