2013/07/05 07:00
FAHZ 050700Z 16013KT 9999 SCT012 BKN035 17/14 Q1028
