2015/12/17 16:17
FAIR 171617Z 28010KT 6000 TSGRRA SCT030CB BKN080 22/16 Q1025 RETS
