2012/04/18 00:10
FAJA 180010Z 00000KT CAVOK 16/08 Q1025
