2015/12/18 11:00
FAJB 181100Z AUTO 35002KT //// // ////// 29/13 Q1025
