2015/12/18 11:00
FAKM 181100Z 24008KT CAVOK 36/M00 Q1018
