2015/12/18 11:00
FALA 181100Z VRB05KT CAVOK 29/16 Q1024 NOSIG
