2015/12/18 11:00
FALE 181100Z 06014KT CAVOK 29/23 Q1011 NOSIG
