2015/12/18 11:00
FALW 181100Z AUTO 23010KT //// // ////// 27/08 Q1013
