2015/12/08 10:00
FAME 081000Z 06014KT 9999 FEW018 27/23 Q1012 NOSIG
