2015/12/18 11:00
FAMM 181100Z 32008KT 9999 FEW040 32/13 Q1021
