2007/11/27 06:00
FANC 270600Z AUTO 07009KT //// // ////// 19/17 Q1017
