2015/12/18 11:00
FAOB 181100Z 19005KT CAVOK 26/15 Q1013
