2015/12/18 11:00
FAOR 181100Z 25007KT 190V340 9999 FEW045 27/11 Q1027 NOSIG
