2014/12/22 15:00
FAPB 221500Z 03010KT 9999 FEW020 SCT/// 29/26 Q1007
