2015/12/18 09:00
FAPE 180900Z 15006KT 110V180 CAVOK 27/17 Q1011 NOSIG
