2014/10/12 12:00
FAPM 121200Z 19015G20KT //// 22/16 Q1017
