2015/12/18 11:00
FAPN 181100Z AUTO 10004KT //// // ////// 34/12 Q1020
