2015/12/16 07:36
FAPR 160736Z 34003KT 7000 -DZ OVC010 18/17 Q1021
