2015/12/18 08:50
FASB 180850Z 22003KT CAVOK 32/M00 Q1018
