2015/12/18 11:00
FAVV 181100Z AUTO 23004KT //// // ////// 30/10 Q1022
