2015/12/18 11:00
FAWB 181100Z AUTO 35006KT //// // ////// 31/13 Q1021
