2007/11/27 06:00
FAWI 270600Z AUTO 00000KT //// // ////// 19/13 Q1020
