2015/12/18 11:00
FAWK 181100Z AUTO 34007KT //// // ////// 29/13 Q1025
