2010/06/22 11:00
FBET 221100Z 10005KT CAVOK 21/08 Q1024
