2015/12/18 11:00
FBFT 181100Z 10015KT 060V140 9999 BKN030 30/15 Q1019
