2015/09/25 16:00
FBGT 251600Z 11010KT CAVOK 28/03 Q1020
