2015/12/18 11:00
FBKE 181100Z VRB04KT 9999 SCT030 31/16 Q1017
