2015/05/10 05:00
FBKF 100500Z 12004KT CAVOK 12/09 Q1022
