2013/10/08 09:00
FBKP 080900Z 05009KT 9999 FEW020 24/14 Q1023
