2015/12/18 11:00
FBMN 181100Z 12008KT 9999 SCT030 34/15 Q1016
