2014/10/23 07:00
FBMO 230700Z 04010KT CAVOK 29/M00 Q1018
