2011/08/05 09:00
FBNB 050900Z 36006KT CAVOK 24/06 Q1022
