2015/12/18 11:00
FBSK 181100Z 02007KT 330V100 9999 FEW030 32/13 Q1019 NOSIG
