2014/03/16 16:00
FBSO 161600Z VRB02KT 9999 FEW030 FEW035CB 28/29 Q1017
