2015/06/10 10:00
FBUB 101000Z VRB03KT CAVOK 23/04 Q1026
