2015/10/02 03:00
FCBC 020300Z 26003KT 230V300 8000 NSC 24/19 Q1011 NOSIG
