2015/02/27 03:00
FCBD 270300Z 28010KT 7000 BKN010 FEW026CB OVC120 21/20 Q1014
