2015/07/18 08:30
FCBS 180830Z VRB02KT 5000 BR OVC004 21/19 Q1019
