2015/08/26 11:00
FCCB 261100Z 26006KT 220V290 7000 SCT014 BKN023 25/20 Q1014 NOSIG
