2015/04/24 12:45
FCOD 241245Z 00000KT 9999 BKN003 FEW24/22 Q1013 RETS 
