2015/12/11 12:00
FCOU 111200Z 14006KT CAVOK 32/18 Q1012
