2015/12/11 12:00
FCPD 111200Z 18004KT 9999 BKN023TCU 30/25 Q1013
