2015/12/04 04:00
FCQP 040400Z 03002KT 7000 FEW010 BKN023 23/22 Q1013 NOSIG
