2007/07/07 18:00
FCXB 071800Z 29006KT 260V320 6000 SKC 24/19 Q1013 NBSIG
