2015/04/22 03:00
FDBB 220300Z AUTO 00000KT //// // ////// 19/18 Q1023
