2015/12/18 11:00
FDJR 181100Z AUTO 01009KT //// // ////// 29/17 Q1019
