2015/12/18 08:00
FDLB 180800Z AUTO 02002KT //// // ////// 29/18 Q1021
