2009/08/11 05:00
FDMD 110500Z 00000KT CAVOK 12/08 Q1020 NOSIG
