2015/05/03 00:00
FDMY 030000Z AUTO 27002KT //// // ////// 20/15 Q1028
