2015/12/17 18:00
FDPP 171800Z AUTO 07005KT //// // ////// 25/14 Q1007
