2015/12/18 11:00
FDSK 181100Z 03012KT 9999 FEW040 34/19 Q1016 NOSIG
