2015/12/18 09:00
FDST 180900Z AUTO 02006KT //// // ////// 29/18 Q1019
