2013/03/07 14:00
FDVV 071400Z AUTO 22002KT //// // ////// 31/23 Q1010
