2015/12/18 11:00
FEFF 181100Z 29008KT 260V320 CAVOK 31/10 Q1013 NOSIG
