2015/12/18 10:00
FEFT 181000Z 04012KT 8000 NSC 28/11 Q1013
