2015/08/22 21:00
FEGF 222100Z 00000KT 6000 NSC 26/25 Q1011 NOSIG
