2009/08/22 09:00
FFTD 220900Z 26008KT 9999 BKN040 27/23 Q1012
