2007/04/21 11:00
FFTJ 211100Z 19010KT 160V240 CAVOK 42/24 Q1007 NOSIG
