2015/12/18 11:00
FGBT 181100Z 27004KT 230V330 8000 SCT010 BKN100 29/24 Q1013
