2008/03/17 08:00
FGCL 170800Z 00000KT 7000 FEW013 BKN130 30/23 Q1012 NOSIG
