2008/03/23 03:00
FGSD 230300Z 23005KT 9999 SCT015 FEW020CB BKN130 24/23 Q1009 NOSIG
