2015/12/18 11:00
FGSL 181100Z 25006KT 210V300 4500 HZ FEW012 BKN040 29/20 Q1014 NOSIG
