2015/12/18 10:50
FHAW 181050Z 12014KT 9999 FEW025 26/18 Q1016 BLU NOSIG
