2015/12/18 11:00
FIMP 181100Z 11008KT 9999 SCT017 30/23 Q1014
