2015/12/18 11:00
FIMR 181100Z 11010KT 9999 FEW016TCU SCT017 SCT050 29/24 Q1014
