2007/04/13 06:00
FITT 130600Z 20006KT 8000 FEW130 29/09 Q1009
