2008/06/23 23:00
FKCM 232300Z 23002KT 9999 TS BKN013 SCT016CB BKN120 26/24 Q1013 TEMPO 4000 TSRA
