2008/01/09 09:00
FKIS 090900Z VRB02KT 9999 BKN010 25/23 Q1014 NOSIG
