2015/12/18 11:00
FKKD 181100Z 23502KT 2500 HZ SCT016 FEW020CB 31/23 Q1012 NOSIG
