2008/05/06 09:00
FKKH 060900Z 18014KT CAVOK 33/20 Q1012
