2015/12/18 11:00
FKKL 181100Z 05008KT 320V120 4000 DU NSC 26/02 Q1017
