2015/12/18 11:00
FKKN 181100Z 02008KT CAVOK 26/03 Q1020
