2015/12/18 11:00
FKKR 181100Z VRB06KT 3000 HZ NSC 29/09 Q1015 NOSIG
