2015/07/11 06:00
FKKS 110600Z 28006KT CAVOK 27/21 Q1011
