2015/12/18 11:00
FKYS 181100Z 05005KT 010V110 6000 BKN020 28/19 Q1018 NOSIG
