2013/08/27 13:00
FLHL 271300Z 09006KT CAVOK 28/09 Q1020 NOSIG 
