2015/12/18 08:00
FLHN 180800Z 10003KT 9999 FEW045 SCT090 26/17 Q1019
