2007/12/31 06:00
FLKO 310600Z 36002KT 9999 BKN020 BKN100 20/19 Q1018
