2012/03/23 06:00
FLLA 230600Z 10005KT 9999 SCT009 20/19 Q1020 NOSIG
