2012/10/19 09:00
FLMA 190900Z 31002KT CAVOK 29/17 Q1015
