2007/12/24 06:00
FLMB 240600Z 02004KT 7000 DZ FEW012 SCT070 20/19 Q1015
