2014/10/17 10:00
FLMF 171000Z 1712/1818 30007KT 9999 FEW030 PROB30 TEMPO 1713/1718 30005G20KT 9000 -TSRA FEW030CB TEMPO 1800/1803 30005KT 6000 TSRA FEW025CB BECMG 1809/1812 04007KT 9999 SCT030
