2012/12/10 06:00
FLMG 100600Z 00000KT 9999 SCT010 SCT040 SCT300 22/20 Q1015
