2013/08/16 11:00
FLND 161100Z 15005KT 8000 FU SKC 29/03 Q1018
