2015/11/02 05:00
FLSK 020500Z 00000KT CAVOK 21/18 Q1018
