2015/12/18 11:00
FMCH 181100Z 25004KT 220V280 9999 FEW020CB BKN100 31/27 Q1012 TEMPO 4000 TSRA
