2015/11/01 05:00
FMCI 010500Z 07012KT 040V110 9999 FEW020TCU SCT025 29/24 Q1012 NOSIG
