2015/12/18 11:00
FMCZ 181100Z 11006KT 9999 FEW018CB FEW021TCU BKN083 OVC190 28/22 Q1011 NOSIG
