2015/12/18 11:00
FMEE 181100Z 12012KT 080V160 9999 -TSRA SCT020 SCT030CB BKN040 26/22 Q1014 NOSIG
