2015/12/18 11:00
FMEP 181100Z AUTO 13014KT 9999 NCD 31/23 Q1013
