2014/01/15 04:00
FMIR 150400Z 09011KT 9999 SCT020 28/24 Q1015
