2007/07/12 08:00
FMME 120800Z 16012KT CAVOK 28/13 Q1019
