2015/12/18 11:00
FMMI 181100Z 10007KT 070V130 9999 BKN020CB 27/20 Q1019 NOSIG
