2013/09/26 19:00
FMMO 261900Z 28008KT 9999 FEW023 SCT040 25/23 Q1014 NOSIG
