2014/12/08 09:00
FMMS 080900Z 20006KT 9999 VCSH FEW017 BKN040 30/25 Q1014
