2015/10/08 20:00
FMMU 082000Z 00000KT 9999 SCT017 20/19 Q1019
