2008/12/12 12:00
FMN1 121200Z 00000KT 9999 SCT020CB SCT040 SCT250 30/22 Q1008
