2015/12/18 11:00
FMNM 181100Z 29005KT 9999 FEW010 SCT020CB 25/23 Q1012 RETSRA TEMPO 5000 TSRA
