2013/12/07 03:00
FMNO 070300Z 25004KT 9999 SCT02CB 24/22 Q1011
