2013/08/25 14:00
FMOA 251400Z 14010KT 9999 BKN020 26/18 Q1015
