2011/11/21 06:00
FMON 210600Z 04004KT 9999 SCT020 BKN040 28/21 Q1012
