2015/08/10 12:00
FMSU 101200Z 23007KT 9999 BKN010 24/16 Q1016
