2015/12/18 11:00
FNBC 181100Z VRB02KT 9999 DZ OVC014 24/24 Q1015
