2015/12/18 11:00
FNBG 181100Z 30011KT 9999 FEW020 BKN100 29/22 Q1014
