2015/12/18 11:00
FNCA 181100Z 30004KT 6000 -RA SCT008 OVC080 25/24 Q1013
