2015/05/18 15:00
FNCB 181500Z 30007KT 9999 FEW017 FEW020CB 31/29 Q1009
