2015/01/22 15:00
FNDU 221500Z 16004KT 9999 FEW014 SCT020 28/15 Q1017
