2014/04/23 11:06
FNGB 231106Z 03005KT 9999 BKN012 25/15 Q1019
