2015/12/18 11:00
FNGI 181100Z 07008KT 9999 FEW016 33/16 Q1016
