2015/06/22 10:00
FNGU 221000Z 33006KT 8000 SCT015 21/16 Q1020
