2015/12/18 11:00
FNHU 181100Z 15007KT 9999 SCT018 27/17 Q1021
