2015/12/18 11:00
FNKU 181100Z 17006KT 8000 -DZ FEW013CB BKN019 23/20 Q1019
