2015/12/18 11:00
FNLU 181100Z 10008KT 9999 SCT020 BKN090 27/22 Q1014 NOSIG
