2015/12/18 11:00
FNMA 181100Z 28004KT 9999 OVC007 FEW012 20/18 Q1018
