2007/09/08 18:00
FNMM 081800Z 02002KT CAVOK 24/19 Q1015
