2010/07/04 23:00
FNMN 042300Z 08003KT CAVOK 17/05 Q1026
