2015/12/18 11:00
FNMO 181100Z 26010KT 9999 SCT007 BKN070 25/18 Q1013
