2007/06/10 16:00
FNMU 101600Z 22012KT 9999 SCT030 BKN250 36/19 Q1012 NOSIG
