2014/10/05 11:00
FNNO 051100Z 25006KT CAVOK 25/16 Q1012
