2008/03/17 07:00
FNSL 170700Z 24002KT 8000 SCT013 BKN130 25/23 Q1012 NOSIG
