2008/01/24 08:00
FNTF 240800Z 23009KT 9999 SCT010 BKN120 25/21 Q1004
