2015/12/17 16:00
FNUG 171600Z 00000KT 9999 FEW020 BKN080 25/21 Q1012
