2010/04/20 15:00
FO0G 201500Z 20012KT 9999 SCT013TCU BKN120 30/25 Q1009
