2007/07/07 18:00
FOFF 071800Z 00000KT CAVOK 26/24 Q1012 NOSI
