2015/12/11 08:14
FOGO 110814Z 32004KT 8000 SCT008 BKN026 24/22 Q1015
