2015/10/22 12:00
FOGR 221200Z 28008KT 9999 SCT010 OVC030 26/23 Q1013
