2015/12/18 11:00
FOOL 181100Z 20003KT 9000 FEW012 28/24 Q1013 NOSIG
