2015/11/02 05:00
FOOM 020500Z 19009KT 160V230 8000 SCT008 BKN030 26/23 Q1012 NOSIG
