2015/12/18 11:00
FPST 181100Z 32004KT 9999 FEW020CB OVC100 29/22 Q1014 NOSIG
