2015/12/18 11:00
FQBR 181100Z 12012KT 9999 SCT018 SCT030 29/25 Q1014
