2015/12/18 11:00
FQLC 181100Z 01010KT 9999 TS SCT010 BKN015 FEW020CB BKN070 18/18 Q1021 RMK CB TO R/S
