2015/12/18 11:00
FQNP 181100Z 13013KT 5000 TSRA BKN020 FEW025CB BKN090 29/22 Q1013 RMK CB TO VD
