2015/09/13 07:00
FQPN 130700Z 20015KT 9999 BKN020 SCT100 26/18 Q1020
