2007/07/07 18:00
FQPP 071800Z 18006KT 6000 FEW010 OVC030 24/21 Q1013 N0SIG
