2015/12/16 07:00
FQST 160700Z 25004KT 9999 FEW020CB SCT110 26/23 Q1013 NOSIG
