2010/04/21 15:00
FQTE 211500Z 12015KT 9999 SCT020 32/22 Q1013
