2015/12/18 11:00
FQTT 181100Z 10006KT 9999 SCT015 BKN020 BKN090 30/25 Q1014
