2015/12/18 09:00
FQVL 180900Z 12007KT 080V150 9999 BKN020 26/22 Q1017
