2011/11/06 06:00
FRMS 060600Z 12006KT 9999 FEW020 SCT233 27/21 Q1015
