2012/07/17 23:00
FRMT 172300Z 00000KT 9999 FEW017 17/16 Q1017
