2015/12/18 10:00
FSIA 181000Z 26005KT 9999 SCT020 31/25 Q1010 NOSIG
