2011/05/13 02:00
FTMN 130200Z 08007KT CAVOK 15/08 Q1016
