2007/06/07 07:00
FTSP 070700Z 23005KT CAVOK 15/02 Q1018
