2015/12/18 10:00
FTTA 181000Z 02008KT CAVOK 30/01 Q1017
