2015/12/18 09:00
FTTC 180900Z 04014KT CAVOK 24/04 Q1018
