2015/12/18 10:00
FTTD 181000Z 34006KT CAVOK 27/04 Q1018
