2015/12/18 11:00
FTTJ 181100Z 06013KT 8000 NSC 27/M02 Q1017 NOSIG
