2015/11/05 09:00
FTTK 050900Z 03015KT 6000 NSC 32/04 Q1013 NOSIG
