2015/12/18 09:00
FTTY 180900Z 04010KT CAVOK 20/00 Q1024
