2015/12/18 11:00
FVHA 181100Z 04006KT 340V070 9999 FEW020CB BKN025TCU BKN080 23/18 Q1022 NOSIG
