2015/12/18 09:00
FVTL 180900Z 13003KT 9999 BKN007 OVC080 20/19 Q1023
