2015/12/18 09:00
FVWN 180900Z 11003KT CAVOK 29/17 Q1020
