2015/11/23 12:00
FWKA 231200Z 11010KT 9999 FEW035 33/20 Q1015
