2015/11/18 06:00
FWUU 180600Z 10006KT CAVOK 25/15 Q1019 NOSIG
