2015/08/08 08:00
FYBG 080800Z AUTO 11004KT //// // ////// 19/03 Q1025
