2007/10/04 10:50
FYCA 041050Z 05018KT 8000 SKC 34/23 Q1008 A2977
