2015/12/18 11:00
FYGB 181100Z AUTO 02005KT //// // ////// 34/08 Q1021
