2015/12/18 11:00
FYGF 181100Z AUTO 08009G20KT //// // ////// 37/07 Q1020
