2015/08/08 08:00
FYHD 080800Z AUTO 08008KT //// // ////// 21/00 Q1024
