2015/08/08 09:00
FYHN 080900Z AUTO 19007KT //// // ////// 11/11 Q1023
