2015/08/08 08:00
FYKG 080800Z AUTO 06009KT //// // ////// 20/M01 Q1029
