2015/12/18 10:00
FYKM 181000Z 02003KT 9999 SCT030 32/17 Q1017
