2015/12/17 09:00
FYKT 170900Z 08009KT CAVOK 28/M01 Q1020
