2015/08/08 09:00
FYKX 080900Z AUTO 07013KT //// // ////// 26/M03 Q1027
