2015/12/18 11:00
FYLZ 181100Z AUTO 30005KT //// // ////// 22/14 Q1014
