2015/10/09 03:00
FYMP 090300Z AUTO 07001KT //// // ////// 13/M02 Q1015
