2015/12/18 11:00
FYOA 181100Z AUTO 12002KT //// // ////// 35/12 Q1015
