2015/08/08 08:00
FYOH 080800Z AUTO 08010KT //// // ////// 19/M00 Q1024
