2015/08/08 08:00
FYOJ 080800Z AUTO 09008KT //// // ////// 19/M03 Q1025
