2012/07/18 02:00
FYOK 180200Z AUTO 02001KT //// // ////// 01/M08 Q1026
