2015/08/08 09:00
FYOM 080900Z AUTO 06007G19KT //// // ////// 23/M02 Q1027
