2015/12/18 11:00
FYOO 181100Z AUTO 04005KT //// // ////// 35/12 Q1016
