2015/08/08 08:00
FYOP 080800Z AUTO 09010KT //// // ////// 20/M03 Q1022
