2015/08/08 08:00
FYOS 080800Z AUTO 08006KT //// // ////// 21/00 Q1025
