2015/08/08 08:00
FYOT 080800Z AUTO 06011KT //// // ////// 19/M02 Q1019
