2015/12/18 11:00
FYOW 181100Z AUTO 36004KT //// // ////// 32/12 Q1018
