2015/08/08 08:00
FYOY 080800Z AUTO 08008KT //// // ////// 25/02 Q1024
