2015/08/08 09:00
FYRH 080900Z AUTO 01003KT //// // ////// 20/M04 Q1027
