2015/12/18 10:00
FYRN 181000Z 02508KT 9999 FEW035CB BKN045 33/17 Q1017
