2015/12/18 11:00
FYRU 181100Z AUTO 10011KT //// // ////// 34/12 Q1018
