2015/08/08 08:00
FYSF 080800Z AUTO 06002KT //// // ////// 27/M03 Q1024
