2011/12/24 06:00
FYSM 240600Z AUTO 33006KT //// // ////// 16/16 Q1009
