2015/08/08 08:00
FYTM 080800Z AUTO 07003G13KT //// // ////// 20/M00 Q1027
