2015/12/18 11:00
FYWB 181100Z 33008KT CAVOK 20/13 Q1015
