2015/12/18 11:00
FYWH 181100Z 02006KT 9999 FEW035CB SCT045TCU 32/09 Q1023 BECMG -TSRA
