2015/12/18 11:00
FYWW 181100Z AUTO 22006KT //// // ////// 28/12 Q1023
