2012/05/08 10:00
FZEA 081000Z 18006KT 9999 SCT011 BKN300 28/25 Q1012 NOSIG
