2015/10/25 13:00
FZIC 251300Z 36004KT 9999 SCT018 BKN120 28/23 Q1013 NOSIG
