2012/05/03 15:00
FZNA 031500Z 16006KT 8000 TS FEW020 SCT023 OVC100 20/15 Q1019 NOSIG
