2012/07/17 11:00
FZQM 171100Z 12014KT 7000 HZ FEW018 24/08 Q1028
