2015/12/18 09:00
GABS 180900Z 08010KT CAVOK 23/02 Q1018
