2015/10/23 10:00
GACS 231000Z 33008KT CAVOK 30/22 Q1017 NOSIG
