2007/05/18 09:00
GAGS 180900Z 19006KT 150V240 CAVOK 32/19 Q1013 NOSIG
