2015/12/08 09:00
GAKD 080900Z 08006KT 4000 DU NSC 22/03 Q1017
