2015/12/17 06:00
GAKY 170600Z 12004KT 5000 DU NSC 18/03 Q1016
