2015/12/18 09:00
GAMB 180900Z 06012KT 8000 NSC 24/00 Q1020
