2015/12/18 09:00
GANR 180900Z 08006KT CAVOK 21/M02 Q1020
