2015/09/25 18:00
GANS 251800Z 24004KT 9000 NSC 32/23 Q1012
