2015/11/21 09:00
GAOR 210900Z 06006KT CAVOK 23/02 Q1015
