2007/05/25 06:00
GASB 250600Z 00000KT CAVOK 25/19 Q1013 NOSIG
