2009/10/25 03:00
GASG 250300Z 00000KT CAVOK 24/21 Q1012
