2010/11/08 03:00
GATB 080300Z VRB02KT CAVOK 22/04 Q1011
