2010/08/17 06:00
GATS 170600Z VRB02KT 8000 DU 30/18 Q1011
