2007/07/17 00:00
GBDY 170000Z 00000KT CAVOK 26/22 Q1013 NOSIG
