2015/12/18 11:00
GBYD 181100Z 09014KT CAVOK 28/05 Q1014
