2007/07/20 07:00
GBYS 200700Z 00000KT 9999 BKN010 FEW200 25/23 Q1010 NOSIG
