2015/05/30 03:00
GCBB 300300Z 28004KT 250V320 7000 SCT020 FEW030CB 24/20 Q1012 NOSIG
