2015/12/18 11:00
GCFV 181100Z 12003KT 070V160 CAVOK 23/14 Q1028
