2015/12/18 11:00
GCGM 181100Z 07008KT 350V100 CAVOK 23/08 Q1028 RMK R09/08010KT 040V110 ARP/08009KT 040V110
