2015/12/18 11:00
GCHI 181100Z 19015KT CAVOK 23/17 Q1026
