2015/12/18 11:00
GCLA 181100Z 18013KT CAVOK 27/06 Q1026
