2015/12/18 11:00
GCLP 181100Z 17005KT 140V210 CAVOK 24/11 Q1028 NOSIG
