2015/12/08 20:00
GCPP 082000Z 00000KT 9999 FEW010 BKN020 25/24 Q1014 NOSIG
