2015/12/18 11:00
GCRR 181100Z 08003KT CAVOK 23/17 Q1028
