2015/12/18 11:00
GCTS 181100Z 10009KT 070V140 CAVOK 26/03 Q1027 NOSIG
