2015/12/18 11:00
GCXO 181100Z 15011KT 120V200 CAVOK 22/02 Q1028 NOSIG
