2015/12/10 15:00
GCYD 101500Z 15003KT CAVOK 32/13 Q1013
