2015/03/02 19:00
GEFF 021900Z 35004KT 6000 NSC 29/20 Q1008 NOSIG
