2008/01/02 11:00
GEFM 021100Z 04002MPS CAVOK 05/M03 Q1024
