2015/07/09 05:00
GEFT 090500Z VRB02KT 7000 NSC 21/21 Q1010
