2015/12/17 12:00
GFLL 171200Z 09010KT 7000 HZ SCT015 29/18 Q1012
