2015/04/24 10:00
GFLM 241000Z 29008KT 9999 SCT014 28/23 Q1013
