2015/12/13 16:00
GGBT 131600Z 25008KT 9999 SCT010 29/25 Q1010
