2007/07/31 15:00
GGOB 311500Z 24003KT 190V320 9999 SCT009 SCT014TCU FEW020CB BKN100 27/24 Q1010 NOSIG
