2012/08/11 10:00
GGOG 111000Z 18004KT 9999 BKN015 TCU SCT130 29/25 Q1015
