2015/12/18 11:00
GGOV 181100Z 05006KT CAVOK 26/08 Q1014 NOSIG
