2015/11/15 12:00
GGOW 151200Z 03006KT 350V080 9999 FEW014 31/23 Q1013 NOSIG
