2007/07/22 19:00
GGOY 221900Z 21007KT 180V250 9999 FEW015 FEW016TCU 28/23 Q1011 NOSIG/ GQNN 221900Z 30010KT 8000 FEW010 BKN230 27/21 Q1010 NOSIG
