2011/01/01 15:00
GGTT 011500Z 06008KT 6000 DU NSC 35/03 Q1007
