2007/08/12 03:50
GIAC 120350Z 00000KT 9999 D!S040 28/06 Q1014 A2994 865.5
