2007/07/07 02:50
GIBK 070250Z 12004KT 8000 SKC 20/10 Q1008 A2977
