2012/12/18 13:00
GIGG 181300Z 06006KT CAVOK 30/08 Q1011
