2007/12/27 14:50
GIKB 271450Z 33004KT CAVO? 15/04 Q1020 A3014
