2007/07/03 03:50
GILB 030350Z 09008KT CAVOK 26/03 Q1011 A2988
