2007/09/16 00:50
GILS 160050Z 10008KT CAVOK 18/00 Q1018 A300[! *] 
