2014/02/01 21:00
GIMP 012100Z 10004KT 9999 SCT017 BKN250 27/24 Q1012
