2007/08/05 08:00
GIUS 050800Z 07004KT CAVOK 27/02 Q1015 
