2015/07/05 05:00
GKKN 050500Z 00000KT 9999 FEW016 BKN110 18/18 Q1018
