2015/08/14 07:00
GKKR 140700Z 26006KT 9999 SCT003 SCT013 23/22 Q1012 NOSIG
