2010/01/11 01:00
GKRB 110100Z 00000KT 8000 FEW912 24/24 Q1012 BRVC NOSIG
