2015/12/10 20:00
GKYS 102000Z 00000KT 6000 NSC 19/17 Q1018 NOSIG
