2009/07/06 08:00
GLBB 060800Z 33004KT 2500 BR SCT004 BKN012 OVC100 24/24 Q1013
