2008/12/17 10:00
GLHB 171000Z VRB03KT 9999 SCT016 28/25 Q1010 NOSIG
