2015/12/18 11:00
GLRB 181100Z 05008KT 6000 NSC 28/22 Q1015 RMK HZVC
