2009/08/24 11:35
GMAA 241135Z 26004KT 6000 FEW010 SCT020 23/21 Q1014 B2
