2015/07/01 05:50
GMAC 010550Z 26002KT 4000 BR OVC006 18/18 Q1015 M2+M3
