2015/12/18 11:00
GMAD 181100Z 06008KT 030V090 CAVOK 23/01 Q1028 NOSIG
