2015/12/16 16:30
GMAE 161630Z 27007KT CAVOK 26/01 Q1025 NOSIG
