2015/12/18 11:00
GMAG 181100Z 14004KT CAVOK 24/M04 Q1027 NOSIG
