2015/12/18 11:00
GMAT 181100Z 13004KT 100V180 CAVOK 23/M01 Q1028 NOSIG
