2015/12/01 05:30
GMCZ 010530Z 33009KT 300V360 9999 SCT022 BKN290 30/22 Q1014 NOSIG
