2015/12/18 11:00
GMFF 181100Z 35003KT 320V030 CAVOK 21/M02 Q1030 NOSIG
