2015/07/02 20:00
GMFG 022000Z 30004KT CAVOK 26/13 Q1019 NOSIG
