2012/03/25 12:50
GMFI 251250Z 00000KT 6000 -TS SCT020TCU SCT023CB 16/01 Q1023 M8
