2008/10/05 12:00
GMFJ 051200Z 10007KT 9000 SKC 33/26 Q1008 A2978
