2015/12/18 11:00
GMFK 181100Z 21002KT 160V260 CAVOK 20/M01 Q1033 NOSIG
