2015/12/18 11:00
GMFM 181100Z 00000KT CAVOK 23/M08 Q1030 NOSIG
