2015/12/18 11:00
GMFO 181100Z 36003KT CAVOK 20/04 Q1030 NOSIG
