2015/11/28 11:00
GMGF 281100Z 07002KT 340V170 CAVOK 17/05 Q1021 NOSIG
