2015/11/30 15:00
GMGK 301500Z 03003KT 320V100 CAVOK 17/M01 Q1034 NOSIG
