2014/11/21 14:00
GMGO 211400Z 20017KT 3000 SA FEW016 SCT030 BKN100 28/02 Q1015 NOSIG
