2012/03/08 09:10
GMMA 080910Z 12014KT 1200 HZ NSC 17/02 Q1021 M2
