2015/12/18 11:00
GMMB 181100Z VRB04KT CAVOK 24/02 Q1030 NOSIG
