2009/06/17 00:25
GMMD 170025Z 32005KT 9999 SCT026TCU FEW040CB BKN230 24/16 Q1015 RETS B8
