2015/12/18 11:00
GMME 181100Z VRB02KT CAVOK 22/03 Q1029
