2015/12/18 11:00
GMMH 181100Z 05007KT CAVOK 21/04 Q1024 NOSIG
