2015/12/18 11:00
GMMI 181100Z VRB02KT 6000 NSC 25/02 Q1027
