2015/12/18 11:00
GMML 181100Z 12016KT CAVOK 21/M00 Q1028 NOSIG
