2015/12/18 11:00
GMMN 181100Z 00000KT CAVOK 21/00 Q1029 NOSIG
