2015/12/05 21:36
GMMO 052136Z 11005KT 090V150 0600 R35R/0250VP2000D FG BKN004 13/11 Q1028 NOSIG
