2011/01/28 16:10
GMMP 281610Z 24016G26KT 1200 +SHRA SCT013TCU BKN016 FEW020CB 14/11 Q1012 NOSIG M2
