2011/12/06 06:00
GMMS 060600Z 28008KT 5000 -RA BKN017 OVC040 24/23 Q1013
