2015/12/18 11:00
GMMW 181100Z 19003KT 140V230 CAVOK 19/04 Q1029 NOSIG
