2013/12/06 19:30
GMMY 061930Z 22005KT 9999 SCT100 SCT200 17/11 Q1020 NOSIG
