2015/12/18 11:00
GMMZ 181100Z 00000KT CAVOK 14/M02 Q1034 NOSIG
