2015/06/06 17:00
GMRB 061700Z 24008KT 9999 SCT018 FEW027CB 28/25 Q1011 RMK CB-NE
