2015/11/17 09:00
GMSD 170900Z 08012KT 9999 VCSH SCT016 BKN033 25/22 Q1016
