2015/12/18 11:00
GMTA 181100Z 34004KT CAVOK 21/09 Q1029 NOSIG
