2007/04/23 04:00
GMTK 230400Z 09006KT CAVOK 25/19 Q1016
