2015/08/11 16:00
GMTO 111600Z 10008KT CAVOK 31/19 Q1012 NOSIG
