2015/12/18 11:00
GMTT 181100Z 00000KT CAVOK 18/07 Q1030 NOSIG
