2015/07/29 12:30
GMTU 291230Z 26014KT 8000 SCT016 28/20 Q1013 NOSIG
