2013/10/09 14:00
GMUA 091400Z 08016KT 9999 FEW016 BKN026 25/19 Q1016
