2015/05/02 10:00
GMUN 021000Z 08005KT 030V110 CAVOK?25/11 Q1014
