2015/09/05 00:30
GMUT 050030Z 20005KT 9999 SCT016 SCT200 18/14 Q1017 NOSIG
