2008/06/01 08:50
GNZV 010850Z 15007KT CAVOK 24/08 Q1019 NOSIG
