2011/12/29 18:00
GO0D 291800Z 04004KT CAVOK 30/16 Q1014
