2008/08/01 06:00
GOGA 010600Z 04004KT 8000 BKN1013TCU OVC130 25/24 Q1012 RERA
