2015/12/18 09:00
GOGG 180900Z 02006KT CAVOK 22/09 Q1015
