2015/12/18 09:00
GOGK 180900Z 00000KT CAVOK 17/13 Q1015
