2015/12/18 11:00
GOGS 181100Z 06005KT CAVOK 27/10 Q1015
