2015/11/15 12:00
GOKD 151200Z 00000KT CAVOK 33/13 Q1013
