2011/08/30 03:00
GOKG 300300Z 24004KT 9999 BKN010 OVC130 22/22 Q1012
