2015/02/27 08:00
GOKK 270800Z 06006KT 4000 DU NSC 26/M04 Q1010
