2014/05/08 08:00
GOKT 080800Z 28008KT CAVOK 30/18 Q1006
