2015/12/18 09:00
GOOD 180900Z 04002KT CAVOK 20/03 Q1016
