2011/05/24 06:00
GOOL 240600Z 28006KT 8000 SKC 23/20 Q1013
