2012/01/24 03:00
GOOS 240300Z 04004KT CAVOK 19/05 Q1015
