2015/12/18 11:00
GOOY 181100Z 09007KT 060V130 6000 NSC 29/01 Q1016 NOSIG
