2011/10/15 17:00
GOPD 151700Z 08002KT 9999 SCT017 37/26 Q1006
