2012/09/29 15:00
GORK 291500Z 00000KT 9999 SCT020 TCU BKN130 31/23 Q1008
