2011/08/26 17:00
GORP 261700Z 32004KT 9999 SCT018 TCU 34/25 Q1011
