2015/12/18 09:00
GOSM 180900Z 00000KT CAVOK 21/09 Q1018
