2015/12/18 09:00
GOSP 180900Z 08002KT CAVOK 19/05 Q1018
