2015/12/18 11:00
GOSS 181100Z 10010KT 010V170 CAVOK 27/03 Q1017
