2012/09/03 12:00
GOSZ 031200Z VRB06KT 9999 SCT020TCU FEW030CB SCT130 30/26 Q1015
