2013/04/25 08:00
GOTD 250800Z 32008KT CAVOK 28/22 Q1014
