2011/01/09 05:00
GOTJ 090500Z 14004KT 8000 BKN230 20/10 Q1010
