2015/12/18 09:00
GOTK 180900Z 04004KT CAVOK 21/10 Q1015
