2015/12/18 11:00
GOTT 181100Z 06014KT CAVOK 31/02 Q1015
