2015/12/06 09:00
GOUT 060900Z 04014KT 4000 DU NSC 24/03 Q1015
