2015/04/02 09:00
GOYK 020900Z 00000KT CAVOK 29/15 Q1011
