2012/08/10 09:00
GOZP 100900Z 18004KT CAVOK 28/23 Q1011
