2014/10/09 11:00
GPPP 091100Z 36008KT 8000 NSC 28/18 Q1014 NOSIG
