2015/12/18 09:00
GQNI 180900Z 08014KT 6000 BLSA NSC 23/M02 Q1022
