2015/12/18 11:00
GQNN 181100Z 10015KT 5000 BLDU NSC 27/M03 Q1019 TEMPO 3500
