2015/12/10 15:30
GQNO 101530Z 04010KT 7000 NSC 33/M02 Q1014 NOSIG
