2014/12/20 15:00
GQOI 201500Z 08010KT 8000 NSC 27/M01 Q1017
