2015/11/03 23:00
GQON 032300Z 00000KT 8000 NSC 28/17 Q1013 NOSIG
