2015/12/18 09:00
GQPA 180900Z 08020KT 6000 BRSA NSC 22/M01 Q1024
