2014/01/16 17:00
GQPL 161700Z 32017KT 8000 NSC 20/13 Q1015 NOSIG
