2015/12/18 11:00
GQPP 181100Z 07012KT 2500 DU NSC 23/11 Q1021 NOSIG
