2015/11/22 13:00
GQPQ 221300Z 01014KT 8000 NSC 26/11 Q1016 NOSIG
