2015/12/17 18:00
GQPZ 171800Z 08010KT 5000 BLDU NSC 25/00 Q1023
