2015/12/10 02:00
GQQP 100200Z 35010KT 8000 NSC 18/12 Q1018 NOSIG
