2008/09/30 13:00
GQSS 301300Z 24016KT 9999 OVC013 30/24 Q1012
