2015/08/19 23:30
GRLB 192330Z 21004KT 7000 -RA SCT005 BKN012 24/23 Q1014
