2012/04/10 19:00
GRUC 101900Z 11008KT 9999 FEW015 SCT110 27/23 Q1009 NOSIG
