2011/08/21 08:00
GRYG 210800Z 00000KT 9999 FEW022 21/17 Q1021 N0SIG
