2010/10/28 03:00
GSOM 280300Z 00000KT CAVOK 28/18 Q1007
