2013/02/02 19:00
GUDY 021900Z 27006KT 2500 HZ NSC 30/16 Q1009 NOSIG
