2015/10/21 15:00
GUNZ 211500Z 18008KT 9999 BKN015 FEW023CB BKN110 28/23 Q1009 CB/E NOSIG
