2012/04/06 20:00
GUUC 062000Z 22006KT CAVOK 26/22 Q1009 NOSIG
