2015/12/18 11:00
GVAC 181100Z 06013KT 2400 HZ FEW015 BKN200 26/17 Q1018 NOSIG
