2015/12/18 11:00
GVBA 181100Z 07012KT 2500 HZ NSC 27/16 Q1018 NOSIG
