2015/12/18 11:00
GVNP 181100Z 05016KT 2600 HZ NSC 25/19 Q1018 NOSIG
