2015/12/03 09:00
GVOP 030900Z 03013KT 3300 HZ NSC 23/20 Q1016 NOSIG
