2015/12/18 11:00
GVSV 181100Z 06018KT 6000 FEW018 BKN200 25/19 Q1016 NOSIG
