2015/02/27 00:00
GVSW 270000Z 06021KT 7000 FEW020 20/16 Q1015 OOSIG
