2015/10/14 07:00
GWBA 140700Z 05003KT 9999 FEW015 SCT200 24/21 Q1014 NOSIG
