2014/01/22 10:00
GYPP 221000Z 01019KT 8000 NSC 17/11 Q1021 NOSIG
