2015/12/18 11:00
HAAB 181100Z 10010KT 9999 BKN025 22/11 Q1027
