2010/10/04 23:00
HAAH 042300Z 31002KT 9999 SCT025 SCT080 13/11 Q1025
