2010/07/13 14:00
HABB 131400Z 21012KT 9/9 FEW025 CB BKN025 18/13 Q1022
