2013/01/18 12:00
HADM 181200Z 09016KT 9999 SCT023 28/18 Q1016
