2015/12/18 05:00
HBBA 180500Z 09004KT 5000 BR FEW025 BKN10021/20 Q1016 NOSIG
