2010/04/15 12:00
HCMF 151200Z 36011KT 9999 FEW035 32/32 Q1012
