2010/04/15 12:00
HCMH 151200Z 17012KT 9000SW VCTSRA FEW020CB BKN030 29/16 Q1019
