2010/04/15 09:00
HCMI 150900Z 14010KT 9999 BKN030 29/17 Q1021
