2015/12/16 07:00
HDAM 160700Z 11007KT 9999 FEW023 SCT026 28/22 Q1018
