2007/07/20 17:55
HDBQ 201755Z 00000KT 10SM FEW037 21/10 A3022 RMK AO2 SLP232 T02110100 10217 20133 58003 
