2015/11/04 15:00
HEAL 041500Z METAR HEBL 041500Z 32012KT CAVOK 27/07 Q1012 NOSIG
