2015/12/18 11:00
HEAR 181100Z 34004KT CAVOK 20/08 Q1019 NOSIG
