2015/12/18 11:00
HEAT 181100Z 29010KT 9999 FEW025 19/08 Q1022 NOSIG
