2015/12/18 11:00
HEAX 181100Z 26012KT 9999 SCT020 18/11 Q1018 NOSIG
