2015/12/18 11:00
HEBA 181100Z 22010KT 9999 SCT020 18/11 Q1019 NOSIG
