2015/12/18 11:00
HEBL 181100Z 34010KT CAVOK 21/02 Q1020 NOSIG
