2015/12/18 11:00
HECA 181100Z 23008KT 4000 HZ NSC 17/08 Q1020 BECMG 6000
