2015/12/18 11:00
HEGN 181100Z 36007KT CAVOK 23/06 Q1019 NOSIG
