2015/12/18 11:00
HELX 181100Z 00000KT CAVOK 21/09 Q1020 NOSIG
