2015/12/18 11:00
HEMA 181100Z 02009KT CAVOK 22/04 Q1019 NOSIG
