2015/12/18 11:00
HEPS 181100Z 22009KT 6000 SCT030 17/12 Q1019 NOSIG
