2015/12/18 11:00
HESG 181100Z 35003KT CAVOK 19/04 Q1020 NOSIG
