2015/12/18 11:00
HESN 181100Z 34006KT CAVOK 20/03 Q1020 NOSIG
