2015/12/18 11:00
HETR 181100Z 28014KT CAVOK 19/08 Q1019
