2012/03/24 11:00
HHAB 241100Z 09008KT 9999 SCT030 24/09 Q1024
