2012/12/03 01:00
HHRE 030100Z 06005KT 9999 -RA BKN016 BKN080 16/15 Q1021
