2008/10/13 06:00
HHUJ 130600Z 36003KT 9999 FEW018 FEW021CB BKN120 22/19 Q1018
