2007/12/06 05:00
HIKS 060500Z 00000KT CAVOK 20/17 Q1013
