2015/12/18 11:00
HKEL 181100Z 04009KT 9999 FEW021CB BKN022 22/12 Q1023
