2015/02/25 19:00
HKEN 251900Z 30004KT 9999 FEW020 FEW022CB SCT140 22/19 Q1014
