2012/03/17 08:00
HKER 170800Z 36005KT CAVOK 24/12 Q1023
