2015/06/16 05:00
HKGA 160500Z 23005KT CAVOK 24/19 Q1013
