2015/12/18 11:00
HKJK 181100Z 05017KT 9999 VCSH FEW023CB BKN024 22/16 Q1021 NOSIG
