2015/12/18 07:00
HKKI 180700Z 15004KT CAVOK 25/19 Q1020
