2015/12/18 11:00
HKML 181100Z 06010KT 9999 FEW025TCU 32/24 Q1011
