2015/12/18 11:00
HKNW 181100Z 09018KT 9999 FEW024CB BKN025 23/16 Q1020
