2015/06/16 06:00
HKRE 160600Z 00000KT CAVOK 17/12 Q1024
