2010/08/05 05:50
HLKF 050550Z 03008KT CAVOK 27/08 Q1009
