2014/06/22 10:50
HLLB 221050Z 36015G25KT CAVOK 33/09 Q1017
