2015/12/18 11:00
HLLM 181100Z 33006KT 8000 FEW020 BRK050 18/06 Q1030
