2008/10/31 08:00
HMCH 310800Z 35008KT 9999 SCT020 25/15 Q1019
