2007/05/20 04:50
HOBG 200450Z 17004KT 3000 HZ SKC 36/08 Q1006 A2973
