2007/05/26 06:50
HOBH 260650Z 15008KT CAVOK 36/07 Q1814 A2996
