2007/05/20 04:50
HOBL 200450Z 16006KT 2000 BR SKC 31/28 Q1006 A2971
