2007/05/20 04:50
HOBQ 200450Z 00000KT 4000 HZ SKC 33/23 Q1006 A2973
