2007/05/20 04:50
HOBR 200450Z 05014KT CAVOK 37/M01 Q1008 A2978
