2008/10/13 11:00
HOTU 131100Z 27006KT 9999 BKN026 BKN030 27/18 Q1014
