2013/04/19 06:30
HRRY 190630Z 29002KT 3000 VCFG FEW010 SCT022 18/18 Q1021 BECMG VIS 5K M
