2013/07/10 07:00
HRYG 100700Z 00000KT 7000 FEW020 SCT090 21/14 Q1023 NOSIG
