2015/12/18 11:00
HRYR 181100Z 32004KT 8000 TS FEW023CB BKN025 23/19 Q1020 RERA
