2012/09/27 07:30
HRYT 270730Z 22005KT 8000 SCT025 22/19 Q1024 NOSIG
