2011/11/05 10:00
HRYZ 051000Z 26006KT 9999 SCT026 SCT100 25/16 Q1021 NOSIG
