2013/07/10 07:00
HRZA 100700Z 23006KT 8000 SCT023 19/12 Q1024 NOSIG
