2015/05/30 10:00
HSKA 301000Z 3012/3021 18006KT CAVOK TEMPO 3015/3021 9999 SCT040 SCT140
