2015/12/17 23:00
HSNN 172300Z 03007KT CAVOK 17/M02 Q1016
