2015/12/17 22:00
HSPN 172200Z 35010KT 9999 FEW030 24/17 Q1016
