2015/12/18 11:00
HSSS 181100Z 35013KT CAVOK 26/02 Q1017 NOSIG
