2013/12/29 00:00
HSSW 290000Z 34011KT CAVOK 25/08 Q1012 NO SIG
