2015/12/13 19:00
HTAR 131900Z 35005KT 9999 SCT018 BKN080 18/16 Q1016
