2015/12/13 19:00
HTBU 131900Z 00000KT 9999 SCT017 FEW019CB BKN080 21/18 Q1017
