2015/12/18 11:00
HTDA 181100Z 04012KT 9999 SCT026 33/25 Q1011 NOSIG
