2015/12/13 18:00
HTIR 131800Z 00000KT 9999 FEW019 BKN080 22/19 Q1019
