2015/12/13 19:00
HTKA 131900Z 00000KT 9999 FEW022 FEW023CB BKN110 24/22 Q1018
