2015/10/07 04:00
HTMP 070400Z 08002KT CAVOK 21/11 Q1018
