2014/09/26 07:00
HTMS 260700Z 12009KT 9999 BKN022 23/15 Q1023
