2015/12/13 19:00
HTMT 131900Z 01014KT 9999 BKN022 FEW023CB 28/25 Q1010
