2015/12/13 19:00
HTMU 131900Z 00000KT 9999 FEW020CB SCT090 20/18 Q1018
