2015/12/18 11:00
HTMW 181100Z 21006KT 9999 SCT023 FEW024CB 26/16 Q1016 NOSIG
