2015/10/07 04:00
HTSY 070400Z 14009KT CAVOK 23/10 Q1017
