2015/12/13 19:00
HTTB 131900Z 00000KT 9999 RA SCT017 FEW018CB BKN070 20/19 Q1020
