2015/10/07 04:00
HTTG 070400Z 24006KT 6000 RA BKN020 BKN080 24/24 Q1016
