2015/12/18 11:00
HTZA 181100Z 06010KT 9999 BKN022 32/27 Q1010 NOSIG
