2010/10/04 13:00
HUAN 041300Z 16007KT 9999 FEW025 FEW028CB BKN200 27/20 Q1012
