2015/12/18 11:00
HUEN 181100Z 25007KT 6000 FEW022 FEW025CB 26/20 Q1017
