2007/12/06 07:00
HURO 060700Z 12006KT CAVOK 28/14 Q1017
