2015/08/12 12:00
HUS0 121200Z 34005KT 9999 BKN020 FEW022CB 30/17 Q1016
