2015/08/25 06:00
HUSO 250600Z 05003KT 9999 FEW020 FEW021 SCT300 23/17 Q1020
