2013/12/17 12:00
HUTO 171200Z 32003KT 9999 SCT020 FEW023CB OVC250 25/18 Q1015
