2008/06/28 07:00
HUYO 280700Z 09003KT 9999 SCT020 SCT200 25/17 Q1021
