2010/03/23 08:00
HYHD 230800Z 21010KT 6000 NSC NSC 30/25 Q1008
