2014/05/04 19:00
IBBY 041900Z 08008KT 9999 FEW100 18/04 Q1020 R33/////// NOSIG RMK MT OP
