2008/03/31 07:00
IJAR 310700Z METAR FCBB 310700Z 23004KT 9999 FEW010 SCT020 FEW026CB OVC130 23/22 Q1011 TEMPO 4000 TSRA
