2008/04/18 05:50
IOSA 180550Z 19006KT 150V240 9999 SCT025 59/22 Q1012 NOSIG RMK01
