2007/05/11 00:00
ITAT 110000Z 34003MPS P5000 OVC100 21/10 Q1008 NOSIG
