2008/07/15 00:50
JBDH 150050Z 33008KT 33/29 Q0996
