2010/12/07 02:54
JMTP 070254Z AUTO 27013G22KT 00/M09 A2940 RMK AO2 PK WND 28026/0239 SLP955 T00001089 50001 PWINO FZRANO TSNO 
