2009/04/08 07:50
JSAD 080750Z AUTO 10003KT 10SM CLR 14/M10 A2999 RMK AO2 SLP119 T0144DL‚¢M9=5 
