2008/01/16 03:45
JUEN 160345Z 160606 36005KT 9999 FEW021 FEW023CB SCT140 BECMG 0811 1800KT FEW023 FEW025CB SCT180 FM16 27005KT BECMG 2124 26005KT SCT020 FEW022CB SCT120 TEMPO 0106 VRB10KT 9000 -TSRA FEW018 FEW020CB BKN110
