2007/05/22 08:00
JXBB 220800Z 34004KT 9999 FEW035 24/05 Q1029 @3015
