2015/12/18 11:12
K04W 181112Z AUTO 25011G16KT 10SM OVC029 M08/M12 A2981 RMK AO2
