2015/12/18 11:15
K06D 181115Z AUTO 31015G20KT 10SM -SN SCT020 BKN028 OVC039 M17/M19 A2982 RMK AO2
