2015/12/18 11:15
K08D 181115Z AUTO 33013G19KT 10SM -SN BKN021 M15/M16 A2991 RMK AO2
