2015/12/18 11:15
K0A9 181115Z AUTO 27006KT 10SM SCT018 SCT038 OVC044 06/03 A2989 RMK
