2015/12/18 11:15
K0CO 181115Z AUTO 30040G50KT 1/2SM SN OVC002 M13/M20 A2994 RMK AO2
