2015/12/18 11:15
K0F2 181115Z AUTO 34003KT 10SM CLR M03/M04 A3032 RMK AO2 T10301036
