2015/12/18 10:58
K0J4 181058Z AUTO 32004KT 10SM CLR 04/02 A3008 RMK AO2 SLP186 T00440022 
