2015/12/15 18:30
K0R0 151830Z AUTO 15004KT 10SM CLR 21/09 A2988 RMK AO2
