2015/12/18 11:15
K0S9 181115Z AUTO 00000KT 10SM BKN008 OVC012 06/06 A2946 RMK AO2
