2015/12/18 11:15
K0V4 181115Z AUTO 00000KT 10SM OVC041 10/07 A2978 RMK AO1 T01000071
