2015/12/18 11:15
K0VG 181115Z AUTO 00000KT 9SM FEW022 00/00 A2997 RMK AO2
