2015/12/18 10:54
K12N 181054Z AUTO VRB06KT 06/03 A2978 RMK AO1 SLP087 T00610028 
