2015/12/18 11:19
K14Y 181119Z AUTO 19004KT 7SM -SN OVC026 M11/M13 A2981 RMK AO2
