2015/12/18 11:15
K19A 181115Z AUTO 28008KT 10SM CLR 05/03 A2990 RMK AO2
