2015/12/18 11:15
K1A5 181115Z AUTO 31011G19KT 10SM CLR 04/M01 A2990 RMK AO2 T00421012
