2015/12/18 11:15
K1A6 181115Z AUTO 31007KT 10SM OVC019 00/M02 A3000 RMK AO2 T00031016
