2015/12/18 11:05
K1B7 181105Z 01015KT 10SM SKC 11/06 A3015
