2015/12/18 11:15
K1F0 181115Z AUTO 00000KT 10SM CLR M01/M03 A3032 RMK AO2
