2015/05/06 11:42
K1GW 061142Z AUTO 12009KT 3/4SM -RA FG BKN002 BKN055 10/10 A2968 RMK AO2 VIS 3/4V1 7/8 RAB41 $
