2015/12/18 11:15
K1H2 181115Z AUTO 24006KT 10SM CLR M01/M04 A3008 RMK AO2 T10151036
