2015/07/14 04:15
K1II 140415Z AUTO 10008G17KT 1 1/4SM +TSRA BKN006 BKN017 OVC042 20/18 A2970 RMK AO2 VIS 1/2V5 LTG DSNT ALQS
