2015/12/18 10:58
K1J0 181058Z AUTO 32005KT 10SM CLR 08/04 A3006 RMK AO2 SLP163 T00780044 TSNO PNO $ 
