2015/12/18 11:15
K1K1 181115Z AUTO 23005KT 10SM CLR M07/M09 A3024 RMK AO2 T10731089
