2015/12/18 11:15
K1L0 181115Z AUTO 35004KT 10SM CLR 08/03 A3019 RMK AO2 T00750030
