2015/12/18 10:56
K1M4 181056Z AUTO 34004KT 10SM CLR M02/M02 A3012 RMK AO2 SLP225 T10171022
