2015/12/18 11:15
K1P1 181115Z AUTO 28008KT 10SM SCT012 SCT025 OVC043 08/06 A2966 RMK AO2 T00770060
