2015/12/15 17:58
K1QW 151758Z AUTO 21016G21KT M /// /// M M02/M05 A3008 RMK AO2 SLP219 T10171050 11015 21036 55001 $
