2015/12/07 02:15
K1S5 070215Z AUTO 19005KT 10SM BKN110 08/02 A2999 RMK AO2 T00770017
