2015/12/18 11:10
K1V6 181110Z AUTO 30004KT 10SM CLR M11/M13 A3000 RMK AO2
