2015/12/18 11:21
K1YT 181121Z AUTO 24003KT 10SM -SN BKN011 OVC017 M03/M03 A2966 RMK AO2 CIG 011V017 $
