2015/12/18 11:15
K20V 181115Z AUTO 00000KT 10SM OVC048 M11/M16 A3018 RMK AO2
