2015/12/18 11:14
K21D 181114Z AUTO 26010G14KT 10SM OVC045 M08/M12 A2988 RMK AO2
