2015/12/18 11:15
K22N 181115Z AUTO 31003KT 10SM BKN025 BKN090 05/00 A2981 RMK AO2
