2015/12/18 08:15
K28J 180815Z AUTO 21006KT 1 1/4SM RA BKN007 BKN015 OVC023 21/21 A2989 RMK AO2 TSNO
