2011/01/25 15:35
K29G 251535Z AUTO 27008KT 10SM OVC014 00/M04 A3008 RMK AO2 T10021037
