2015/12/18 11:15
K2D5 181115Z AUTO 30015KT 10SM OVC032 M10/M13 A2987 RMK AO2 
