2015/12/18 10:56
K2DP 181056Z AUTO 20004KT 8SM -SHRA BKN110 17/17 A2974 RMK AO2 SHRAE04SHRAB22 SLPNO T01740167 $
