2015/12/18 11:05
K2G4 181105Z AUTO 28007KT 262V322 10SM OVC005 M02/M03 A2979 RMK AO1
