2015/12/18 11:15
K2G9 181115Z AUTO 27010KT 10SM OVC014 M01/M04 A2983 RMK AO2
