2015/12/18 11:15
K2I0 181115Z AUTO 31004KT 10SM OVC027 02/M03 A3010 RMK AO2 T00201027
