2015/12/18 11:04
K2W6 181104Z AUTO 01003KT 10SM OVC039 09/04 A2979 RMK AO1
