2015/12/18 10:56
K2WX 181056Z AUTO 31011KT M14/M17 A2982 RMK AO1 SLP155 T11441172 
