2015/12/18 11:15
K33V 181115Z AUTO 15015G20KT 10SM BKN035 OVC042 M08/M12 A3006 RMK AO2
