2015/12/18 11:15
K3AU 181115Z AUTO 23005KT 10SM CLR M08/M09 A3025 RMK AO2
