2015/12/18 11:15
K3D2 181115Z AUTO 27008G24KT 230V300 10SM OVC034 M04/M12 A2974 RMK AO2 T10411117
