2015/12/18 11:15
K3J7 181115Z AUTO 26005KT 10SM 07/06 A2989 RMK AO2
