2007/05/10 15:25
K3R0 101525Z AUTO 32006KT 10SM OVC025 21/17 A2999 RMK AO2
