2015/12/18 11:15
K3R7 181115Z AUTO 29003KT 10SM CLR 04/04 A3020 RMK AO2
