2015/12/18 11:15
K3T5 181115Z AUTO 02005KT 10SM CLR 05/00 A3028 RMK AO2 T00470000
