2008/09/25 12:16
K3WO 251216Z AUTO 04004KT 10SM CLR 10/09 A3039 RMK AO1
