2015/12/18 11:16
K40B 181116Z AUTO 00000KT 00/00 A2960 RMK AO1 SLP042 T00030002 56007 
