2015/12/18 11:15
K40J 181115Z AUTO 29011G16KT 10SM SCT013 17/14 A2997 RMK AO2 T01670143
