2015/12/18 11:15
K42J 181115Z AUTO 23005KT 5SM OVC006 22/22 A2989 RMK AO1 TSNO 
