2008/07/31 19:00
K46A 311900Z AUTO 02004KT 7SM -RA SCT026 BKN033 OVC060 27/22 A2989 RMK AO2
