2015/12/18 11:15
K4A9 181115Z AUTO 00000KT 10SM SCT015 00/M02 A3004 RMK AO2
