2015/12/18 11:15
K4BM 181115Z AUTO 30009G25KT 270V330 10SM CLR M09/M13 A2998 RMK AO2
