2011/08/29 12:15
K4C0 291215Z 06004KT 5SM SKC 25/25 A2982
