2015/12/18 11:16
K4I3 181116Z AUTO 26006KT 10SM OVC026 M01/M06 A2993 RMK AO2
