2015/12/18 11:15
K4I7 181115Z AUTO 25003KT 10SM CLR M02/M07 A3001 RMK AO2
