2015/12/18 11:15
K4M9 181115Z AUTO 27005KT 10SM CLR 01/M02 A3020 RMK AO2
