2015/12/18 10:56
K4MR 181056Z AUTO 22012G17KT 10SM CLR M01/M11 A3015 RMK AO2 SLP212 T10131111 $
