2015/12/18 11:15
K4O4 181115Z AUTO 34007KT 10SM BKN019 01/M01 A3030 RMK AO2
