2010/05/07 20:19
K4S1 072019Z AUTO 24004KT 5SM HZ CLR 12/09 A3016 RMK AO2 
