2008/01/06 17:30
K4S2 061730Z 00000KT 10SM SCT011 SCT055 BKN110 01/00 A2964 RMK FROM 4S2 AUTO
