2015/12/18 11:15
K4V0 181115Z AUTO 11004KT 10SM OVC048 M11/M14 A3023 RMK AO2 T11071136
