2015/12/18 11:15
K54J 181115Z AUTO 33009KT 10SM CLR 07/02 A3008 RMK AO2 T00650022
