2015/12/18 11:15
K5C1 181115Z AUTO 35005KT 10SM CLR 01/M03 A3029 RMK AO1
