2015/12/18 11:15
K5H4 181115Z AUTO 32018G24KT 1 1/4SM SCT002 BKN011 OVC038 M15/M17 A2991 RMK AO2 P0033 PWINO PNO
