2015/12/18 11:15
K5M9 181115Z AUTO 29008KT 10SM OVC026 00/M04 A3010 RMK AO2 T00041043
