2015/12/18 11:15
K5R8 181115Z AUTO 33003KT 10SM CLR 03/03 A3022 RMK AO2 T00310030
