2015/12/18 11:15
K65S 181115Z AUTO 00000KT 2 1/2SM -SN BKN003 BKN029 M05/M06 A2978 RMK AO2
