2015/12/18 11:15
K6A1 181115Z AUTO 30006KT 10SM 09/08 A2999 RMK AO2 T00900075
