2015/12/18 11:15
K6A2 181115Z AUTO 32008KT 10SM CLR 05/02 A2997 RMK AO2
