2015/12/18 11:10
K6I2 181110Z AUTO 26003KT 10SM OVC024 00/M04 A3004 RMK AO2
