2015/12/18 11:15
K6L4 181115Z AUTO 00000KT 10SM BKN028 OVC034 M00/M02 A2993 RMK AO2
