2015/12/18 11:15
K6R3 181115Z AUTO 35004KT 10SM CLR 05/03 A3028 RMK AO2 T00500029
