2015/12/18 10:53
K6R6 181053Z AUTO 02008KT 01/M07 A3027 RMK AO1 SLP241 T00111072 $ 
