2010/05/07 19:55
K6S2 071955Z AUTO 33010KT 10SM CLR 16/08 A3014 RMK AO2 
