2008/11/20 14:20
K6V3 201420Z AUTO 27007KT 230V300 10SM 00/M04 A3003 RMK
