2007/09/21 15:23
K76S 211523Z 00000KT 4SM BR BKN001 OVC007 12/12 A3007
