2015/12/18 10:56
K79J 181056Z AUTO 34008KT 10SM CLR 07/02 A3008 RMK AO2 SLP182 T00720017 
