2015/12/18 11:14
K7BM 181114Z AUTO 25021G54KT 210V320 10SM CLR M02/M12 A2995 RMK AO2
