2015/12/18 11:15
K7L2 181115Z AUTO 30012KT 10SM -SN OVC024 M11/M13 A2991 RMK AO2
