2015/12/18 10:40
K7R3 181040Z 07004KT 10SM SKC 09/05 A3018
