2015/12/18 11:15
K7W6 181115Z AUTO 17006KT 7SM -RA SCT046 SCT075 BKN110 18/18 A2974 RMK AO2 P0001 T01810176
