2015/12/18 11:15
K82C 181115Z AUTO 30011G14KT 10SM OVC032 M06/M12 A2985 RMK AO2 T10601118
