2015/12/18 11:15
K82V 181115Z AUTO 27010KT 10SM CLR M04/M11 A2990 RMK AO2
