2011/09/08 16:45
K8A3 081645Z AUTO VRB03KT 10SM BKN013 BKN025 OVC030 16/13 A3000 RMK AO1 T01550127 BKN V SCT $ 
