2015/12/18 10:56
K8D3 181056Z AUTO 36014KT M09/M12 A2986 RMK AO1 SLP146 T10891122 
