2015/12/18 11:15
K96D 181115Z AUTO 30012G15KT 10SM CLR M14/M17 A2986 RMK AO2
