2015/12/18 11:15
K9A5 181115Z AUTO 02004KT 10SM SCT020 SCT080 SCT120 03/M03 A3004 RMK AO2 T00301030
