2015/12/18 10:56
K9F2 181056Z 36010KT 7SM SKC 10/06 A3014
