2008/01/06 09:15
K9K4 060915Z AUTO 17012G17KT 10SM CLR 13/10 A2963 RMK AO2
