2015/12/18 06:56
K9L2 180656Z AUTO 31005KT 10SM CLR M01/M15 A3020 RMK AO2 SLP245 T10111150 FZRANO $ 
