2015/12/18 11:13
K9MN 181113Z AUTO 26010KT 230V290 10SM OVC045 M08/M11 A2989 RMK AO1 T10851115
