2007/06/03 14:52
K9N9 031452Z AUTO 34010KT 20/15 A2988 TMK AO1 SLP111 T02000150 53005 
