2007/07/26 06:52
K9V1 260652Z AUTO 20014G20KT 28/19 A2981 RMK AO1 SLP071 T02830189 
