2015/12/18 11:15
K9V9 181115Z AUTO 29012KT 10SM CLR M10/M14 A2995 RMK AO2 T11011145
