2015/12/18 11:15
KA08 181115Z AUTO 32008KT 10SM CLR 02/00 A3012 RMK AO2 T00200000
