2015/12/18 11:15
KAAA 181115Z AUTO 27007KT 10SM SCT024 BKN029 OVC110 M02/M05 A3004 RMK AO2 T10161051
