2015/12/18 10:54
KAAO 181054Z AUTO 25007KT 10SM CLR M07/M08 A3023 RMK AO2 SLP255 T10671083
