2015/12/18 10:55
KAAT 181055Z AUTO 18018G25KT 10SM FEW044 03/M01 A2995 RMK AO2 PK WND 18026/0959 SLP148 T00331006
