2015/12/18 10:52
KABI 181052Z 28003KT 10SM CLR M03/M04 A3030 RMK AO2 SLP264 I1001 T10331044
