2015/12/18 11:09
KABR 181109Z AUTO 33013KT 10SM FEW023 SCT029 OVC049 M08/M11 A2990 RMK AO2 T10781111
