2015/12/18 10:53
KABY 181053Z AUTO 31006KT 10SM CLR 10/07 A3001 RMK AO2 SLP162 T01000072
