2015/12/18 11:15
KACB 181115Z AUTO 23008G17KT 200V260 10SM SCT037 BKN043 OVC060 M01/M08 A2975 RMK AO2 T10101080
