2015/12/18 11:15
KACJ 181115Z AUTO 30003KT 10SM CLR 07/07 A3001 RMK AO2
