2015/12/18 11:02
KACK 181102Z 26012KT 1/2SM R24/2800V3000FT FG VV002 12/12 A2969 RMK AO2 T01220117 $
