2015/12/18 10:51
KACT 181051Z 31006KT 10SM CLR 01/M02 A3032 RMK AO2 SLP268 T00061017
