2015/12/18 10:53
KACV 181053Z AUTO 15010KT 5SM -RA BR SCT037 OVC046 12/11 A2990 RMK AO2 SLP131 P0011 T01170106
