2015/12/18 10:54
KACY 181054Z AUTO 30006KT 7SM OVC050 11/09 A2974 RMK AO2 SLP070 T01110094 TSNO
