2015/12/18 11:15
KADC 181115Z AUTO 27008KT 10SM -SN OVC028 M11/M14 A2978 RMK AO2
