2015/12/18 10:56
KADF 181056Z AUTO 00000KT 10SM CLR 02/02 A3027 RMK AO2 T00160016 SLP266
