2015/12/18 10:53
KADG 181053Z AUTO 25007KT 10SM OVC035 M01/M05 A2989 RMK AO2 SLP133 T10111050 TSNO
