2015/12/18 11:15
KADH 181115Z AUTO 00000KT 10SM CLR M03/M05 A3031 RMK AO2
