2015/12/18 11:15
KADM 181115Z AUTO 00000KT 10SM CLR M02/M03 A3032 RMK AO2 T10251034
