2015/12/18 10:35
KADS 181035Z AUTO 01006KT 10SM CLR 01/00 A3032 RMK AO2 T00111004
