2015/12/18 11:15
KADU 181115Z AUTO 24006KT 10SM BKN090 M06/M09 A3001 RMK AO2
