2015/12/18 10:58
KADW 181058Z AUTO 32013KT 10SM OVC039 08/02 A2980 RMK AO2 SLP099 T00780020 $
