2015/12/18 11:15
KAEG 181115Z AUTO 29006KT 10SM CLR M07/M12 A3025 RMK AO2 T10751125
