2015/12/18 11:15
KAEJ 181115Z AUTO 30013G21KT 10SM CLR M03/M13 A3002 RMK AO2 T10271128
