2015/12/18 11:11
KAEL 181111Z AUTO 25007KT 10SM BKN029 BKN034 M08/M12 A2990 RMK AO2
