2015/12/18 10:53
KAEX 181053Z AUTO 30003KT 10SM CLR 02/02 A3019 RMK AO2 SLP227 I1000 T00220017
