2015/12/18 10:58
KAFF 181058Z AUTO 04007KT 300V090 10SM CLR M13/M15 A2993 RMK AO2 SLP213 T11271147
