2015/12/18 11:23
KAFN 181123Z AUTO 23003KT 10SM BKN011 BKN016 OVC022 07/07 A2968 RMK AO2 CIG 009V012 T00720067
