2015/12/18 11:15
KAFO 181115Z AUTO 00000KT 10SM OVC024 M08/M10 A3008 RMK AO2
