2015/12/18 10:53
KAFW 181053Z 34006KT 10SM CLR M01/M03 A3031 RMK AO2 SLP271 T10061028
