2015/12/18 10:53
KAGC 181053Z 30003KT 10SM OVC021 01/M04 A2988 RMK AO2 SLP131 T00061039
