2015/12/18 10:53
KAGS 181053Z AUTO 28007KT 10SM CLR 12/09 A2988 RMK AO2 SLP116 T01170089
