2015/12/18 11:15
KAHQ 181115Z AUTO 24010KT 10SM CLR M06/M09 A3004 RMK AO2 T10611093
