2015/12/18 11:15
KAIB 181115Z AUTO 13004KT 10SM CLR M11/M15 A3031 RMK AO2
