2015/12/17 20:46
KAID 172046Z 28010KT 10SM OVC020 M01/M04 A2992
