2015/12/18 11:15
KAIG 181115Z AUTO 27010KT 10SM BKN022 OVC049 M09/M12 A2973 RMK AO2 T10911125
