2015/12/18 11:15
KAIK 181115Z AUTO 26008KT 10SM CLR 10/08 A2989 RMK AO2
