2015/12/18 11:15
KAIO 181115Z AUTO 24008KT 10SM FEW095 M07/M09 A3004 RMK AO2
