2015/12/18 11:13
KAIT 181113Z AUTO 26004KT 7SM -SN OVC028 M09/M14 A2977 RMK AO2
