2015/12/18 11:15
KAJG 181115Z AUTO 26007KT 10SM OVC043 00/M03 A3008 RMK AO2
