2015/11/19 05:31
KAJL 190531Z AUTO 25016G19KT 4SM -SN OVC003 M15/M15 A2990 RMK AO2 T11461148
