2015/12/18 10:56
KAJO 181056Z AUTO 06004KT 10SM CLR 04/M06 A3013 RMK AO2 SLP216 T00441061 $
