2015/12/18 11:15
KAJR 181115Z AUTO 31004KT 10SM CLR 04/03 A2988 RMK AO2 T00390027
