2015/12/18 11:15
KAJZ 181115Z AUTO 04004KT 10SM OVC065 M04/M10 A3031 RMK AO2 T10421100
