2015/12/18 10:54
KAKH 181054Z AUTO 30003KT 7SM FEW010 12/10 A2977 RMK AO2 SLP080 T01170100
