2015/12/18 10:53
KAKO 181053Z AUTO 23009KT 10SM OVC090 M09/M15 A2994 RMK AO2 SLP205 T10941150
