2015/12/18 11:19
KAKQ 181119Z AUTO VRB04KT 9SM BKN007 BKN011 OVC020 13/11 A2976 RMK AO2 RAE05 CIG 004V010 P0000 T01280111 TSNO
