2015/12/18 10:54
KAKR 181054Z AUTO 28007KT 10SM OVC027 00/M07 A2990 RMK AO2 SLP132 T00001067
