2015/12/18 10:51
KALB 181051Z 30008KT 10SM FEW025 SCT041 SCT250 04/00 A2979 RMK AO2 SLP087 T00440000
