2015/12/18 10:53
KALI 181053Z AUTO 03009KT 10SM CLR 07/01 A3028 RMK AO2 SLP252 T00720006 $
