2015/12/18 10:56
KALK 181056Z AUTO 13004KT 10SM CLR 02/M10 A3019 RMK AO2 SLP179 T00171100 
