2015/12/18 11:15
KALN 181115Z AUTO 28010KT 10SM BKN110 M01/M05 A3011 RMK AO2 T10151053
