2015/12/18 10:52
KALS 181052Z AUTO 24003KT 10SM CLR M18/M21 A3021 RMK AO2 SLP303 T11831206
