2015/12/18 10:53
KAMA 181053Z AUTO 17008KT 10SM CLR M06/M08 A3017 RMK AO2 SLP238 T10611083
