2015/12/18 10:53
KAMG 181053Z AUTO 31016G21KT 10SM FEW011 SCT017 BKN022 16/14 A2990 RMK AO2 SLP122 T01610139
