2015/12/18 11:14
KAMN 181114Z AUTO 24010G18KT 10SM OVC040 00/M06 A2981 RMK AO2 T00001064
