2015/12/18 10:53
KAMW 181053Z AUTO 24012KT 10SM FEW100 M06/M09 A3000 RMK AO2 SLP169 T10611089 $
