2015/12/18 10:53
KANB 181053Z AUTO 22006KT 10SM CLR 02/01 A3005 RMK AO2 SLP183 T00220006
