2015/12/18 10:56
KAND 181056Z AUTO 27009KT 10SM CLR 08/04 A2983 RMK AO2 SLP100 T00830039
