2015/12/18 11:14
KANE 181114Z AUTO 25008KT 10SM SCT046 M09/M12 A2988 RMK AO2
