2015/12/18 10:55
KANJ 181055Z AUTO 23007KT 10SM BKN070 OVC090 M03/M08 A2967 RMK AO2 SLP053 T10281078
