2015/12/18 11:15
KANK 181115Z AUTO 26011G25KT 10SM CLR M01/M10 A3009 RMK AO1 T10091102
