2015/12/18 11:35
KANQ 181135Z AUTO 26007KT 10SM CLR M03/M06 A2989 RMK
