2015/12/18 11:15
KANW 181115Z AUTO 25009KT 10SM CLR M13/M17 A2995 RMK AO2 T11341168
