2015/12/18 10:53
KAOH 181053Z AUTO 24008KT 10SM OVC029 M01/M06 A2993 RMK AO2 SLP146 T10111061
