2015/12/18 10:53
KAOO 181053Z AUTO 29010KT 10SM OVC023 02/M04 A2983 RMK AO2 SLP110 T00171039
