2015/12/18 10:53
KAPA 181053Z 15007KT 10SM FEW220 M07/M14 A2991 RMK AO2 SLP195 T10671144
