2015/12/18 10:54
KAPC 181054Z AUTO 08004KT 10SM BKN024 09/06 A3014 RMK AO2 SLP196 T00890056
