2015/12/18 10:53
KAPF 181053Z AUTO 15004KT 7SM CLR 23/22 A2994 RMK AO2 SLP138 T02330222
