2015/12/18 10:47
KAPG 181047Z 32006KT 7SM OVC050 07/04 A2983
