2015/12/18 10:54
KAPN 181054Z AUTO 22007KT 10SM FEW045 OVC055 M01/M08 A2973 RMK AO2 SLP077 T10061078 $
