2015/12/18 11:15
KAQR 181115Z AUTO 00000KT CLR 00/M03 A3034 RMK AO2
