2015/12/18 10:52
KAQW 181052Z AUTO 26009KT 10SM OVC015 06/03 A2974 RMK AO2 SLP075 T00560028
