2015/12/18 11:15
KAQX 181115Z AUTO VRB06KT 10SM FEW008 SCT015 OVC060 16/15 A2986 RMK AO2
