2015/12/18 10:53
KARA 181053Z AUTO 00000KT 10SM CLR 04/03 A3018 RMK AO2 SLP219 T00440033
