2015/12/18 10:53
KARB 181053Z AUTO 23007KT 10SM OVC036 M01/M06 A2986 RMK AO2 SLP121 T10061061 TSNO
