2015/12/18 11:15
KARG 181115Z AUTO 29005KT 10SM OVC035 02/M04 A3021 RMK AO1
