2015/12/18 10:52
KARR 181052Z AUTO 26018G23KT 10SM OVC032 M02/M08 A2993 RMK AO2 SLP145 T10221078
