2015/12/18 10:56
KART 181056Z AUTO 27008KT 10SM FEW028 OVC037 03/M01 A2979 RMK AO2 RAE0959 SLP089 P0000 T00331011
