2015/12/18 11:15
KARV 181115Z AUTO 26011G14KT 7SM -SN OVC018 M08/M11 A2970 RMK AO2 T10851115
