2015/12/18 11:15
KARW 181115Z AUTO 24008KT 7SM BKN011 OVC045 20/20 A2982 RMK AO2
