2015/12/18 10:53
KASD 181053Z AUTO 00000KT 10SM CLR 04/03 A3016 RMK AO2 SLP214 T00440033
