2015/12/18 10:53
KASE 181053Z AUTO 00000KT 10SM OVC043 M09/M13 A3020 RMK AO2 SLP268 T10941133
