2015/12/18 11:18
KASH 181118Z AUTO 00000KT 8SM FEW003 SCT100 05/05 A2967 RMK AO2
