2015/12/18 11:15
KASJ 181115Z AUTO 00000KT 2 1/2SM +RA SCT005 BKN013 OVC031 14/14 A2975 RMK AO2 VIS 1 1/2V4 P0013 T01400136
