2015/12/18 11:15
KASL 181115Z AUTO 33005KT 10SM CLR 03/00 A3030 RMK AO1 T00301005
