2015/12/18 10:55
KAST 181055Z AUTO 24007KT 10SM BKN017 BKN022 OVC037 11/08 A2957 RMK AO2 SLP014 T01060083
