2015/12/18 11:15
KASW 181115Z AUTO 25005KT 10SM CLR M03/M05 A2993 RMK AO2
