2015/12/18 11:14
KASX 181114Z AUTO 25009KT 10SM SCT026 OVC045 M08/M12 A2978 RMK AO2 T10831122
