2015/12/18 10:52
KATL 181052Z 31011KT 10SM SCT200 BKN250 05/02 A2996 RMK AO2 SLP146 T00500017
