2015/12/18 11:20
KATP 181120Z AUTO 32026G33KT 10SM SCT036 SCT041 19/06 A3012 RMK A01
