2015/12/18 11:15
KATS 181115Z AUTO 20007KT 10SM CLR M05/M12 A3021 RMK AO2
