2015/12/18 10:51
KATT 181051Z AUTO 35004KT 10SM CLR 04/M02 A3030 RMK AO2 SLP263 T00391022 $ 
