2015/12/18 11:22
KATW 181122Z 26014KT 10SM OVC038 M04/M12 A2979 RMK FIRST
