2015/12/18 11:04
KATY 181104Z AUTO 27010KT 9SM SCT020 BKN026 OVC039 M07/M09 A2983 RMK AO2 SNE04 P0000 T10671094
