2015/12/18 11:10
KAUG 181110Z AUTO 34003KT 1/4SM FG VV001 03/03 A2963 RMK AO2 T00330033
