2015/12/18 11:15
KAUH 181115Z AUTO 26012KT 10SM CLR M07/M11 A3004 RMK AO2 T10701110
