2015/12/18 11:16
KAUM 181116Z AUTO 26005KT 10SM BKN035 M09/M12 A2991 RMK AO2
