2015/12/18 10:56
KAUO 181056Z AUTO 32008KT 10SM CLR 04/03 A3003 RMK AO2 SLP196 T00440028
