2015/12/18 10:53
KAUS 181053Z 33004KT 10SM CLR 03/M02 A3030 RMK AO2 SLP263 T00281022
