2015/12/18 11:03
KAUW 181103Z AUTO 28017G21KT 10SM BKN027 OVC049 M08/M13 A2977 RMK AO2 T10781128
