2015/12/18 11:16
KAVC 181116Z AUTO 00000KT 5SM OVC005 11/11 A2981 RMK AO2 P0001 T01120111
