2015/12/18 11:15
KAVK 181115Z AUTO 25007KT 8SM FEW028 FEW035 SCT041 M09/M10 A3027 RMK AO2
