2015/12/18 10:54
KAVL 181054Z AUTO 34010G17KT 10SM OVC022 06/02 A2984 RMK AO2 SLP098 T00560017
