2015/12/18 10:54
KAVP 181054Z AUTO 34004KT 10SM OVC033 04/M02 A2979 RMK AO2 SLP091 T00391017
