2015/12/18 10:51
KAVX 181051Z AUTO 00000KT 10SM CLR 12/02 A3012 RMK AO2 SLP195 T01170022
