2015/12/18 11:15
KAWG 181115Z AUTO 28007KT 10SM CLR M06/M10 A3006 RMK AO2
