2015/12/18 10:53
KAWM 181053Z AUTO 00000KT 10SM BKN036 00/M01 A3020 RMK AO2 SLP227 T00001011 $
