2015/12/18 11:15
KAWO 181115Z AUTO 16013G19KT 10SM SCT019 BKN030 OVC085 06/02 A2947 RMK AO1
