2015/12/18 11:15
KAXA 181115Z AUTO 23009KT 10SM FEW050 SCT060 BKN070 M06/M09 A2993 RMK AO2
