2015/12/18 11:15
KAXH 181115Z AUTO 32006KT 10SM CLR 06/00 A3029 RMK AO2 T00550003
