2015/12/18 10:53
KAXN 181053Z AUTO 28013KT 10SM FEW016 OVC026 M09/M12 A2982 RMK AO2 SLP126 T10941122
