2015/12/17 13:30
KAXO 171330Z 01018KT 4SM BKN010 16/17 A2987
