2015/12/18 11:14
KAXV 181114Z AUTO 25009KT 10SM OVC029 00/M05 A2995 RMK AO2
