2015/12/18 11:15
KAZC 181115Z AUTO 12004KT 10SM CLR M06/M08 A3026 RMK AO2 T10651076
