2015/12/18 11:15
KAZE 181115Z AUTO 29007KT 220V330 10SM SCT060 14/12 A2993 RMK AO2 T01400116
