2015/12/18 10:53
KAZO 181053Z AUTO 22008KT 10SM FEW033 M03/M06 A2987 RMK AO2 SLP126 T10281061
