2007/06/30 23:30
KB23 302330Z 25009KT 35SM SKC 36/M06 A3007 RMK NOSPECI T03561062 10361 20261 57015 
