2015/12/18 10:58
KBAB 181058Z AUTO 00000KT 10SM BKN035 04/03 A3013 RMK AO2 SLP206 T00400029 $
