2015/12/18 11:15
KBAC 181115Z AUTO 33014KT 10SM -SN OVC029 M11/M14 A2986 RMK AO2 
