2015/12/18 11:18
KBAD 181118Z AUTO 32007KT 10SM CLR 02/00 A3026 RMK AO2
