2015/12/18 10:53
KBAF 181053Z 30008KT 10SM FEW029 SCT035 BKN080 07/04 A2972 RMK AO2 SLP068 T00720044
