2015/12/18 02:45
KBAK 180245Z 31006KT 10SM OVC025 00/M03 A3001
