2015/12/18 10:52
KBAN 181052Z AUTO 00000KT 10SM CLR M07/M11 A3012 RMK AO2 SLP206 T10671111 $ 
