2015/12/18 11:14
KBAX 181114Z AUTO 24006KT 10SM OVC043 00/M05 A2980 RMK AO2 T00001051
