2015/12/18 10:51
KBAZ 181051Z AUTO 01010KT 10SM CLR 02/M02 A3029 RMK AO2 SLP256 T00221022
