2015/12/18 11:14
KBBB 181114Z AUTO 00000KT 10SM SCT055 M14/M16 A2986 RMK AO2
