2015/12/18 11:15
KBBD 181115Z AUTO 34004KT 10SM CLR M02/M04 A3029 RMK
