2015/12/18 11:15
KBBF 181115Z AUTO 02023KT 10SM BKN042 BKN050 15/05 A3023 RMK A01
