2015/12/18 11:15
KBBG 181115Z AUTO 30006KT 10SM OVC034 M02/M07 A3022 RMK AO2
