2014/04/30 04:00
KBBN 300400Z 12004KT 9999 FEW100 15/09 Q1011 R14R/CLRD60 NOSIG RMK MT OP QFE683
