2015/12/18 11:15
KBBP 181115Z AUTO 00000KT 10SM BKN036 OVC060 17/16 A2977 RMK AO2
