2015/12/18 10:53
KBBW 181053Z AUTO 27013KT 10SM CLR M11/M15 A3000 RMK AO2 SLP196 T11061150
