2015/12/18 11:15
KBCB 181115Z AUTO 27004KT 10SM SCT018 BKN045 05/03 A2984 RMK AO2 T00450028
