2015/12/18 10:53
KBCE 181053Z AUTO 25007KT 10SM CLR M16/M18 A3020 RMK AO2 SLP253 T11611178 PNO $
