2015/12/18 11:15
KBCK 181115Z AUTO 26008G15KT 10SM OVC033 M06/M14 A2986 RMK AO2 T10651136
