2015/12/18 03:48
KBCT 180348Z 18005KT 10SM CLR 25/23 A2997 RMK LAST
