2015/12/18 11:25
KBDE 181125Z AUTO 30014G24KT 1 1/2SM -SN OVC017 M13/M17 A2973 RMK AO2 P0000 T11281167 TSNO
