2015/12/18 11:15
KBDH 181115Z AUTO 00000KT 10SM CLR M11/M13 A2987 RMK AO2
