2015/12/18 10:51
KBDL 181051Z 28007KT 10SM SCT046 OVC075 08/06 A2971 RMK AO2 SLP062 T00780056
