2015/12/18 11:15
KBDN 181115Z AUTO 19014G20KT 10SM FEW028 05/00 A2968 RMK AO2 
