2015/12/18 10:52
KBDR 181052Z AUTO 00000KT 10SM SCT016 BKN023 OVC070 12/11 A2970 RMK AO2 CIG 016 R29 SE SLP057 T01170111
