2015/12/18 11:15
KBEA 181115Z AUTO 02009KT 10SM CLR 06/01 A3030 RMK AO2 T00610010
