2015/12/18 10:56
KBED 181056Z AUTO 23003KT 10SM SCT100 07/07 A2966 RMK AO2 SLP057 T00720067
