2015/12/18 10:53
KBEH 181053Z AUTO 26016G22KT 10SM BKN035 BKN100 M01/M08 A2990 RMK AO2 SLP131 T10111083
