2015/12/18 10:53
KBFD 181053Z AUTO 30007KT 10SM OVC019 M01/M04 A2979 RMK AO2 SLP101 T10061044
