2015/12/18 10:53
KBFF 181053Z AUTO 08004KT 10SM CLR M16/M19 A2993 RMK AO2 SLP199 T11611189
