2015/12/18 10:53
KBFI 181053Z AUTO 15010KT 10SM -RA BKN048 08/00 A2948 RMK AO2 SLP983 P0006 T00830000 TSNO $
