2015/12/18 10:54
KBFL 181054Z AUTO 15003KT 7SM CLR 03/M01 A3018 RMK AO2 SLP221 T00281011
