2015/12/18 10:53
KBFM 181053Z 35008KT 10SM CLR 06/02 A3015 RMK AO2 SLP208 T00610017
