2015/12/18 11:14
KBFW 181114Z AUTO 24005KT 5SM -SN SCT025 BKN032 OVC040 M09/M12 A2969 RMK AO2
