2015/12/18 10:51
KBGD 181051Z AUTO 00000KT 10SM CLR M06/M08 A3020 RMK AO2 SLP244 T10611078
