2015/12/18 11:15
KBGE 181115Z AUTO 31005KT 10SM CLR 11/09 A3002 RMK AO2
