2015/12/18 11:15
KBGF 181115Z AUTO 36004KT 10SM OVC015 M01/M02 A3007 RMK
