2015/12/18 11:22
KBGM 181122Z 31003KT 10SM SCT014 BKN022 OVC028 01/M01 A2976 RMK AO2 T00111006 $
