2015/12/18 11:24
KBGR 181124Z 32008KT 1/2SM R15/2400V4500FT FG OVC002 04/04 A2961 RMK AO2 T00440044
