2015/12/18 11:15
KBHB 181115Z 00000KT 10SM FEW022 OVC030 08/08 A2960 RMK AO1
