2015/12/18 11:15
KBHC 181115Z AUTO 31008G16KT 10SM OVC015 16/13 A2991 RMK AO2
