2015/12/18 10:51
KBHK 181051Z AUTO 31014G19KT 10SM OVC011 M12/M14 A2993 RMK AO2 SLP178 T11171139
