2015/12/18 11:15
KBID 181115Z AUTO 26005KT 10SM BKN018 BKN070 11/11 A2968 RMK AO1
