2015/12/18 10:58
KBIF 181058Z AUTO 04004KT 10SM CLR M05/M11 A3024 RMK AO2 SLP240 T10521115
