2015/12/18 10:56
KBIH 181056Z AUTO 34007KT 10SM CLR M08/M13 A3021 RMK AO2 SLP235 T10781133 $
