2015/12/18 11:15
KBIJ 181115Z AUTO 00000KT 10SM SCT009 SCT014 10/08 A3003 RMK AO2
