2015/12/18 10:53
KBIL 181053Z 19004KT 10SM BKN070 BKN170 M09/M14 A2985 RMK AO2 SLP162 T10891144
