2015/12/18 10:52
KBIS 181052Z AUTO 32017G28KT 8SM OVC025 M11/M15 A2992 RMK AO2 PK WND 32028/1049 SNB11E44 SLP165 P0000 T11061150
