2015/12/18 10:53
KBIV 181053Z AUTO 26018G22KT 10SM OVC033 M01/M07 A2986 RMK AO2 SLP119 T10061067
