2015/12/18 11:15
KBJC 181115Z AUTO 20004KT 10SM CLR M04/M16 A2990 RMK AO2
