2015/12/18 11:14
KBJI 181114Z AUTO 28009KT 10SM OVC028 M12/M16 A2976 RMK AO2 T11221156
