2015/12/11 14:49
KBKB 111449Z AUTO VRB06KT 10SM BKN012 OVC018 22/20 A2990 RMK AO2 
