2015/12/18 11:16
KBKE 181116Z AUTO 09016KT 10SM BKN026 BKN046 OVC085 M01/M02 A2985 RMK AO2 T10061022 TSNO
