2015/12/18 10:58
KBKF 181058Z 18011KT 10SM FEW200 M06/M15 A2992 RMK AO2A SLP185 T10631151
