2015/12/18 10:53
KBKL 181053Z 21012G19KT 10SM OVC035 01/M07 A2990 RMK AO2 SLP129 T00111072
