2015/12/18 11:15
KBKN 181115Z AUTO 25005KT 10SM CLR M06/M07 A3031 RMK AO2
