2015/12/18 11:15
KBKT 181115Z AUTO 02006KT 10SM OVC007 11/11 A2977 RMK AO1 T01100106
