2015/12/18 11:19
KBKV 181119Z AUTO 21005KT 10SM BKN007 BKN041 OVC100 23/22 A2994 RMK AO2 RAE13 P0000 T02280217
