2015/12/18 11:05
KBKW 181105Z AUTO 33009KT 10SM BKN007 OVC015 00/M01 A2986 RMK AO2 T00001011
