2015/12/18 10:56
KBKX 181056Z AUTO 26008KT 10SM FEW018 OVC025 M08/M10 A2986 RMK AO2 SNE02 SLP152 P0000 T10781100 FZRANO
