2015/12/18 11:12
KBLF 181112Z AUTO 30005KT 10SM BKN013 OVC022 02/M01 A2984 RMK AO2 T00221006 $
