2015/12/18 10:52
KBLH 181052Z AUTO 00000KT 10SM CLR 02/M11 A3019 RMK AO2 SLP222 T00221106
