2015/12/18 10:53
KBLI 181053Z AUTO 33007KT 6SM RA BR FEW006 OVC016 03/02 A2947 RMK AO2 SLP987 P0013 T00280017
