2008/11/04 15:56
KBLK 041556Z AUTO 23015G22KT 10SM CLR 18/07 A3006 RMK AO2 SLP102 T01780072 
