2015/12/18 11:15
KBLM 181115Z AUTO 28004KT 10SM BKN065 OVC070 11/07 A2973 RMK AO1
