2015/12/18 10:52
KBLU 181052Z AUTO 13006KT 10SM CLR 02/M04 A3010 RMK AO2 SLP189 T00221039 
