2015/12/18 10:58
KBLV 181058Z AUTO 28007KT 10SM CLR M02/M06 A3011 RMK AO2 SLP204 T10161057 $
