2015/12/18 11:15
KBMC 181115Z AUTO 35004KT 10SM OVC034 M02/M06 A3017 RMK AO1 T10181063
