2015/12/18 10:53
KBMG 181053Z AUTO 26004KT 10SM OVC036 M01/M06 A3002 RMK AO2 SLP171 T10061056
