2015/12/18 10:56
KBMI 181056Z AUTO 26009KT 10SM FEW024 SCT080 BKN095 M03/M05 A3000 RMK AO2 T10331050 BKN V SCT SLP177
