2015/12/18 11:23
KBML 181123Z AUTO VRB05KT 10SM SCT009 OVC013 06/03 A2965 RMK AO2 RAE1056 P0000 T00560033
