2015/12/18 11:15
KBMT 181115Z AUTO 32008KT 10SM CLR 05/02 A3024 RMK AO2 T00500017
