2015/12/18 10:53
KBNA 181053Z 31006KT 10SM OVC026 01/M04 A3010 RMK AO2 SLP194 T00111044
