2015/12/18 11:15
KBNL 181115Z AUTO 30009G15KT 020V030 10SM FEW007 BKN012 OVC060 14/14 A2986 RMK AO2
