2015/12/18 10:53
KBNO 181053Z AUTO 09006KT 10SM BKN100 02/M01 A2986 RMK AO2 SLP128 T00221006
