2015/12/18 10:53
KBOI 181053Z 12015KT 10SM FEW070 OVC095 03/M01 A2997 RMK AO2 SLP162 T00281006
