2015/12/15 17:56
KBOK 151756Z AUTO 30004KT 10SM CLR 08/00 A3034 RMK AO2 SLP293 6//// T00780000 10078 20017 53003 $
