2015/12/18 10:54
KBOS 181054Z 28005KT 7SM FEW003 BKN100 OVC230 09/08 A2966 RMK AO2 SLP044 T00890083 $
