2015/12/18 11:15
KBPG 181115Z AUTO 00000KT 10SM CLR M05/M07 A3030 RMK AO2 T10471066
