2015/12/18 10:53
KBPI 181053Z AUTO 00000KT 10SM OVC044 M17/M19 A3005 RMK AO2 SLP247 T11671189
