2015/12/18 10:53
KBPK 181053Z AUTO 33006KT 10SM OVC028 00/M06 A3020 RMK AO2 SLP231 T00001056
