2015/12/18 10:53
KBPT 181053Z AUTO 31009KT 10SM CLR 06/02 A3021 RMK AO2 SLP231 T00610022
