2009/10/28 10:53
KBQE 281053Z AUTO 20004KT 1pSM FE`28 OVC037 M02/M04 A2943 RMK AO2 SNE40 SLP91M‚Á000 T10221044 FZRANO TSNO 
