2015/12/18 11:15
KBQK 181115Z AUTO 26011G17KT 7SM BKN008 BKN011 OVC017 17/16 A2988 RMK AO1
