2015/12/18 11:15
KBQX 181115Z AUTO 01026KT 10SM CLR 12/03 A3025 RMK A01
