2015/12/18 10:53
KBRD 181053Z AUTO 28010G19KT 7SM OVC030 M10/M14 A2980 RMK AO2 SNE33 SLP115 P0000 T11001144
