2015/12/18 10:53
KBRL 181053Z AUTO 29009KT 10SM CLR M04/M11 A3006 RMK AO2 SLP188 T10441106
