2015/12/18 10:53
KBRO 181053Z 33005KT 10SM CLR 11/06 A3024 RMK AO2 SLP239 T01060061
