2015/12/18 11:15
KBTA 181115Z AUTO 21010KT 10SM CLR M06/M09 A3001 RMK AO2 T10621091
