2015/12/18 11:15
KBTP 181115Z AUTO 26006KT 10SM OVC032 M01/M04 A2990 RMK AO1
