2015/12/18 10:53
KBTR 181053Z AUTO 00000KT 10SM CLR 04/02 A3018 RMK AO2 SLP219 T00390017 TSNO
