2015/12/18 10:54
KBTV 181054Z 04003KT 10SM OVC049 06/M01 A2975 RMK AO2 SLP075 T00561006
