2015/12/18 10:54
KBUF 181054Z 30009KT 10SM OVC043 01/M05 A2983 RMK AO2 SLP108 T00061050
