2015/12/18 10:53
KBUR 181053Z 00000KT 10SM CLR 07/M02 A3011 RMK AO2 SLP189 T00721022
