2015/12/18 11:15
KBUU 181115Z AUTO 25009KT 10SM OVC037 M05/M10 A2988 RMK AO2 T10551105
