2015/12/18 10:51
KBVE 181051Z AUTO 34012KT 10SM CLR 11/04 A3016 RMK AO2 SLP212 T01110044 
