2015/12/18 01:47
KBVI 180147Z 28004KT 10SM OVC029 01/M02 A2986 RMK LAST
