2015/12/18 11:15
KBVN 181115Z AUTO 32007KT 10SM CLR M09/M13 A3001 RMK AO2 T10951135
