2015/12/18 10:53
KBVO 181053Z AUTO VRB03KT 10SM CLR M05/M08 A3031 RMK AO2 SLP266 T10501078 TSNO
