2015/12/18 11:15
KBVS 181115Z AUTO 12004KT 8SM FEW005 BKN010 OVC017 06/05 A2945 RMK A01
