2015/12/18 11:15
KBVX 181115Z AUTO 28005KT 10SM OVC034 03/M04 A3021 RMK AO1
