2015/12/18 10:53
KBVY 181053Z AUTO 28005KT 10SM FEW100 07/06 A2965 RMK AO2 SLP037 T00720061
