2015/12/18 10:53
KBWG 181053Z AUTO 29004KT 10SM OVC032 02/M04 A3008 RMK AO2 SLP189 T00171039
