2015/12/18 10:54
KBWI 181054Z 31009KT 10SM OVC048 08/02 A2981 RMK AO2 SLP094 T00780022
