2015/12/18 11:15
KBWP 181115Z AUTO 00000KT 10SM OVC036 M13/M15 A2987 RMK AO1
