2015/12/18 10:53
KBYG 181053Z AUTO 36005KT 10SM CLR M10/M20 A2983 RMK AO2 SLP161 T11001200 $
