2015/12/17 20:50
KBYH 172050Z 36004KT 10SM SKC 07/M01 A2998
