2015/12/18 11:25
KBYI 181125Z AUTO 20014KT 10SM SCT025 OVC031 03/M01 A3001 RMK AO2 RAE18 P0000 T00281011
