2015/12/18 10:56
KBYS 181056Z AUTO 03004KT 10SM CLR 03/M13 A3017 RMK AO2 SLPNO T00321135
