2015/12/18 10:56
KBZN 181056Z AUTO 00000KT 10SM OVC065 M09/M11 A2985 RMK AO2 SLP180 T10891111
