2015/12/18 11:15
KC09 181115Z AUTO 26008KT 10SM OVC036 M03/M06 A2993 RMK AO2 T10301065
