2015/12/18 11:15
KC29 181115Z AUTO 28008KT 10SM BKN026 OVC031 M04/M08 A2986 RMK AO1 T10361081
