2015/12/18 11:15
KC35 181115Z AUTO 26010KT 10SM OVC033 M06/M13 A2987 RMK AO2 T10651126
