2015/12/18 11:15
KC75 181115Z AUTO 27011G17KT 10SM CLR M03/M08 A3000 RMK AO2 T10351085
