2015/12/18 11:15
KCAD 181115Z AUTO 23010G19KT 10SM OVC040 M03/M09 A2974 RMK AO2 T10311095
