2015/12/18 10:56
KCAE 181056Z 26013KT 10SM SCT080 14/11 A2981 RMK AO2 SLP093 T01440106
