2015/12/18 10:53
KCAG 181053Z AUTO 09008KT 10SM OVC044 M08/M14 A3020 RMK AO2 SLP297 T10831144
