2015/12/18 10:51
KCAK 181051Z 26005KT 10SM OVC024 M01/M07 A2990 RMK AO2 SLP135 T10061067
