2015/12/18 10:55
KCAO 181055Z AUTO 24008KT 10SM CLR M07/M11 A3007 RMK AO2 SLP213 T10721106
