2015/12/18 10:54
KCAR 181054Z AUTO 01005KT 3/4SM BR VV008 02/01 A2960 RMK AO2 RAE07 SLP033 P0000 T00170006
