2015/12/18 11:15
KCAV 181115Z AUTO 22008KT 10SM SCT060 M07/M11 A2995 RMK AO2
