2015/12/18 11:25
KCBE 181125Z AUTO 29005KT 10SM OVC034 05/M02 A2991 RMK AO1
