2015/12/18 11:15
KCBF 181115Z AUTO 22008KT 10SM CLR M06/M09 A3005 RMK AO2
