2015/12/18 10:58
KCBM 181058Z AUTO 30005KT 10SM CLR 00/M01 A3016 RMK AO2 SLP217
