2015/12/18 11:15
KCCA 181115Z AUTO 29004KT 10SM BKN031 03/M03 A3024 RMK AO2
