2015/12/18 11:15
KCCO 181115Z AUTO 31004KT 10SM CLR 05/04 A3000 RMK AO2 T00470041
