2015/12/18 10:53
KCCR 181053Z AUTO 17005KT 10SM CLR 06/03 A3014 RMK AO2 SLP191 T00610033
