2015/12/18 06:03
KCCU 180603Z AUTO 26017G28KT 10SM OVC023 M14/M19 A2999 RMK AO2
