2015/12/18 11:15
KCCY 181115Z AUTO 26009KT 10SM SCT025 SCT030 BKN041 M08/M12 A2994 RMK AO2
