2015/12/18 10:41
KCDD 181041Z AUTO 26004KT 4SM SCT021 SCT027 OVC046 M12/M14 A2971 RMK AO2
