2015/12/18 10:52
KCDJ 181052Z AUTO 24003KT M04/M09 A3015 RMK AO1 SLP226 T10441089 
