2015/12/18 10:53
KCDR 181053Z AUTO 00000KT 10SM CLR M21/M23 A2995 RMK AO2 SLP223 T12111233
