2015/12/18 10:53
KCDS 181053Z AUTO 00000KT 10SM CLR M04/M06 A3028 RMK AO2 SLP264 T10391061
