2015/12/18 10:53
KCDW 181053Z AUTO 32008KT 10SM BKN032 OVC070 08/04 A2976 RMK AO2 SLP082 T00830039 TSNO
