2015/12/18 11:25
KCEC 181125Z AUTO 20008KT 2 1/2SM RA BR FEW007 BKN028 OVC033 11/11 A2990 RMK AO2 P0010 T01110106
