2015/12/18 11:00
KCEF 181100Z AUTO 31007KT 4SM BR FEW001 OVC017 07/06 A2970 RMK AO2 OVC V BKN CIG 012 RWY05
