2015/12/18 10:54
KCEU 181054Z AUTO 25009KT 10SM CLR 08/04 A2984 RMK AO2 SLP101 T00780039
