2015/12/18 10:53
KCEW 181053Z AUTO 32010KT 10SM CLR 06/03 A3008 RMK AO2 SLP185 T00610028
