2015/12/18 11:15
KCEY 181115Z AUTO 28006KT 10SM OVC033 00/M02 A3012 RMK AO1 
