2015/12/18 10:53
KCEZ 181053Z AUTO 08003KT 10SM CLR M14/M17 A3027 RMK AO2 SLP288 T11391172
