2015/12/18 11:15
KCFD 181115Z AUTO 35005KT 10SM CLR 02/00 A3031 RMK AO2 T00231002
