2015/12/18 11:14
KCFE 181114Z AUTO 24006KT 10SM OVC032 M09/M13 A2989 RMK AO2 T10901127
