2015/12/08 21:15
KCFJ 082115Z AUTO 18007KT 10SM CLR 11/04 A2990 RMK AO2 T01060035
