2015/12/18 10:52
KCFV 181052Z AUTO 26005KT 10SM CLR M04/M07 A3027 RMK AO2 SLP258 T10441072
