2015/12/18 11:22
KCGE 181122Z AUTO 33008KT 10SM OVC043 10/06 A2978 RMK AO1
