2015/12/18 03:45
KCGF 180345Z 25012KT 20SM BKN025 OVC040 02/M03 A2989
