2015/12/18 10:53
KCGI 181053Z AUTO 29008KT 10SM OVC040 01/M04 A3014 RMK AO2 SLP209 T00111039
