2015/12/18 11:20
KCGS 181120Z AUTO 34005KT 10SM OVC047 08/01 A2982 RMK AO1
