2015/12/18 10:53
KCHA 181053Z 34003KT 10SM BKN023 02/M01 A3004 RMK AO2 SLP172 FIRST T00221011 $
