2015/12/18 03:47
KCHD 180347Z 00000KT 10SM SKC 07/M01 A3018 RMK LAST 
