2015/12/18 11:15
KCHK 181115Z AUTO 30003KT 7SM CLR M04/M05 A3030 RMK AO2
