2015/12/18 10:53
KCHO 181053Z 04004KT 10SM OVC049 08/07 A2979 RMK AO2 SLP086 T00830067
