2015/12/18 10:56
KCHS 181056Z 24010KT 10SM -RA SCT008 OVC060 19/18 A2979 RMK AO2 SLP088 P0008 T01940178
