2015/12/18 11:15
KCIC 181115Z AUTO 14012G15KT 10SM OVC023 09/02 A3013 RMK AO1 
