2015/12/18 10:52
KCID 181052Z 28013KT 10SM CLR M07/M11 A3000 RMK AO2 SLP170 T10671106
