2015/12/18 11:15
KCIR 181115Z AUTO 29007KT 10SM OVC033 01/M02 A3015 RMK AO2 T00111021
