2015/12/18 11:15
KCIU 181115Z 00000KT 10SM FEW055 OVC085 M04/M04 A2966 RMK AO1
