2015/12/18 11:15
KCJR 181115Z AUTO 36008KT 10SM OVC050 06/01 A2983 RMK AO2 T00590010
