2015/12/18 11:01
KCKB 181101Z 28005KT 10SM OVC014 01/M02 A2991 RMK AO2 T00061022
