2015/12/18 11:14
KCKC 181114Z AUTO 25006KT 10SM OVC040 M13/M17 A2958 RMK AO2
