2015/12/18 11:15
KCKF 181115Z AUTO 30004KT 10SM CLR 11/09 A3000 RMK AO2 T01060085
