2015/12/18 11:15
KCKI 181115Z AUTO 27011G18KT 10SM DZ BKN008 OVC014 17/16 A2979 RMK AO2
