2015/10/10 10:15
KCKM 101015Z AUTO 36010KT 10SM 15/14 A3015 RMK AO1
