2015/12/18 11:15
KCKP 181115Z AUTO 23006KT 10SM BKN070 BKN080 OVC095 M06/M09 A2996 RMK AO2 T10601090
