2015/12/18 10:51
KCLE 181051Z 23007KT 10SM OVC033 00/M07 A2992 RMK AO2 SLP141 T00001072 $
