2015/12/18 11:15
KCLI 181115Z AUTO 28010KT 10SM BKN043 M04/M13 A2980 RMK AO2
