2015/12/18 11:15
KCLK 181115Z AUTO 00000KT 7SM CLR M06/M07 A3030 RMK AO2
