2015/12/18 10:53
KCLL 181053Z AUTO 34008KT 10SM CLR 03/M01 A3030 RMK AO2 SLP258 T00331006
