2015/12/18 11:08
KCLM 181108Z AUTO 29007KT 7SM -RA FEW005 BKN048 OVC075 06/05 A2944 RMK AO2 P0000 T00610050
