2015/12/18 11:15
KCLS 181115Z AUTO 20006KT 10SM FEW045 SCT070 BKN095 08/08 A2955 RMK AO2
