2015/12/18 11:00
KCLT 181100Z 27003KT 5SM BR SCT004 BKN010 13/12 A2977 RMK AO2
