2015/12/18 11:15
KCLW 181115Z AUTO 20004KT 10SM -DZ SCT060 BKN080 BKN095 22/22 A2993 RMK AO2
