2015/12/18 10:55
KCMA 181055Z 05007KT 10SM CLR 10/M03 A3011 RMK AO2 SLP203 T01001033
