2015/12/18 10:51
KCMH 181051Z 27010KT 10SM OVC026 M01/M07 A2996 RMK AO2 SLP151 T10111067
