2015/12/18 10:53
KCMI 181053Z AUTO 25006KT 10SM CLR M04/M07 A3001 RMK AO2 SLP172 T10441067
