2015/12/18 11:19
KCMX 181119Z AUTO 29020G27KT 2SM -SN SCT027 OVC032 M07/M10 A2962 RMK AO2 PK WND 30028/1104 P0000 T10671100 TSNO
