2015/12/18 11:15
KCMY 181115Z AUTO 27006KT 10SM OVC034 M06/M12 A2988 RMK AO2 T10651122
