2015/12/18 11:14
KCNB 181114Z AUTO 26009KT 10SM OVC050 M06/M08 A2988 RMK AO2 T10571077
