2015/12/18 11:15
KCNC 181115Z AUTO 23007KT 10SM FEW065 FEW075 SCT085 M07/M10 A3005 RMK AO2
