2015/12/18 11:15
KCNI 181115Z AUTO 30009KT 10SM CLR 02/M01 A2996 RMK AO2
