2015/12/18 10:55
KCNK 181055Z AUTO 24011KT 10SM CLR M07/M10 A3015 RMK AO2 SLP226 T10721100
