2015/12/18 10:53
KCNM 181053Z AUTO 18007KT 10SM CLR M04/M12 A3022 RMK AO2 SLP226 T10391117
