2015/12/18 10:53
KCNO 181053Z AUTO 03003KT 9SM CLR 06/M03 A3013 RMK AO2 SLP201 T00611028
