2015/12/18 10:52
KCNU 181052Z AUTO 26004KT 10SM CLR M06/M08 A3024 RMK AO2 SLP248 T10611083
