2015/12/18 04:55
KCNW 180455Z 31011KT 10SM SKC 06/M01 A3026
