2015/12/18 10:53
KCNY 181053Z AUTO 00000KT 10SM FEW065 M07/M11 A3027 RMK AO2 SLP289 T10671111
