2015/12/18 11:15
KCOD 181115Z AUTO 05005KT 10SM BKN120 M11/M13 A2981 RMK AO1
