2015/12/18 11:15
KCOE 181115Z AUTO 03011KT 3SM SCT012 BKN021 OVC028 M03/M05 A2970 RMK AO1
