2015/12/18 10:58
KCOF 181058Z AUTO 19010KT 10SM CLR 23/22 A2992 RMK AO2 SLP136 T02310224 TSNO $
