2015/12/18 11:14
KCON 181114Z AUTO 00000KT 3SM BR BKN037 03/03 A2966 RMK AO2 T00330028
