2015/12/18 11:15
KCOQ 181115Z AUTO 27012G20KT 7SM SCT019 OVC028 M11/M16 A2975 RMK AO2
