2015/12/18 10:54
KCOS 181054Z 33004KT 8SM FEW120 BKN240 M11/M14 A2996 RMK AO2 SLP220 I1000 T11111139
