2015/12/18 10:53
KCOT 181053Z AUTO 04006KT CLR 06/M03 A3030 RMK AO2 SLP256 T00611028 $
