2015/12/18 10:54
KCOU 181054Z AUTO 30011KT 10SM CLR M03/M08 A3015 RMK AO2 SLP219 T10281078 TSNO
