2015/12/18 11:15
KCPC 181115Z AUTO 21004KT 10SM -DZ SCT010 SCT023 BKN100 20/19 A2974 RMK AO2 T01970185
