2015/12/18 10:53
KCPR 181053Z AUTO 23018KT 10SM CLR M06/M11 A2989 RMK AO2 SLP174 T10611111
