2015/12/18 10:53
KCPS 181053Z AUTO 28007KT 10SM CLR 00/M06 A3013 RMK AO2 SLP206 T00001056
