2015/12/18 11:15
KCPT 181115Z AUTO 29004KT 8SM CLR M02/M01 A3033 RMK AO2
