2015/12/18 10:53
KCQC 181053Z AUTO 27019KT 10SM CLR M08/M15 A3012 RMK AO2 SLP238 T10831150 
