2015/12/18 10:47
KCQT 181047Z AUTO 00000KT 10SM CLR 10/00 A3011 RMK AO2 SLP194 T01000000 
