2015/12/18 11:15
KCQW 181115Z AUTO 24004KT 10SM FEW040 BKN050 BKN090 14/14 A2977 RMK AO2
