2015/12/18 10:52
KCQX 181052Z AUTO 29005KT 3/4SM BR VV002 11/11 A2969 RMK AO2 PRESRR SLP054 T01060106 $
