2015/12/18 10:53
KCRE 181053Z AUTO 21007KT 10SM FEW055 BKN070 OVC100 20/19 A2975 RMK AO1 RAE01B19E28 SLP074 P0000 T02000189
