2015/12/18 11:09
KCRG 181109Z 22007KT 10SM SCT009 OVC090 22/21 A2987 RMK AO2 RAE03 P0000 T02220211
