2015/12/18 10:53
KCRS 181053Z AUTO 34005KT 10SM CLR 02/M01 A3032 RMK AO2 SLP266 T00221011
