2015/12/18 10:54
KCRW 181054Z 27005KT 10SM OVC015 01/M03 A2995 RMK AO2 SLP148 T00061033
