2015/12/18 10:51
KCSG 181051Z AUTO 32005KT 10SM CLR 07/04 A3000 RMK AO2 SLP158 T00670044
