2015/12/18 11:15
KCSQ 181115Z AUTO 24009KT 10SM BKN090 M06/M09 A3006 RMK AO2
