2015/12/18 10:53
KCSV 181053Z AUTO 29007KT 10SM OVC008 M01/M03 A2999 RMK AO2 SLP164 T10111033
