2015/12/18 11:25
KCTB 181125Z AUTO 09005KT 1 1/2SM -SN BR OVC022 M11/M13 A2976 RMK AO2 SNB1057 P0000 T11111128
