2015/12/18 10:53
KCTY 181053Z AUTO 29009KT 22/21 A2990 RMK AO1 SLP126 P0001 T02170206 
