2015/12/18 10:53
KCUB 181053Z AUTO 27008KT 10SM BKN085 15/12 A2982 RMK AO2 RAE0959 SLP096 P0000 T01500122 TSNO
