2015/12/18 11:15
KCUH 181115Z AUTO 28005KT M04/M04 A3030 RMK AO2 PWINO
