2015/12/18 10:53
KCUT 181053Z AUTO 26013KT 10SM CLR M08/M23 A2978 RMK AO2 SLP149 T10831228
