2015/12/18 11:15
KCVB 181115Z AUTO 00000KT 10SM CLR 01/M03 A3032 RMK AO2 T00051032
