2015/12/18 11:15
KCVC 181115Z AUTO 30009KT 10SM CLR 06/02 A2994 RMK AO2
