2015/12/18 10:52
KCVG 181052Z 29009KT 10SM OVC026 M01/M06 A2999 RMK AO2 SLP161 T10061061
