2015/12/18 11:10
KCVH 181110Z AUTO 00000KT 10SM CLR 02/02 A3017 RMK AO1
