2015/12/18 11:15
KCVN 181115Z AUTO 21009KT 10SM CLR M06/M11 A3016 RMK AO1
