2015/12/18 11:15
KCVO 181115Z 21009KT 9SM FEW026 BKN048 OVC070 11/09 A2971 RMK AO1
