2015/12/18 10:58
KCVS 181058Z AUTO 24007KT 10SM CLR M04/M09 A3015 RMK AO2 SLP220 T10421086 $
