2015/12/18 11:15
KCVW 181115Z AUTO 33005KT 10SM CLR 08/04 A3024 RMK A01
