2015/12/18 11:15
KCVX 181115Z AUTO 26017G23KT 10SM -SN SCT029 BKN035 OVC060 M01/M06 A2974 RMK AO2 T10111065
