2015/12/18 10:15
KCWA 181015Z AUTO 26016G20KT 7SM -SN SCT018 SCT023 OVC035 M07/M10 A2978 RMK AO2
