2015/12/18 10:15
KCWF 181015Z AUTO 32007KT 10SM CLR 06/02 A3018 RMK AO2 T00620026
