2015/12/18 10:56
KCWN 181056Z AUTO 12003KT 10SM CLR M03/M16 A2987 RMK AO2 SLP072 T10341156
