2015/12/18 11:15
KCWV 181115Z AUTO 27012G17KT 10SM SCT011 BKN016 OVC070 16/15 A2989 RMK AO2 T01630145
