2015/12/18 10:56
KCXY 181056Z AUTO 30011KT 10SM BKN031 OVC090 04/M03 A2984 RMK AO2 SLP106 T00441028
