2015/12/18 10:53
KCYS 181053Z AUTO 16007KT 10SM CLR M04/M11 A2988 RMK AO2 SLP181 T10391111
