2015/12/18 11:15
KCZL 181115Z AUTO 33005KT 10SM CLR 03/M01 A3002 RMK AO2 T00301007
