2015/12/18 10:52
KCZZ 181052Z AUTO 01006KT 03/M09 A3009 RMK AO1 SLP181 T00281094 
