2015/12/18 10:56
KD07 181056Z AUTO 30010KT M16/M19 A2991 RMK AO1 SLP186 T11561194 
