2015/12/18 11:15
KD25 181115Z AUTO 27010KT 10SM -SN OVC017 M10/M12 A2970 RMK AO2 T10971125
