2015/12/18 11:13
KD39 181113Z AUTO 22006KT 10SM -SN OVC028 M11/M13 A2983 RMK AO2 T11101131
