2015/12/18 11:15
KD50 181115Z AUTO 33017KT 8SM OVC022 M14/M17 A2997 RMK AO2 
