2015/12/18 11:15
KD55 181115Z AUTO 30015KT 9SM CLR M17/M20 A2981 RMK AO2
