2015/12/18 11:15
KD57 181115Z AUTO 31015G21KT 5SM -SN SCT009 SCT015 OVC021 M12/M15 A2991 RMK AO2
