2015/12/18 11:15
KD60 181115Z AUTO 32016G22KT 10SM OVC019 M14/M16 A2997 RMK AO2 
