2015/12/18 11:13
KD95 181113Z AUTO 24006KT 10SM OVC036 00/M05 A2982 RMK AO2 T00001049
