2015/12/18 10:53
KDAB 181053Z 20008KT 10SM FEW016 BKN100 OVC120 23/21 A2991 RMK AO2 RAE48 SLP127 P0000 T02280211
