2015/12/18 10:50
KDAG 181050Z AUTO 30004KT CLR M01/M10 A3020 RMK AO2 SLP229 T10111100 $
