2015/12/18 10:53
KDAL 181053Z 35007KT 10SM FEW015 01/M02 A3032 RMK AO2 SLP265 T00111022
