2015/12/18 10:53
KDAN 181053Z AUTO 36003KT 10SM OVC032 11/08 A2979 RMK AO2 SLP080 T01110083
