2015/12/18 10:59
KDAW 181059Z AUTO 00000KT 8SM SCT001 BKN095 06/05 A2964 RMK AO2 T00610050
