2015/12/18 10:56
KDAY 181056Z 26007KT 10SM OVC026 M02/M07 A2997 RMK AO2 SLP158 T10171067
