2015/12/18 11:15
KDBN 181115Z AUTO 31008KT 10SM CLR 09/07 A2997 RMK AO2
