2015/12/18 10:52
KDCA 181052Z 33014KT 10SM OVC044 08/02 A2983 RMK AO2 SLP102 T00830017
