2015/12/18 11:15
KDCM 181115Z AUTO 24003KT 5SM BR SCT006 SCT011 11/11 A2981 RMK AO2
