2015/12/18 10:53
KDCU 181053Z AUTO 31005KT 10SM CLR M01/M02 A3011 RMK AO2 SLP198 T10061017 $
