2015/12/18 11:15
KDCY 181115Z AUTO 27006KT 10SM OVC042 00/M04 A3006 RMK AO2 T00001042
