2015/12/18 10:52
KDDC 181052Z AUTO 24009KT 10SM CLR M09/M11 A3018 RMK AO2 SLP251 T10891111
