2015/12/18 10:54
KDDH 181054Z AUTO 24007KT 10SM BKN013 BKN019 OVC026 05/03 A2974 RMK AO2 SLP073 T00500028
