2015/12/18 10:54
KDEC 181054Z AUTO 28009KT 10SM CLR M02/M04 A3004 RMK AO2 SLP178 T10171044
