2015/12/18 11:15
KDEH 181115Z AUTO VRB06G13KT 10SM FEW033 OVC048 M08/M12 A2991 RMK AO2
