2015/12/18 10:53
KDEN 181053Z 23006KT 10SM FEW200 M10/M17 A2992 RMK AO2 SLP193 T11001172
