2015/12/18 11:26
KDEQ 181126Z AUTO 29004KT 10SM BKN021 01/M02 A3028 RMK AO2 T00111017 $
