2015/12/18 10:53
KDET 181053Z 28007KT 10SM OVC033 01/M07 A2987 RMK AO2 SLP122 T00061067
