2015/12/18 10:53
KDEW 181053Z AUTO 03008KT 1 1/2SM -SN BR OVC016 M03/M04 A2971 RMK AO2 SLP084 P0003 T10281039
