2015/12/18 10:53
KDFI 181053Z AUTO 22007KT 10SM CLR M01/M06 A2993 RMK AO2 SLP142 T10111061
