2015/12/18 10:53
KDFW 181053Z 35007KT 10SM FEW014 FEW080 01/M02 A3030 RMK AO2 SLP261 T00111022
