2015/12/18 10:53
KDHN 181053Z AUTO 31009KT 10SM CLR 07/06 A3006 RMK AO2 SLP177 T00670056
