2015/12/18 10:53
KDHT 181053Z AUTO 34004KT 10SM CLR M10/M13 A3014 RMK AO2 SLP231 T11001133
