2015/12/18 10:56
KDIK 181056Z AUTO 30018KT 10SM OVC013 M15/M17 A2989 RMK AO2 SLP170 T11501172
