2015/12/18 11:15
KDKB 181115Z AUTO 26015G18KT 10SM BKN029 OVC034 M03/M08 A2992 RMK AO2 T10321085
