2015/12/18 10:53
KDKK 181053Z AUTO 29007KT 10SM BKN033 OVC043 02/M04 A2985 RMK AO2 SLP114 T00171044
