2015/12/18 11:10
KDKR 181110Z AUTO 00000KT 10SM CLR 03/M01 A3032 RMK AO2
