2015/12/18 10:58
KDLF 181058Z AUTO 01008KT 10SM CLR 02/M04 A3030 RMK AO2 SLP259 T00161038 FZRANO $
