2015/12/18 11:11
KDLH 181111Z 27015KT 1 3/4SM -SN FEW018 OVC026 M11/M14 A2972 RMK AO2 P0000 T11061139
