2009/09/13 18:09
KDLK 131809Z AUTO 09008KT 10SM BKN010 OVC016 27/23 A2978 RMK AO2 CIG 007V013 
