2015/12/18 11:10
KDLL 181110Z AUTO 27013G18KT 10SM OVC032 M06/M13 A2986 RMK AO2 T10651131
