2015/12/18 10:53
KDLN 181053Z AUTO 13004KT 10SM OVC055 M08/M12 A2986 RMK AO2 SLP178 T10831117
