2015/12/03 16:10
KDLP 031610Z AUTO 02026KT 10SM CLR 13/06 A3025 RMK A01
