2015/12/18 10:53
KDLS 181053Z AUTO 08005KT 10SM OVC018 02/M01 A2973 RMK AO2 RAE41UPB41E44 SLP070 P0002 T00171011
