2015/12/18 11:27
KDLZ 181127Z AUTO 25004KT 10SM OVC029 M01/M07 A2995 RMK AO2
