2015/12/18 10:58
KDMA 181058Z AUTO 15007KT 10SM CLR 02/M05 A3014 RMK AO2 SLP201 T00231049
