2015/12/18 10:53
KDMN 181053Z AUTO 00000KT CLR M06/M11 A3025 RMK AO2 SLP240 T10611111 TSNO
