2015/12/18 10:53
KDMO 181053Z AUTO 27006KT 10SM CLR M03/M06 A3018 RMK AO2 SLP231 T10331056
