2015/12/18 11:25
KDMW 181125Z AUTO 33006KT 10SM OVC065 04/02 A2982 RMK AO2
