2013/05/02 14:53
KDNK 021453Z AUTO 01004KT 9SM -RA BKN009 BKN013 OVC030 19/17 A2999 RMK AO2 RAB53 CIG 007V011 SLP154 P0000 60000 T01890167 53015 
