2015/12/18 10:58
KDOV 181058Z AUTO 31010KT 10SM OVC048 10/10 A2976 RMK AO2 SLP081 T00950095 VISNO RWY19 CHINO RWY19 $
