2015/12/09 20:58
KDPG 092058Z 09002KT 10SM SCT200 BKN250 14/00 A2991 RMK T01390004 NOSPECI
