2015/12/18 11:15
KDPL 181115Z AUTO 23010G15KT 4SM -RA 19/18 A2977 RMK AO2 P0007 T01850181
