2015/12/18 11:15
KDRM 181115Z AUTO 29005KT 3/4SM SN OVC003 M03/M03 A2968 RMK AO2 P0005 T10281030
