2015/12/18 10:53
KDRO 181053Z AUTO 00000KT 10SM CLR M14/M17 A3024 RMK AO2 SLP313 T11391167 $
