2015/12/18 10:53
KDRT 181053Z AUTO 01004KT 10SM CLR 03/M04 A3031 RMK AO2 SLP257 T00331044
