2015/12/18 10:54
KDSM 181054Z 22006KT 10SM FEW085 M06/M10 A3003 RMK AO2 SLP180 T10611100
