2015/12/18 10:54
KDSV 181054Z AUTO 34003KT 10SM OVC035 02/M02 A2983 RMK AO2 SLP114 T00221017
