2015/12/18 11:15
KDTL 181115Z AUTO 31012KT 10SM BKN023 M11/M14 A2981 RMK AO2
