2015/12/18 10:53
KDTO 181053Z AUTO 34007KT 10SM CLR M02/M03 A3032 RMK AO2 SLP268 T10171033 $
