2015/12/18 10:53
KDTS 181053Z AUTO 34015KT 10SM CLR 09/02 A3007 RMK AO2 SLP182 T00940022 TSNO
