2015/12/18 10:53
KDTW 181053Z 23009KT 10SM OVC031 01/M07 A2988 RMK AO2 SLP125 T00061067
