2015/12/18 11:15
KDUA 181115Z AUTO 34004KT 10SM CLR 00/M02 A3032 RMK AO2
