2015/12/18 11:15
KDUB 181115Z AUTO 35024G34KT 10SM SCT026 BKN031 OVC041 M04/M08 A2984 RMK AO2
