2015/12/18 11:14
KDUH 181114Z AUTO 23004KT 10SM OVC035 M01/M05 A2991 RMK AO2 T10071050
