2015/12/18 10:53
KDUJ 181053Z AUTO 27009KT 10SM OVC012 M01/M04 A2982 RMK AO2 SLP109 T10111039
