2015/12/18 11:15
KDVK 181115Z AUTO 31006KT 10SM OVC019 00/M04 A3003 RMK AO2
