2015/12/18 11:17
KDVL 181117Z AUTO 33016KT 1 3/4SM -SN BR FEW018 OVC025 M13/M16 A2985 RMK AO2 VIS 3/4V2 1/2 P0000 FZRANO
