2015/12/18 10:52
KDVN 181052Z AUTO 29017KT 10SM CLR M06/M11 A3000 RMK AO2 PK WND 28032/0955 SLP169 T10561111
