2015/12/18 11:15
KDVO 181115Z AUTO 00000KT 10SM OVC023 07/07 A3014 RMK AO2
