2015/12/18 11:21
KDVP 181121Z AUTO 25012KT 10SM OVC085 M08/M09 A2987 RMK AO2 T10811095
