2015/12/18 10:53
KDVT 181053Z 03009KT 10SM CLR 04/M05 A3016 RMK AO2 SLP208 T00441050 $
