2015/12/18 10:53
KDWH 181053Z 33007KT 10SM CLR 06/00 A3028 RMK AO2 SLP250 T00560000
