2015/12/18 11:15
KDWX 181115Z AUTO 20011G22KT 10SM OVC036 M04/M11 A3016 RMK AO2 T10371111
