2015/12/18 10:53
KDXR 181053Z AUTO 04006KT 6SM -RA OVC011 08/06 A2974 RMK AO2 RAB13 SLP069 P0000 T00830056
