2015/12/18 11:14
KDXX 181114Z AUTO 27006KT 10SM BKN031 OVC050 M09/M11 A2988 RMK AO2
