2015/12/18 11:15
KDYB 181115Z AUTO 23006KT 10SM BKN010 OVC017 18/18 A2981 RMK AO1
