2015/12/18 10:54
KDYL 181054Z AUTO 32007G15KT 10SM OVC019 06/03 A2975 RMK AO2 SLP079 T00610033
