2015/12/18 11:15
KDYR 181115Z 27004KT 10SM OVC036 01/M02 A3018 RMK AO1
