2015/12/18 11:13
KDYT 181113Z AUTO 24017G21KT 10SM OVC038 M07/M12 A2979 RMK AO2
