2015/12/18 11:15
KE11 181115Z AUTO 17005KT 10SM CLR M04/M06 A3025 RMK AO2 T10421065
