2015/12/18 11:15
KE38 181115Z AUTO 22007KT 10SM CLR M01/M09 A3029 RMK AO2 T10081090
