2015/12/18 11:15
KE80 181115Z AUTO 29006KT 10SM CLR M07/M11 A3027 RMK AO2 T10731109
