2015/12/18 10:55
KEAT 181055Z AUTO 32004KT 4SM -SN BR OVC032 M02/M04 A2969 RMK AO2 SNB52 SLP066 P0000 T10221039
