2015/12/18 10:56
KEAU 181056Z AUTO 28010KT 10SM SCT033 OVC041 M08/M14 A2985 RMK AO2 SLP123 T10831144
