2015/12/18 11:15
KEBS 181115Z AUTO 22009KT 10SM SCT095 M07/M09 A2996 RMK AO2
