2015/12/18 11:06
KECG 181106Z AUTO 36009KT 7SM -RA OVC003 17/16 A2973 RMK AO2 CIG 002V007 P0001 T01670161
