2015/12/18 10:53
KECP 181053Z AUTO 31011KT 10SM CLR 09/04 A3003 RMK AO2 SLP180 T00890044
