2015/12/18 11:15
KECS 181115Z AUTO 36006KT 10SM CLR M14/M19 A2989 RMK AO2
