2015/12/18 11:15
KEDC 181115Z AUTO 36007KT 10SM CLR 02/M01 A3031 RMK AO2
