2015/12/18 11:05
KEDJ 181105Z AUTO 26005KT 10SM OVC025 M02/M07 A2994 RMK AO1
