2015/12/18 11:15
KEDN 181115Z AUTO 33005KT 10SM CLR 05/02 A3005 RMK AO2
