2015/12/18 11:20
KEDU 181120Z AUTO 21003KT 7SM OVC028 05/02 A3015 RMK AO1
