2015/12/18 10:58
KEDW 181058Z AUTO 34003KT 10SM CLR M03/M15 A3018 RMK AO2 SLP229 T10351149 $
