2015/12/18 10:56
KEED 181056Z AUTO 26007KT 10SM CLR 04/M06 A3021 RMK AO2 SLP222 T00441056
