2015/12/18 10:53
KEEO 181053Z AUTO 00000KT 10SM OVC039 M06/M12 A3020 RMK AO2 SLP271 T10561117
