2015/12/18 10:53
KEET 181053Z AUTO 33007KT 10SM CLR 02/M01 A3008 RMK AO2 SLP186 T00221006
