2015/12/18 10:50
KEFD 181050Z 32007KT 10SM CLR 08/M01 A3026
