2015/12/18 11:15
KEFK 181115Z AUTO 29004KT 10SM BKN031 OVC039 03/00 A2972 RMK AO2 T00260003
