2015/12/18 11:15
KEFT 181115Z AUTO 27021G26KT 10SM OVC029 M04/M10 A2988 RMK AO2
