2015/12/18 05:50
KEGE 180550Z 06003KT 10SM SCT075 M14/M17 A3025
