2015/12/18 10:58
KEGI 181058Z AUTO 33008KT 10SM CLR 06/03 A3006 RMK AO2 SLP182 T00620025 $
