2015/12/18 11:15
KEHO 181115Z AUTO 29004KT 5SM BR CLR 08/08 A2981 RMK AO2 T00830083
