2015/12/18 11:15
KEHR 181115Z AUTO 27009KT 10SM SCT030 OVC036 01/M04 A3009 RMK AO1
