2015/12/18 11:14
KEIK 181114Z AUTO 02005KT 10SM CLR M15/M17 A2992 RMK AO2 T11501167
