2015/12/18 01:50
KEKM 180150Z 24006KT 10SM OVC038 00/M05 A2994
