2015/12/18 11:21
KEKN 181121Z AUTO 33006KT 10SM BKN009 OVC013 01/M02 A2987 RMK AO2 CIG 006V010 T00061017 TSNO
