2015/12/18 10:56
KEKO 181056Z AUTO 27009KT 10SM CLR 00/M02 A3008 RMK AO2 SLP205 T00001017
