2015/11/30 14:18
KEKQ 301418Z AUTO 36003KT 3SM BR BKN005 12/12 A3006 RMK AO2
