2015/12/18 11:15
KEKS 181115Z AUTO 19028G34KT 9SM BKN025 OVC041 M04/M08 A2987 RMK A01
