2015/12/18 10:53
KELD 181053Z AUTO 32007KT 10SM CLR 02/M01 A3024 RMK AO2 SLP241 T00171011
