2015/12/18 11:15
KELK 181115Z AUTO 27004KT 10SM CLR M04/M05 A3027 RMK AO2 T10381051
