2015/12/18 10:53
KELM 181053Z 30007KT 10SM OVC032 03/M01 A2980 RMK AO2 SLP096 T00331006
