2015/12/18 10:53
KELN 181053Z AUTO 00000KT -SN FEW002 SCT017 OVC029 M03/M06 A2964 RMK AO2 SNB24 SLP056 P0000 T10331056 $
