2015/12/18 11:13
KELO 181113Z AUTO 27004KT 1 1/4SM -SN BKN004 OVC018 M12/M13 A2967 RMK AO2
