2015/12/18 10:51
KELP 181051Z 00000KT 10SM CLR M03/M09 A3023 RMK AO2 SLP228 T10281094
