2015/12/18 10:53
KELY 181053Z AUTO 16008KT 10SM CLR M06/M09 A3017 RMK AO2 SLP232 T10611089
