2015/12/18 10:56
KELZ 181056Z AUTO 30005KT 8SM -SN OVC017 00/M03 A2979 RMK AO2 UPB44E45SNB43E44B45 SLP102 P0000 T00001033
