2015/12/18 11:15
KEMK 181115Z AUTO 35023KT 10SM CLR 19/04 A3019 RMK A01
