2015/12/14 17:55
KEMM 141755Z AUTO 22004KT 1 1/2SM -SN OVC011 M03/M05 A2944 RMK AO2
