2015/12/18 02:47
KEMT 180247Z 00000KT 10SM CLR 12/M01 A3013
