2015/12/18 11:15
KEMV 181115Z AUTO 33003KT OVC005 12/12 A2977 RMK AO2 P0001 PWINO
