2015/12/18 10:58
KEND 181058Z AUTO 29005KT 10SM CLR M06/M07 A3026 RMK AO2 SLP264 T10621072 $
