2015/12/18 11:15
KENL 181115Z AUTO 27009KT 10SM CLR 00/M03 A3010 RMK AO2 T00001032
