2015/12/18 11:15
KENV 181115Z AUTO 27004KT 10SM BKN120 M03/M08 A3016 RMK AO1
