2015/12/18 10:53
KENW 181053Z AUTO 25012KT 10SM CLR M06/M11 A2989 RMK AO2 SLP131 T10561106
