2015/12/18 11:15
KEOE 181115Z AUTO 25011KT 10SM CLR 10/08 A2986 RMK AO2
