2015/12/18 11:15
KEOK 181115Z AUTO 27007G12KT 10SM CLR M04/M08 A3009 RMK AO2
