2015/12/18 10:53
KEPH 181053Z AUTO 34007KT 5SM UP BR OVC008 M01/M03 A2968 RMK AO2 UPB36 SLP062 P0000 T10111028
