2015/12/18 11:15
KEQA 181115Z AUTO 21005KT 10SM CLR M06/M07 A3022 RMK AO2
