2015/12/18 10:53
KEQY 181053Z AUTO 27004KT 5SM BR BKN005 13/13 A2976 RMK AO2 SLP085 T01330128
