2015/12/18 10:51
KERI 181051Z 27010KT 230V310 10SM OVC033 02/M06 A2986 RMK AO2 SLP118 T00221056
