2015/12/18 11:15
KERV 181115Z AUTO 00000KT 10SM CLR 00/M03 A3029 RMK AO2 T10041032
