2015/12/18 11:15
KERY 181115Z AUTO 27009KT 10SM SCT030 OVC036 M04/M08 A2966 RMK AO2 T10361083
