2015/12/18 11:15
KESC 181115Z AUTO 26008KT 10SM FEW049 M05/M13 A2973 RMK AO1
