2015/12/18 10:53
KESF 181053Z AUTO 00000KT 10SM CLR 01/M01 A3019 RMK AO2 SLP223 T00111006
