2015/12/18 10:58
KESN 181058Z AUTO 35007KT 10SM OVC045 11/08 A2982 RMK AO2 T01050078
