2015/12/18 10:52
KEST 181052Z AUTO 20009KT 10SM FEW060 M09/M11 A2991 RMK AO2 SLP148 T10891111
