2015/12/18 11:10
KETB 181110Z AUTO 24012G16KT 10SM SCT029 OVC037 M04/M10 A2983 RMK AO2
