2015/12/18 11:15
KETC 181115Z AUTO 00000KT 2SM +RA BKN005 BKN011 OVC019 15/15 A2976 RMK AO2 P0015 T01520146
