2015/12/18 11:15
KETH 181115Z AUTO 29006KT 10SM OVC030 M09/M12 A2990 RMK AO2
