2015/12/18 10:58
KEUF 181058Z AUTO 29005KT 10SM FEW008 08/07 A3002 RMK AO2 SLP162 I1000 T00780067 $ 
