2015/12/18 10:54
KEUG 181054Z AUTO 19015KT 9SM -RA OVC050 11/09 A2971 RMK AO2 SLP060 P0006 T01110089
