2015/12/18 10:56
KEUL 181056Z AUTO 13016G23KT 10SM OVC090 02/M01 A2997 RMK AO2 SLP167 T00221006 FZRANO
