2015/12/18 02:47
KEVB 180247Z 18006KT 10SM SCT035 24/21 A2993 RMK LAST 
