2015/12/18 11:12
KEVM 181112Z AUTO 25009KT 10SM OVC034 M11/M15 A2972 RMK AO2
