2015/12/18 10:53
KEVW 181053Z AUTO 22014KT 10SM BKN012 BKN017 OVC065 M04/M08 A3009 RMK AO2 SLP226 T10441083
