2015/12/18 10:53
KEWB 181053Z AUTO 21003KT 6SM BR OVC003 10/10 A2968 RMK AO2 SLP049 T01000100
