2015/12/18 11:15
KEWK 181115Z AUTO 23008KT 10SM CLR M07/M11 A3022 RMK AO1
