2015/12/18 10:54
KEWN 181054Z 18007KT 6SM RA BR OVC100 19/18 A2975 RMK AO2 SLP072 P0005 T01890183
