2015/12/18 10:51
KEWR 181051Z 32013KT 10SM FEW012 BKN018 BKN070 OVC220 11/07 A2974 RMK AO2 SLP069 T01060072 $
