2015/12/18 11:15
KEXX 181115Z AUTO 00000KT 4SM BR BKN005 BKN010 OVC023 12/12 A2976 RMK AO2 T01200117
