2015/12/18 10:53
KEYW 181053Z AUTO 18009KT 10SM FEW013 SCT019 26/25 A2996 RMK AO2 SLP143 T02610250
