2015/12/18 11:15
KEZF 181115Z AUTO 36008KT 10SM OVC035 08/03 A2981 RMK AO2 T00800028
