2015/12/18 11:15
KEZM 181115Z AUTO 29005KT 10SM CLR 11/09 A2999 RMK AO2 T01060094
