2015/12/18 11:15
KEZS 181115Z AUTO 26007KT 10SM BKN042 M05/M13 A2979 RMK AO2 T10461126
