2015/12/18 11:15
KF05 181115Z AUTO 23006KT 10SM M03/M05 A3033 RMK AO1 T10261052
