2015/12/18 11:15
KF17 181115Z AUTO 32005KT 10SM CLR 04/01 A3026 RMK AO2 T00370011
