2011/07/06 19:15
KF24 061915Z AUTO 00000KT 10SM CLR 36/22 A2999 RMK AO2 LTG DSNT N AND SE
