2015/12/18 11:15
KF44 181115Z AUTO 35003KT 10SM CLR 02/00 A3030 RMK AO2
