2015/12/18 11:15
KF46 181115Z AUTO 03006KT 10SM CLR 01/M01 A3030 RMK AO2 T00051010
