2015/12/18 11:15
KF70 181115Z AUTO 03003KT 10SM CLR 03/M06 A3013 RMK AO1
