2015/12/18 11:03
KFAF 181103Z VRB04KT 10SM SCT012 OVC024 12/12 A2974 RMK AO2A CIG 011V024 $
