2015/12/18 11:01
KFAM 181101Z AUTO 29008KT 10SM OVC041 M01/M06 A3013 RMK AO2 SLP233 T10061056 FZRANO
