2015/12/18 10:53
KFAR 181053Z AUTO 32012KT 10SM OVC031 M10/M15 A2985 RMK AO2 SLP127 T11001150 TSNO
