2015/12/18 10:53
KFAT 181053Z 13004KT 5SM BR SCT250 02/00 A3019 RMK AO2 SLP225 T00170000
