2015/12/18 11:22
KFAY 181122Z AUTO 29004KT 5SM -RA BR SCT006 OVC016 18/17 A2973 RMK AO2 P0004 T01780167
