2015/12/18 11:16
KFBG 181116Z AUTO 26002KT 10SM -RA BKN006 BKN020 OVC026 17/16 A2973 RMK AO2 CIG 006V025 BKN006 V SCT $
