2015/12/18 11:14
KFBL 181114Z AUTO 24007KT 10SM OVC032 M08/M13 A2990 RMK AO2
