2015/12/18 11:15
KFBR 181115Z AUTO 26017G24KT 10SM SCT025 SCT029 BKN036 M02/M04 A3009 RMK AO2 T10161038
