2007/11/30 20:56
KFCD 302056Z 28007KT 10SM CLR M07/M16 A3036 RMK AO2 SLP311 FEW ABV 120 T10721161 56027 
