2015/12/18 10:55
KFCI 181055Z AUTO 02008KT 10SM OVC013 11/04 A2978 RMK AO1
