2015/12/18 10:58
KFCS 181058Z AUTO 35006KT 10SM CLR M13/M15 A2996 RMK AO2 SLP239 T11311152 $
