2015/12/18 10:20
KFDK 181020Z AUTO 01007KT 10SM OVC065 06/02 A2986 RMK AO2
