2015/12/18 11:15
KFDW 181115Z AUTO 25006KT 10SM CLR 12/11 A2981 RMK AO1
