2015/12/18 10:53
KFDY 181053Z AUTO 25010KT 10SM OVC033 M01/M06 A2993 RMK AO2 SLP137 T10061061 TSNO
