2015/12/18 11:15
KFEP 181115Z AUTO 26014G21KT 10SM BKN037 M05/M09 A2994 RMK AO2 T10501091
