2015/12/17 22:58
KFEW 172258Z AUTO 33005G14KT 10SM CLR M09/M17 A2996 RMK AO2 SLP215 T10931170 $
