2015/12/18 11:15
KFFA 181115Z AUTO 00000KT 2 1/2SM RA SCT016 BKN047 OVC065 18/17 A2973 RMK AO2 P0001 T01780166
