2015/12/18 10:53
KFFC 181053Z AUTO 31008KT 10SM CLR 05/03 A2999 RMK AO2 SLP157 T00500028
