2015/12/18 11:14
KFFM 181114Z AUTO 31016KT 5SM -SN SCT020 OVC029 M11/M14 A2987 RMK AO2
