2015/12/18 10:58
KFFO 181058Z 24009KT 10SM OVC022 M01/M07 A2997 RMK AO2A SLP160 T10111068
