2015/12/18 10:53
KFFT 181053Z AUTO 29003KT 10SM OVC022 00/M05 A3001 RMK AO2 SLP167 T00001050
