2015/12/18 11:13
KFFX 181113Z AUTO 26010KT 10SM OVC035 M02/M09 A2982 RMK AO2 T10191091
