2015/12/18 02:47
KFFZ 180247Z VRB05KT 40SM SKC 08/M03 A3016
