2015/12/18 11:14
KFGN 181114Z AUTO 29016KT 10SM SCT037 M14/M17 A2972 RMK AO2
