2015/12/17 22:15
KFGX 172215Z AUTO 31006KT 10SM CLR 05/M01 A2990 RMK AO2 T00501015
