2015/12/18 11:15
KFHB 181115Z AUTO 23005KT 5SM SCT006 BKN010 OVC017 23/22 A2986 RMK AO1
