2015/12/18 11:25
KFHR 181125Z AUTO 19005KT 10SM SCT005 OVC011 06/06 A2947 RMK AO2 RAE25 PRESRR P0000 T00610056
