2015/12/18 10:54
KFIG 181054Z AUTO 25006KT 10SM OVC032 01/M03 A2983 RMK AO2 SLP111 T00061033
