2015/12/18 10:50
KFIN 181050Z 00000KT 3SM RA OVC005 22/22 A2989
