2015/12/18 10:52
KFIT 181052Z AUTO 00000KT 10SM BKN090 OVC100 09/07 A2967 RMK AO2 SLP051 T00890072
