2015/12/18 11:15
KFKS 181115Z AUTO 25011G18KT 220V290 10SM BKN036 OVC044 M02/M08 A2978 RMK AO2 T10171083
