2015/12/18 10:53
KFLD 181053Z AUTO 24012G17KT 10SM OVC038 M04/M11 A2983 RMK AO2 SLP112 T10441111
