2015/12/18 10:57
KFLG 181057Z AUTO 00000KT 10SM CLR M11/M13 A3022 RMK AO2 SLP247 T11061128 TSNO
