2015/12/18 10:53
KFLL 181053Z 20003KT 10SM FEW019 24/23 A2996 RMK AO2 SLP143 T02440228
