2015/12/18 10:53
KFLO 181053Z AUTO 29010KT 6SM -RA BR BKN016 BKN041 OVC120 17/16 A2977 RMK AO2 RAE18B23 SLP078 P0003 T01720161
