2015/12/18 11:15
KFLP 181115Z 32011G15KT 10SM OVC033 01/M08 A3021 RMK AO1
