2015/12/17 01:10
KFLY 170110Z AUTO 36007KT 10SM CLR M09/M14 A2982 RMK AO2 T10931140
