2015/12/18 11:24
KFME 181124Z AUTO 33007G16KT 10SM OVC047 06/02 A2984 RMK AO1
