2015/12/18 11:15
KFMH 181115Z AUTO 26006KT 8SM OVC003 10/10 A2968 RMK AO2 PWINO
