2015/12/18 10:53
KFMN 181053Z AUTO 09006KT 10SM CLR M09/M13 A3027 RMK AO2 SLP287 T10941128
