2015/12/18 10:53
KFMY 181053Z AUTO 17005KT 10SM CLR 23/22 A2994 RMK AO2 SLP139 T02280222
