2015/12/18 10:53
KFNB 181053Z AUTO 22004KT 10SM CLR M07/M09 A3012 RMK AO2 SLP213 T10671094
