2015/12/18 10:53
KFNT 181053Z 23007KT 10SM OVC039 01/M06 A2983 RMK AO2 SLP109 T00111056
