2015/12/18 10:53
KFOE 181053Z 22007KT 10SM CLR M07/M09 A3018 RMK AO2 SLP231 T10671094
