2015/12/18 11:20
KFOK 181120Z AUTO 24005KT 4SM BR OVC017 12/11 A2973 RMK AO2 T01170106 TSNO
