2015/12/18 11:15
KFOT 181115Z AUTO 13018G22KT 4SM FEW023 OVC029 11/10 A2993 RMK AO1 P0004
