2015/12/18 11:13
KFOZ 181113Z AUTO 24005KT 7SM -SN OVC044 M12/M15 A2973 RMK AO2
