2015/12/18 11:15
KFPK 181115Z AUTO 22007KT 10SM BKN038 M01/M05 A2983 RMK AO2 T10111048
