2015/12/18 10:53
KFPR 181053Z AUTO 21006KT 10SM CLR 23/22 A2995 RMK AO2 SLP140 T02280222 TSNO
