2015/12/18 11:15
KFQD 181115Z AUTO 00000KT 10SM CLR 07/06 A2982 RMK AO2 T00710058
