2015/12/18 10:53
KFRG 181053Z AUTO 28006KT 2SM OVC065 12/11 A2971 RMK AO2 SFC VIS 10 SLP062 T01220106
