2015/12/18 10:58
KFRI 181058Z AUTO 25007KT 10SM CLR M07/M08 A3018 RMK AO2 SLP232 T10661083
