2015/12/18 11:15
KFRM 181115Z AUTO 23008G14KT 10SM FEW047 SCT060 BKN065 M07/M12 A2990 RMK AO1
