2015/12/18 10:56
KFSD 181056Z 25007KT 10SM FEW065 M08/M12 A2991 RMK AO2 SLP152 T10781117
