2015/12/18 11:14
KFSE 181114Z AUTO 30006KT 4SM -SN BKN020 OVC027 M13/M15 A2980 RMK AO2
