2015/12/18 10:58
KFSI 181058Z AUTO 34001KT 10SM CLR M03/M05 A3029 RMK AO2 SLP266 T10291050
