2015/12/18 10:53
KFST 181053Z AUTO 18007KT 10SM CLR M01/M07 A3025 RMK AO2 SLP229 T10111072
