2015/12/18 11:15
KFSW 181115Z AUTO 27008KT 10SM CLR M05/M09 A3008 RMK AO2
