2015/12/18 11:01
KFTK 181101Z 28007KT 10SM -SN OVC024 00/M05 A3003
