2015/12/18 10:53
KFTW 181053Z AUTO 32007KT 10SM CLR 01/M02 A3031 RMK AO2 SLP265 T00061022
