2015/12/18 10:53
KFTY 181053Z 32005KT 10SM CLR 05/01 A2997 RMK AO2 SLP149 T00500006
