2015/12/18 11:15
KFVX 181115Z AUTO 02005KT 7SM OVC005 11/11 A2977 RMK AO2 T01130113
