2015/12/18 10:54
KFWA 181054Z 25008KT 10SM FEW033 BKN150 M02/M06 A2994 RMK AO2 SLP149 T10221056 $
