2015/12/18 11:15
KFWC 181115Z AUTO 26004KT 10SM OVC046 01/M04 A3009 RMK AO1 T00071037
