2015/12/18 10:53
KFWN 181053Z AUTO 35005KT 10SM FEW090 06/01 A2977 RMK AO2 SLP082 T00560006
