2015/12/18 11:15
KFWS 181115Z AUTO 33005KT 10SM CLR 00/M02 A3034 RMK AO2 T10021020
