2015/12/18 10:53
KFXE 181053Z 00000KT 10SM CLR 23/22 A2996 RMK AO2 SLP147 T02280217
