2015/12/18 11:15
KFYJ 181115Z AUTO 35003KT 10SM BKN016 BKN021 OVC033 11/11 A2979 RMK AO2 T01100108
