2015/12/18 10:53
KFYV 181053Z AUTO 31007KT 10SM OVC023 M02/M05 A3025 RMK AO2 SLP250 T10171050
