2015/12/18 10:54
KFZY 181054Z AUTO 24008KT 10SM OVC032 03/M02 A2981 RMK AO2 SLP097 T00331022
