2009/09/28 19:42
KG04 281942Z 00000KT M M 21/08 A2986 
