2009/09/28 20:02
KG09 282002Z 24004KT M M 23/04 A2992 
