2009/09/28 20:04
KG35 282004Z 25007KT M M 22/08 A2957 
