2009/06/30 12:05
KG40 301205Z 00000KT M M 22/M18 A2978 
