2011/09/08 15:52
KG43 081552Z 33003KT M M 17/11 A2844 
