2009/09/28 20:03
KG49 282003Z 26005KT M M 23/01 A2988 
