2011/09/08 15:55
KG52 081555Z 00000KT M M 19/14 A2981 
