2009/09/02 21:12
KG55 022112Z 02001KT M M 25/18 A3002 
