2011/09/08 15:53
KG60 081553Z 28004KT M M 20/16 A2978 
