2011/09/08 15:55
KG62 081555Z 31002KT M M 21/15 A3000 
