2009/09/28 20:03
KG64 282003Z 00000KT M M 30/01 A2944 
