2009/09/28 19:03
KG66 281903Z 32001KT M M 24/M14 A2966 
