2009/09/28 20:02
KG68 282002Z 31005KT M M 21/08 A2988 
