2009/09/28 20:06
KG69 282006Z 30003KT M M 21/06 A2989 
