2011/09/08 15:53
KG72 081553Z 00000KT M M 23/14 A3008 
