2009/06/25 03:57
KG73 250357Z 00000KT M M 21/18 A2985 
