2009/09/28 20:05
KG74 282005Z 00000G10KT M M 22/06 A2986 
