2011/09/08 14:52
KG75 081452Z 29005KT M M 19/14 A3026 
