2009/07/16 09:48
KG77 160948Z 00000KT M M 21/20 A2998 
