2011/09/08 20:44
KG81 082044Z 00000KT M M 14/14 A3001 
