2009/06/30 12:06
KG92 301206Z 00000KT M M 22/M18 A2884 
