2015/12/18 07:08
KGAD 180708Z 32003KT 10SM CLR 04/01 A2999
