2015/12/18 11:35
KGAF 181135Z AUTO 31012KT 10SM OVC029 M13/M17 A2988 RMK AO2
