2015/12/18 10:53
KGAG 181053Z AUTO 26004KT 8SM CLR M07/M08 A3024 RMK AO2 SLP263 I1000 T10671078 TSNO $
