2015/12/18 11:15
KGAI 181115Z AUTO 31008KT 290V360 10SM OVC055 06/M01 A2987 RMK AO1
