2015/12/18 11:19
KGAO 181119Z AUTO 00000KT 10SM CLR 09/06 A3018 RMK AO2
