2015/12/18 11:15
KGBD 181115Z AUTO 23005KT 10SM CLR M08/M13 A3019 RMK AO1
