2015/12/18 11:15
KGBG 181115Z AUTO 28012G22KT 10SM CLR M05/M10 A3003 RMK AO2 T10511097
