2015/12/18 11:15
KGBK 181115Z AUTO 01016G31KT 340V130 10SM SCT043 BKN049 19/06 A3015 RMK A01
