2015/12/18 10:53
KGCC 181053Z AUTO 00000KT 10SM CLR M16/M20 A2986 RMK AO2 SLP185 T11611200
