2015/12/18 10:54
KGCK 181054Z AUTO 22005KT 10SM CLR M11/M13 A3015 RMK AO2 SLP245 I1000 T11111128
