2015/12/18 11:15
KGCM 181115Z AUTO 24003KT 10SM CLR M05/M06 A3031 RMK AO2
