2015/12/18 10:54
KGCN 181054Z AUTO 00000KT 10SM CLR M14/M17 A3023 RMK AO2 SLP266 T11391167
