2015/12/18 11:09
KGDB 181109Z AUTO 00000KT 10SM SCT044 BKN060 BKN070 M10/M12 A2989 RMK AO2 T10991118
