2015/12/18 11:15
KGDJ 181115Z AUTO 26005KT 10SM CLR M01/M02 A3035 RMK AO2 T10081018
