2015/12/18 10:51
KGDP 181051Z AUTO 25013KT 10SM CLR M01/M13 A3022 RMK AO2 SLP227 T10061128 
