2015/12/18 11:15
KGDV 181115Z AUTO 34009KT 10SM CLR M18/M20 A2998 RMK AO1
