2015/12/18 10:54
KGED 181054Z AUTO 32005KT 5SM BR FEW008 OVC043 12/10 A2978 RMK AO2 SLP083 T01170100
