2015/12/18 11:18
KGEG 181118Z 06008KT 1/2SM -FZDZSN BR OVC004 M02/M02 A2968 RMK AO2 SFC VIS 1 3/4 FZRAE17FZDZB17 P0001 I1000 T10171022
