2015/12/18 02:50
KGEU 180250Z 00000KT 20SM SKC 10/M02 A3018 RMK LAST 
