2015/12/11 21:53
KGEY 112153Z AUTO 17006KT 10SM CLR 06/M02 A2964 RMK AO2 SLPNO T00561017 $
