2015/12/18 10:53
KGEZ 181053Z AUTO 27007KT 10SM OVC033 00/M06 A2999 RMK AO2 SLP163 T00001056
