2015/12/18 10:53
KGFK 181053Z AUTO 30016KT 10SM OVC030 M12/M17 A2986 RMK AO2 SLP130 T11221172 TSNO
