2015/12/18 10:53
KGFL 181053Z AUTO 34003KT 10SM OVC045 06/01 A2976 RMK AO2 SLP080 T00610006
