2015/12/18 11:15
KGGE 181115Z AUTO 22010KT 10SM -RA SCT065 BKN090 OVC110 18/17 A2979 RMK AO2 P0001
