2015/12/18 10:53
KGGG 181053Z AUTO 32005KT 10SM CLR 03/M01 A3027 RMK AO2 SLP252 T00281006
