2015/12/18 11:15
KGGI 181115Z AUTO 23004KT 10SM CLR M07/M10 A3002 RMK AO2 T10751100
