2015/12/18 11:15
KGHB 181115Z AUTO 36020G28KT 10SM FEW043 SCT050 18/05 A3017 RMK A01
