2015/12/18 11:15
KGHG 181115Z AUTO 24003KT 7SM OVC002 09/09 A2969 RMK AO2
