2015/12/18 11:13
KGHW 181113Z AUTO 23009KT 10SM OVC023 M10/M12 A2984 RMK AO2
