2015/12/18 11:15
KGIC 181115Z AUTO 19020G32KT 10SM SCT090 OVC110 04/M01 A2972 RMK AO1 T00441008
