2015/12/18 10:53
KGIF 181053Z AUTO 21008KT 10SM OVC007 23/22 A2994 RMK AO2 SLP137 T02280222
