2015/12/18 10:53
KGKJ 181053Z AUTO 24005KT 10SM OVC030 00/M04 A2985 RMK AO2 SLP119 T00001044 TSNO
