2015/12/18 11:15
KGKT 181115Z AUTO 29004KT 10SM BKN021 02/M01 A2998 RMK
