2015/12/18 10:53
KGKY 181053Z AUTO 33007KT 10SM CLR 02/M02 A3031 RMK AO2 SLP262 T00171017
