2015/12/18 10:53
KGLD 181053Z AUTO 24014KT 10SM CLR M08/M12 A3003 RMK AO2 SLP211 T10831117
