2015/12/18 11:15
KGLE 181115Z AUTO 30003KT 10SM CLR M02/M03 A3035 RMK AO2 T10201035
