2015/12/18 10:53
KGLH 181053Z AUTO 30004KT 10SM CLR 02/00 A3019 RMK AO2 SLP234 T00170000
