2015/12/18 10:53
KGLR 181053Z AUTO 24016G24KT 10SM FEW041 BKN050 M03/M10 A2970 RMK AO2 SNB02E11 SLP073 P0000 T10331100
