2015/12/18 11:15
KGLW 181115Z AUTO 28004KT 10SM OVC028 00/M03 A3006 RMK AO2 T00031031
