2015/12/18 11:15
KGLY 181115Z AUTO 26005KT 10SM M03/M06 A3020 RMK AO2
