2015/12/18 11:13
KGMU 181113Z AUTO 25005KT 10SM OVC005 09/08 A2983 RMK AO2 T00940078
