2015/12/18 10:56
KGNA 181056Z AUTO 26010G17KT M07/M10 A2969 RMK AO1 SLP069 T10721100 
