2015/12/18 11:15
KGNC 181115Z AUTO 18003KT 10SM CLR M04/M07 A3024 RMK AO2 T10431067
