2015/11/17 03:57
KGNF 170357Z 14011G16KT 10SM SCT070 20/16 A2998 RMK //ZME
