2015/12/18 10:56
KGNR 181056Z AUTO 33011KT 03/03 A2956 RMK AO1 SLP023 T00330028 $ 
