2015/12/18 11:15
KGNT 181115Z AUTO 32005KT 10SM CLR M12/M14 A3026 RMK AO2 T11201137
