2015/12/18 10:53
KGNV 181053Z AUTO 22005KT 10SM OVC006 22/21 A2989 RMK AO2 RAE17 CIG 004V011 SLP118 P0000 T02170211 $
