2015/12/18 11:09
KGON 181109Z AUTO 00000KT 10SM FEW006 OVC018 11/11 A2968 RMK AO2 T01060106
