2015/12/18 11:15
KGOP 181115Z AUTO 00000KT 8SM CLR 00/M02 A3034 RMK AO2
