2015/12/18 11:15
KGOV 181115Z AUTO 26011G17KT 10SM SCT050 M03/M10 A2974 RMK AO2 T10321099
