2015/12/18 11:15
KGPH 181115Z AUTO 22005KT 10SM CLR M05/M07 A3017 RMK AO2
