2015/12/18 11:24
KGPI 181124Z AUTO 03004KT 1 1/2SM -SN BR FEW012 OVC022 M05/M06 A2978 RMK AO2 P0002 T10501061
