2015/12/18 11:15
KGPM 181115Z AUTO 34004KT 10SM CLR 01/M01 A3033 RMK AO2 T00131012
