2015/12/18 10:53
KGPT 181053Z 35007KT 10SM CLR 06/02 A3014 RMK AO2 SLP206 T00560017
