2015/12/18 11:15
KGPZ 181115Z AUTO 28008KT 9SM OVC027 M12/M17 A2974 RMK AO1
