2015/12/18 10:53
KGRB 181053Z AUTO 27017G22KT 6SM -SN BKN034 OVC041 M04/M09 A2980 RMK AO2 SNB41 SLP102 P0000 T10441094
