2015/12/18 10:56
KGRD 181056Z AUTO 25008KT 10SM CLR 09/08 A2985 RMK AO2 SLP105 T00940078
