2015/12/18 10:53
KGRI 181053Z 25012KT 10SM CLR M08/M12 A3005 RMK AO2 SLP204 T10781122
