2015/12/18 10:53
KGRR 181053Z 27014G21KT 10SM BKN039 M01/M07 A2984 RMK AO2 SLP113 FIRST AUGMENTED OBS OF THE DAY T10061072
