2015/12/18 11:15
KGRY 181115Z AUTO 34027G36KT 10SM FEW039 17/04 A3012 RMK A01
