2015/12/18 11:25
KGSB 181125Z AUTO 29008KT 10SM -RA BKN010 BKN034 OVC090 18/18 A2974 RMK AO2 CIG 010V034 BKN010 V SCT
