2015/12/18 10:53
KGSH 181053Z AUTO 24010KT 10SM FEW120 M03/M06 A2991 RMK AO2 SLP140 T10331061
