2010/05/12 11:54
KGSM 121154Z 14015KT 07SM HZ FEW070 24/23 A2994 RMK SEAS 1-3'
