2015/12/18 11:09
KGSO 181109Z 03005KT 10SM FEW004 BKN031 BKN038 11/10 A2977 RMK AO2
