2015/12/18 10:53
KGSP 181053Z 26005KT 7SM OVC002 10/09 A2980 RMK AO2 SLP088 T01000094
