2015/12/18 10:58
KGTB 181058Z AUTO 27004KT 10SM OVC034 03/M01 A2976 RMK AO2 SLP082 T00261015
