2015/12/18 11:22
KGTF 181122Z 14004KT 2SM -SN BR OVC027 M04/M06 A2977 RMK AO2 TWR VIS 3 P0000 T10441061
