2015/12/18 11:15
KGTU 181115Z 32004KT 10SM CLR 01/M03 A3031 RMK AO1
