2015/12/18 11:15
KGUL 181115Z AUTO 35015KT 10SM CLR 19/04 A3017 RMK A01
