2015/12/18 10:53
KGUP 181053Z AUTO 00000KT 10SM CLR M13/M16 A3025 RMK AO2 SLP317 T11331161
