2015/12/18 11:15
KGUR 181115Z AUTO 26016G22KT 10SM CLR 02/M06 A2990 RMK AO2 T00221061
