2015/12/18 10:58
KGUS 181058Z AUTO 26009KT 10SM CLR M03/M05 A2994 RMK AO2 CIG 120 RWY05 SLP151 T10261047
