2015/12/18 10:53
KGUY 181053Z AUTO 22003KT 10SM CLR M09/M11 A3017 RMK AO2 SLP236 T10891111
