2015/12/18 11:15
KGVE 181115Z AUTO 06005KT 10SM SCT014 OVC049 07/05 A2979 RMK AO1 T00690052
