2015/12/18 10:53
KGVL 181053Z AUTO 29011KT 10SM CLR 04/03 A2991 RMK AO2 SLP124 T00440028
