2009/06/28 18:50
KGVQ 281850Z 24008G16KT 10SM SCT043 34/25 A2980
