2015/12/18 11:10
KGVT 181110Z AUTO 36007KT 10SM CLR 01/M01 A3031 RMK AO2
