2015/12/18 11:15
KGVX 181115Z AUTO 33021KT 10SM CLR 13/05 A3023 RMK A01
