2015/12/18 11:15
KGWW 181115Z AUTO 00000KT 3SM -RA SCT004 BKN008 OVC016 16/16 A2976 RMK AO2 P0005 T01620162
