2015/12/18 10:58
KGXF 181058Z AUTO 07005KT 8SM CLR 03/M04 A3015 RMK AO2 SLP209 T00251045
