2015/12/18 11:15
KGXY 181115Z 00000KT 10SM CLR M19/M22 A2996 RMK AO1
