2015/12/18 11:15
KGYI 181115Z AUTO 36004KT 10SM SCT014 M01/M03 A3033 RMK AO2 T10061026
