2015/12/18 03:47
KGYR 180347Z 00000KT 10SM SKC 07/M02 A3019 RMK LAST
