2015/12/18 10:45
KGYY 181045Z 27009KT 10SM BKN031 M02/M08 A2995 RMK FIRST
