2015/12/18 11:15
KGZL 181115Z AUTO 29004KT 10SM OVC025 M01/M07 A3033 RMK AO2
