2009/05/17 06:52
KGZZ 170652Z AUTO 03003KT 12/05 A2996 RMK AO2 SLP114 T01220050 PWINO TSNO 
