2015/03/05 15:10
KH21 051510Z AUTO 32009KT 10SM M06/M16 A3055 RMK AO2
