2015/12/17 18:35
KH78 171835Z 34014KT 08SM -RN OVC016 22/21 A2986 RMK SEAS 3-4 
