2015/12/18 11:15
KHAE 181115Z AUTO 27006KT CLR M03/M08 A3013 RMK AO2 PWINO
