2015/12/18 11:15
KHAF 181115Z AUTO 00000KT 10SM CLR 07/07 A3013 RMK AO2 PWINO PNO
