2015/12/18 11:17
KHAO 181117Z AUTO 26004KT 10SM OVC030 M01/M07 A3002 RMK AO2 T10061067
