2012/02/27 04:00
KHBB 270400Z 00000KT CAVOK M03/M04 Q1018 A3007
