2015/12/18 10:53
KHBG 181053Z AUTO 30004KT 10SM CLR 02/01 A3018 RMK AO2 SLP218 T00220006
