2015/12/18 11:15
KHBI 181115Z AUTO 34003KT 2SM BR OVC001 12/12 A2980 RMK AO2 T01220122
