2015/12/18 10:53
KHBR 181053Z AUTO 28004KT 8SM CLR M04/M06 A3029 RMK AO2 SLP271 T10441061
