2015/08/12 22:10
KHBV 122210Z AUTO 07008KT 10SM 37/17 A2999 RMK AO2 T03730168
