2015/12/18 11:12
KHCD 181112Z AUTO 23004KT 10SM BKN024 M09/M12 A2989 RMK AO2 T10931117
