2015/12/18 11:14
KHCO 181114Z AUTO 31017KT 7SM OVC033 M12/M16 A2983 RMK AO2
