2008/04/26 13:53
KHCV 261353Z 29004KT 10SM SCT029 BKN070 OVC120 19/14 A3012 RMK AO2 RAB19E30 SLP194 P0000 ŠÂÊ‚Š¢¢j 
