2015/12/18 11:15
KHDE 181115Z AUTO 26010KT 10SM CLR M10/M14 A3005 RMK AO2 T11001140
