2015/12/18 11:15
KHDN 181115Z AUTO 13008KT 10SM OVC040 M11/M15 A3020 RMK AO1
