2015/12/18 11:15
KHEF 181115Z 35014KT 10SM OVC049 07/02 A2983 RMK AO1
