2015/12/18 10:53
KHEI 181053Z AUTO 31011KT 10SM CLR M14/M17 A2991 RMK AO2 SLP178 T11391172
