2007/11/27 13:53
KHEX 271353Z AUTO 32004KT 10SM CLR 08/07 A3071 RMK AO2 PRESRR SLP387 T00830067 $ 
