2015/12/18 10:53
KHEY 181053Z AUTO 31006KT 10SM CLR 06/03 A3004 RMK AO2 SLP160 T00610028 
