2015/12/18 11:15
KHEZ 181115Z AUTO 00000KT 10SM CLR 01/M02 A3019 RMK AO1
