2015/12/18 11:25
KHFD 181125Z 33010KT 10SM SCT014 OVC090 09/06 A2971 RMK AO2 T00890056
