2015/12/18 11:05
KHFF 181105Z AUTO 23003KT 5SM BR FEW005 BKN035 16/15 A2975 RMK AO2 RAE05 $
