2015/12/18 11:15
KHFJ 181115Z AUTO 24003KT 10SM CLR M04/M07 A3022 RMK AO2
