2015/12/18 10:53
KHGR 181053Z AUTO 32005KT 10SM BKN032 03/M01 A2984 RMK AO2 SLP118 T00331011
