2015/12/18 11:15
KHHG 181115Z AUTO 25005KT 10SM SCT120 M03/M07 A2995 RMK AO2 T10281069
