2015/12/18 11:15
KHHV 181115Z AUTO 01013G18KT 10SM SCT048 19/06 A3020 RMK A01
