2015/12/18 10:53
KHIB 181053Z AUTO 26007KT 8SM -SN OVC031 M12/M16 A2972 RMK AO2 SNB47 SLP092 P0000 T11221161
