2015/12/18 11:10
KHIE 181110Z AUTO 32007KT 10SM SCT007 OVC013 06/04 A2967 RMK AO2 RAE01 P0000 T00560039
