2015/12/18 11:28
KHIF 181128Z AUTO 11011KT 10SM FEW018 BKN029 OVC035 M03/M06 A3014 RMK AO2 CIG 029V036 BKN V SCT
