2015/12/18 11:15
KHII 181115Z AUTO 01004KT 10SM CLR 06/M06 A3020 RMK AO2
