2015/12/18 10:53
KHIO 181053Z AUTO 20008KT 10SM OVC100 11/08 A2959 RMK AO2 SLP022 T01060083
