2010/03/03 17:53
KHIY 031753Z AUTO 29012G23KT 10SM CLR 10/M01 A2993 RMK AO2 SLP126 T01001006 10100 20022 58008 $ 
