2015/12/18 10:53
KHJO 181053Z AUTO 00000KT 1 1/2SM BR CLR 00/M01 A3020 RMK AO2 SLP228 T00001011
