2015/12/18 10:53
KHKA 181053Z AUTO 29004KT 10SM OVC034 02/M01 A3018 RMK AO2 SNB0954E42 SLP221 P0000 T00171011 $
