2015/12/18 10:53
KHKS 181053Z AUTO 32003KT 10SM CLR 02/00 A3018 RMK AO2 SLP215 T00170000
