2015/12/18 11:03
KHKY 181103Z AUTO 33005KT 3SM SCT001 09/08 A2979 RMK AO2 SFC VIS 10 T00890078
