2015/12/18 10:53
KHLC 181053Z AUTO 23005KT 10SM CLR M09/M12 A3011 RMK AO2 SLP225 T10891117
