2011/01/21 15:56
KHLK 211556Z AUTO 27003KT 10SM CLR 07/M02 A3013 RMK AO2 SLP157 NO CARRIER RING CONNECT 57600 HFOMTRNGF ALL TTAA00 PHNG 211601 COR METAR PHNG 211557Z AUTO 09008KT 10SM 23/ A3001 RMK AO2 SLP157 T0228 $ 
