2015/12/18 10:53
KHLN 181053Z AUTO 28003KT 5SM -SN OVC037 M07/M09 A2984 RMK AO2 SNB17 SLP175 P0000 T10671094 $
