2015/12/18 10:58
KHLR 181058Z AUTO 35008KT 9SM CLR 00/M02 A3029 RMK AO2 SLP258 T10031020
