2015/12/18 11:15
KHLX 181115Z AUTO 31011G15KT 10SM SCT014 OVC019 05/03 A2979 RMK AO2 T00450026
