2015/12/18 10:50
KHME 181050Z 00000KT 9999 SCT035 BKN100 10/M02 Q1023
