2015/12/18 10:58
KHMN 181058Z AUTO 10003KT 10SM CLR M06/M11 A3023 RMK AO2 SLP234 T10601115 $
