2013/03/26 20:50
KHMS 262050Z 03006KT 15SM SCT100 16/M02 A2999 RMK SLP157 8/070 T01611018 57005 RSNK 07/01006 
