2015/12/18 11:15
KHMZ 181115Z AUTO 29012G17KT 10SM OVC025 01/M04 A2986 RMK AO2 T00121040
