2015/12/18 11:15
KHNB 181115Z AUTO 29008KT 10SM OVC037 01/M06 A3007 RMK AO1
