2015/12/18 10:56
KHND 181056Z 17007KT 10SM CLR M01/M08 A3024 RMK AO2 SLP253 T10061078
