2009/02/14 03:46
KHNS 140346Z AUTO 29006KT 10SM FEW008 01/00 A2980 RMK AO2 $ 
