2015/12/18 11:15
KHNZ 181115Z AUTO 35003KT 10SM -RA BKN060 BKN070 11/10 A2975 RMK AO2 T01130103
