2015/12/18 11:15
KHOE 181115Z AUTO 31013G17KT 10SM SCT055 17/15 A2994 RMK AO2
