2015/12/18 10:58
KHOP 181058Z AUTO 28003KT 10SM OVC034 01/M02 A3009 RMK AO2 SLP195 T00071025
