2015/12/18 11:24
KHOT 181124Z AUTO 33006KT 10SM SCT023 03/M02 A3025 RMK AO2 T00281017
