2015/12/18 10:53
KHOU 181053Z 34010KT 10SM CLR 08/00 A3026 RMK AO2 SLP250 T00780000
