2015/12/18 10:56
KHPN 181056Z 30011KT 10SM SCT015 SCT026 BKN065 11/08 A2970 RMK AO2 SLP058 T01060083 $
