2015/12/18 11:15
KHQG 181115Z AUTO 20006KT 7SM SCT002 M05/M06 A3017 RMK AO2 T10501065
