2015/12/18 11:15
KHQI 181115Z AUTO 31022KT 10SM CLR 18/05 A3018 RMK A01
