2015/12/18 10:53
KHQM 181053Z AUTO 23009KT 7SM FEW009 SCT019 OVC027 08/08 A2952 RMK AO2 RAE34 SLP999 P0000 T00830078
