2012/02/07 08:00
KHRE 070800Z 06017KT 9999 FEW023 22/10 Q1020
