2015/12/18 10:53
KHRI 181053Z AUTO 00000KT 8SM SCT009 BKN100 M01/M01 A2971 RMK AO2 SLP065 T10061011
