2015/12/18 11:15
KHRJ 181115Z AUTO 00000KT 5SM -RA BKN007 BKN027 OVC110 16/16 A2974 RMK AO2 P0002 T01550155
