2015/12/18 10:52
KHRL 181052Z 34007KT 10SM CLR 08/05 A3025 RMK AO2 SLP243 T00780050
