2015/12/18 10:53
KHRO 181053Z AUTO 30010G16KT 10SM OVC026 M01/M07 A3020 RMK AO2 SLP236 T10111067
