2015/12/18 10:58
KHRT 181058Z AUTO 34009KT 10SM CLR 07/00 A3007 RMK AO2 SLP185 T00740003 $
