2015/12/18 02:52
KHSA 180252Z 00000KT 10SM CLR 08/04 A3002
