2015/12/18 11:15
KHSB 181115Z AUTO 29006KT 10SM SCT036 OVC042 01/M03 A3012 RMK AO2 T00101035
