2015/12/18 10:51
KHSE 181051Z AUTO 24006KT 10SM -RA FEW080 OVC110 21/19 A2977 RMK AO2 SLP079 P0002 T02060189 TSNO
