2015/12/18 10:53
KHSI 181053Z AUTO 26008KT 10SM CLR M08/M13 A3005 RMK AO2 SLP204 T10781128
