2015/12/18 11:15
KHSP 181115Z AUTO 28016KT 7SM OVC004 01/01 A2974 RMK AO2 T00060006
