2015/12/18 11:23
KHST 181123Z AUTO 20002KT 1/2SM R06/1600FT FG CLR 23/22 A2997 RMK AO2 VIS 1/2V7
