2015/12/18 10:53
KHTL 181053Z AUTO 26012G20KT 10SM OVC040 M02/M09 A2975 RMK AO2 SLP088 T10221089
