2015/12/17 20:50
KHTO 172050Z 16008KT 3SM RABR OVC015 12/11 A2982 
