2015/12/18 10:51
KHTS 181051Z VRB05KT 10SM SCT018 OVC023 00/M03 A2997 RMK AO2 SLP153 T00001028
