2015/12/18 10:58
KHUA 181058Z AUTO 34004KT 9SM CLR M01/M01 A3008 RMK AO2 SLP191 T10061014
