2015/12/18 10:52
KHUT 181052Z AUTO 25004KT 10SM CLR M06/M09 A3022 RMK AO2 SLP244 I1000 T10611094
