2015/12/18 11:22
KHVN 181122Z 35005KT 10SM SCT008 BKN016 OVC022 11/10 A2971 RMK AO2 T01110100
