2015/12/18 10:53
KHVR 181053Z AUTO 08010KT 10SM CLR M13/M16 A2990 RMK AO2 SLP169 T11331156
