2015/12/18 11:15
KHVS 181115Z AUTO 25003KT 7SM SCT005 BKN024 BKN049 15/14 A2978 RMK AO2
