2015/12/18 10:54
KHWD 181054Z 06004KT 8SM CLR 07/04 A3013 RMK AO2 SLP213 T00670044
