2015/12/18 11:11
KHWV 181111Z AUTO 26005KT 7SM BKN020 OVC065 12/11 A2972 RMK AO2 PRESRR T01170111 TSNO $
