2015/12/18 11:15
KHWY 181115Z AUTO 35010G15KT 10SM OVC049 07/03 A2982 RMK AO2 T00710025
