2015/12/18 10:35
KHXD 181035Z AUTO 21006KT 010V020 8SM FEW019 SCT028 BKN036 20/20 A2983 RMK AO2 P0002
