2015/12/18 10:56
KHYA 181056Z 25009KT 10SM OVC004 12/11 A2968 RMK AO2 SLP050 T01170106
