2015/12/18 11:15
KHYI 181115Z 34007KT 10SM CLR 01/M02 A3031 RMK AO1
