2015/12/18 10:53
KHYR 181053Z AUTO 25010KT 8SM -SN OVC019 M09/M13 A2977 RMK AO2 SNE10B40 SLP103 P0000 T10891128
