2015/12/18 11:15
KHYS 181115Z AUTO 24004KT 10SM CLR M08/M14 A3015 RMK AO1
