2015/12/18 11:15
KHYW 181115Z AUTO 21006KT 10SM -DZ BKN009 BKN034 OVC040 18/18 A2976 RMK AO2
