2015/12/18 11:15
KHYX 181115Z AUTO 22007KT 10SM SCT035 OVC044 00/M03 A2980 RMK AO2
