2015/12/18 11:15
KHZE 181115Z AUTO 33014G22KT 10SM OVC026 M11/M16 A2995 RMK AO2 TSNO 
