2015/12/18 11:15
KHZL 181115Z AUTO 28005KT 10SM OVC013 01/00 A2981 RMK AO2
