2015/12/18 11:15
KHZX 181115Z AUTO 26004KT 7SM OVC028 M10/M13 A2978 RMK AO2
