2015/12/18 10:53
KHZY 181053Z AUTO 28005KT 10SM OVC037 01/M05 A2988 RMK AO2 SLP125 T00111050 TSNO
