2015/12/18 11:15
KI35 181115Z AUTO 28005KT 10SM SCT012 OVC027 00/M02 A2996 RMK AO1
