2015/12/18 11:15
KI39 181115Z AUTO 28007KT 10SM OVC019 M00/M04 A3001 RMK AO2
