2015/12/18 11:15
KI63 181115Z AUTO 29009G16KT 10SM CLR M04/M08 A3009 RMK AO2 T10371081
