2015/12/18 11:15
KI67 181115Z AUTO 27003KT 10SM OVC034 00/M06 A3001 RMK AO1
