2015/12/18 11:15
KI75 181115Z AUTO 23006KT 10SM SCT110 M06/M08 A3004 RMK AO2 T10571082
