2015/12/18 10:58
KIAB 181058Z AUTO 22006KT 10SM CLR M07/M09 A3024 RMK AO2 SLP261 T10731090
