2015/12/18 10:52
KIAD 181052Z 33012KT 10SM OVC055 07/00 A2983 RMK AO2 SLP100 T00670000
