2015/12/18 10:53
KIAG 181053Z AUTO 25013KT 10SM OVC037 02/M06 A2984 RMK AO2 SLP115 T00171061
