2015/12/18 11:15
KIBM 181115Z AUTO 26004KT 10SM CLR M13/M18 A2991 RMK AO2 T11341178
