2015/12/18 10:53
KICR 181053Z AUTO 28013KT 10SM CLR M09/M16 A2995 RMK AO2 SLP175 T10941156
