2015/12/18 10:53
KICT 181053Z 25004KT 10SM CLR M07/M09 A3024 RMK AO2 SLP256 T10721094
