2015/12/18 11:28
KIDA 181128Z AUTO 34004KT 3SM -SN BR OVC022 M07/M08 A3008 RMK AO2 P0000 T10671083
