2015/12/18 11:15
KIDI 181115Z AUTO 29006KT 10SM OVC028 00/M03 A2990 RMK A01
