2015/12/18 11:15
KIDP 181115Z AUTO 00000KT 10SM CLR M05/M07 A3027 RMK AO2
