2015/12/18 11:15
KIFA 181115Z AUTO 24005KT 10SM BKN060 M07/M09 A2998 RMK AO2 T10681095
