2015/12/18 11:15
KIFP 181115Z AUTO 01011G15KT 10SM CLR 08/M05 A3021 RMK AO2
