2007/11/02 22:59
KIGL 022259Z AUTO 35017KT 10SM CLR 23/M03 A3007 RMK AO2 SLš’j T02281033 TSNO 
