2015/12/18 10:51
KIGM 181051Z AUTO 00000KT 10SM CLR M02/M07 A3020 RMK AO2 SLP208 T10221067
