2015/12/18 11:15
KIGQ 181115Z AUTO 26009KT 10SM OVC031 M03/M07 A2995 RMK AO2 T10281066
