2015/12/18 11:15
KIIB 181115Z AUTO 27009KT 10SM CLR M07/M11 A2997 RMK AO2
