2015/12/18 11:15
KIIY 181115Z AUTO 28009KT 10SM CLR 09/07 A2989 RMK AO2
