2015/12/18 10:52
KIJD 181052Z AUTO 00000KT 4SM BR FEW002 BKN075 OVC095 09/08 A2970 RMK AO2 SLP056 T00940083
