2015/12/18 11:15
KIKK 181115Z AUTO 26009KT 10SM OVC110 M03/M06 A2997 RMK AO2 T10301061
