2015/12/18 11:15
KIKT 181115Z AUTO 30008KT 270V330 10SM FEW026 BKN032 17/07 A3009 RMK A01
