2015/12/18 11:15
KIKV 181115Z AUTO 23007KT 10SM FEW055 SCT070 BKN085 M06/M09 A3002 RMK AO2
