2015/12/18 11:14
KIKW 181114Z AUTO 25009G14KT 10SM BKN046 00/M09 A2979 RMK AO2 T00001088
