2015/12/18 11:15
KILE 181115Z 34008KT 10SM CLR 01/M02 A3031 RMK AO2 SLP304 PWINO FZRANO RVRNO
