2015/12/18 10:51
KILG 181051Z AUTO 31013KT 10SM OVC050 07/03 A2980 RMK AO2 SLP091 T00720028
