2015/12/18 10:53
KILM 181053Z AUTO 25007KT 10SM FEW027 BKN033 OVC095 20/19 A2976 RMK AO2 RAE51 SLP076 P0011 T02000189
