2015/12/18 10:54
KILN 181054Z AUTO 29006KT 10SM OVC025 M02/M07 A2996 RMK AO2 SLP172 T10171067
