2015/12/18 10:53
KIML 181053Z AUTO 26013KT 10SM CLR M12/M17 A3001 RMK AO2 SLP213 T11171167
