2015/12/18 11:12
KIMS 181112Z AUTO 25005KT 10SM OVC027 00/M06 A3003 RMK AO1
