2015/12/18 10:54
KIMT 181054Z AUTO 28006KT 10SM BKN055 M07/M13 A2969 RMK AO2 SLP071 T10671133
