2015/12/18 11:15
KINF 181115Z AUTO 00000KT 7SM OVC044 22/22 A2993 RMK AO2
