2015/12/18 11:15
KINJ 181115Z AUTO 29003KT 7SM CLR 00/M02 A3032 RMK AO2 T10031018
