2015/12/18 10:53
KINK 181053Z AUTO 04004KT 10SM CLR M05/M08 A3024 RMK AO2 SLP238 T10501083
