2015/12/18 11:09
KINL 181109Z AUTO 29005KT 2 1/2SM -SN BR BKN025 BKN050 OVC070 M13/M15 A2970 RMK AO2 P0000 T11281150
