2015/12/18 10:58
KINS 181058Z AUTO 04002KT 10SM CLR M03/M10 A3021 RMK AO2 SLP231 T10351102
