2015/12/18 11:27
KINT 181127Z AUTO 34004KT 6SM BR FEW009 OVC035 11/10 A2979 RMK AO2 T01110100
