2015/12/18 10:56
KINW 181056Z AUTO 12004KT 10SM CLR M06/M08 A3026 RMK AO2 SLP263 T10561078
