2015/12/18 11:15
KIOB 181115Z AUTO 00000KT 10SM OVC022 00/M03 A3001 RMK AO2
