2015/12/18 10:52
KIOW 181052Z AUTO 28011KT 10SM CLR M06/M11 A3005 RMK AO2 SLP183 T10561106
