2015/12/18 11:15
KIPJ 181115Z AUTO 00000KT 10SM SCT011 11/10 A2979 RMK AO2 T01060101
