2015/12/18 11:15
KIPN 181115Z AUTO 33010G19KT 280V360 10SM FEW026 BKN031 18/08 A3007 RMK A01
