2015/12/18 10:54
KIPT 181054Z AUTO 27007KT 10SM OVC037 04/M01 A2982 RMK AO2 SLP101 T00391011
