2015/12/18 10:55
KIRK 181055Z AUTO 26006KT 10SM CLR M06/M10 A3011 RMK AO2 SLP210 T10561100
