2015/12/18 11:15
KIRS 181115Z AUTO 24008KT 10SM CLR M04/M06 A2988 RMK AO2 T10361056
