2015/12/18 02:50
KISM 180250Z 00000KT 10SM SKC 23/21 A2995 RMK LAST
