2015/12/18 10:35
KISO 181035Z AUTO 19007KT 7SM -RA SCT005 SCT008 BKN017 19/19 A2972 RMK AO2 T01870185
