2015/12/18 10:56
KISP 181056Z 29004KT 10SM BKN022 OVC065 12/11 A2968 RMK AO2 SLP048 FIRST AUGMENTED OBSERVATION T01170106
