2015/12/18 11:14
KISQ 181114Z AUTO 24006KT 10SM SCT030 BKN038 M04/M09 A2970 RMK AO2 T10411090
