2015/12/18 10:54
KISW 181054Z AUTO 27009G17KT 10SM OVC035 M07/M14 A2983 RMK AO2 SLP118 T10671139
