2008/09/13 11:04
KISY 131104Z 15020G29KT 10SM SCT019 OVC033 28/24 A2977 RMK AO2 PK WND 15029/1101 
