2015/12/18 10:56
KITH 181056Z AUTO 32008KT 10SM OVC027 02/M01 A2981 RMK AO2 SLP099 T00171011 FZRANO $
