2015/12/18 10:53
KITR 181053Z AUTO 22013KT 10SM CLR M09/M13 A3001 RMK AO2 SLP209 T10941128
