2015/12/18 11:15
KIWA 181115Z AUTO 15006KT 10SM CLR 00/M01 A3018 RMK AO2
