2015/12/18 11:15
KIWD 181115Z AUTO 25015G20KT 10SM OVC023 M09/M12 A2969 RMK AO1
