2015/12/18 10:53
KIWI 181053Z AUTO VRB04KT 10SM OVC004 07/06 A2963 RMK AO2 SLP034 T00720061
