2015/12/18 11:15
KIXA 181115Z AUTO 01004KT 7SM -RA BKN010 12/12 A2974 RMK AO2 P0004
