2015/12/18 10:53
KIXD 181053Z AUTO 22006KT 10SM CLR M06/M09 A3019 RMK AO2 SLP235 T10611089
