2015/12/18 11:14
KIZA 181114Z AUTO 00000KT 10SM CLR 01/00 A3012 RMK AO2
