2015/12/18 11:15
KIZG 181115Z AUTO 00000KT 1/2SM FG SCT002 OVC027 01/01 A2965 RMK AO2 T00110011
