2015/12/18 11:15
KJAC 181115Z 23010KT 2SM OVC015 M07/M07 A3001 RMK AO1
