2015/12/18 10:54
KJAN 181054Z AUTO 00000KT 10SM CLR 01/M01 A3017 RMK AO2 SLP216 T00061011
