2015/12/18 11:15
KJAS 181115Z AUTO 34006KT 10SM CLR 05/02 A3027 RMK AO2 T00470021
