2015/12/18 11:15
KJAU 181115Z AUTO 00000KT 10SM OVC022 01/M03 A2999 RMK
