2015/12/18 11:20
KJAX 181120Z 25006KT 2SM RA BR BKN008 BKN013 OVC048 22/21 A2988 RMK AO2 P0002 T02170211
