2015/12/18 10:53
KJBR 181053Z AUTO 28004KT 10SM OVC034 02/M02 A3020 RMK AO2 SLP227 T00171022
