2015/12/18 10:51
KJCT 181051Z AUTO 30003KT 10SM CLR M03/M06 A3030 RMK AO2 SLP250 T10331056
