2015/12/18 10:48
KJDN 181048Z AUTO 28004KT M23/M25 A2996 RMK AO1 SLP213 T12331250 
