2015/12/18 10:53
KJEF 181053Z AUTO 29009KT 10SM CLR M03/M07 A3018 RMK AO2 SLP216 T10281067 TSNO
