2015/12/18 11:26
KJER 181126Z AUTO 02019G23KT 10SM BKN032 OVC047 M04/M06 A3002 RMK AO2 FZRAB02E20 P0000 I1001 T10391056
