2015/12/18 11:15
KJES 181115Z AUTO 29007KT 10SM BKN011 OVC017 20/18 A2989 RMK AO2
