2015/12/18 10:51
KJFK 181051Z 25007KT 10SM FEW025 BKN065 OVC220 12/10 A2973 RMK AO2 SLP068 T01220100
