2015/12/18 11:15
KJGG 181115Z AUTO 04004KT 10SM SCT012 BKN027 12/12 A2977 RMK AO1
