2015/12/18 11:15
KJHW 181115Z AUTO 28008KT 10SM OVC031 M01/M05 A2980 RMK AO1
