2015/12/18 11:12
KJKJ 181112Z AUTO 32011KT 10SM OVC031 M11/M15 A2986 RMK AO2
