2015/12/18 10:53
KJLN 181053Z AUTO 24004KT 10SM CLR M04/M07 A3025 RMK AO2 SLP252 T10441067
