2015/12/18 11:14
KJMR 181114Z AUTO 27005KT 10SM SCT015 BKN034 M09/M13 A2984 RMK AO2
