2015/12/18 11:24
KJMS 181124Z AUTO 32015KT 4SM -SN SCT020 BKN025 OVC032 M12/M14 A2985 RMK AO2 UPE1058SNB1058 P0000 T11171144
