2015/12/18 11:15
KJNX 181115Z AUTO 00000KT 10SM RA BKN007 OVC019 15/15 A2976 RMK AO2 P0002
