2015/12/18 11:15
KJOT 181115Z AUTO 24007KT 10SM OVC033 M02/M06 A2995 RMK AO2 T10201059
