2015/12/18 11:15
KJQF 181115Z AUTO 00000KT 5SM BR SCT017 12/12 A2980 RMK AO2
