2015/12/18 11:16
KJST 181116Z AUTO 29009KT 10SM OVC013 M02/M05 A2981 RMK AO2 T10171050
