2015/12/18 11:15
KJTC 181115Z AUTO 00000KT 10SM CLR M08/M15 A3024 RMK AO2
