2015/12/18 10:35
KJVL 181035Z AUTO 22005KT 10SM OVC038 M03/M08 A2989 RMK AO2
