2008/11/20 14:20
KJVU 201420Z AUTO 26008KT 10SM SCT030 SCT045 OVC060 01/M05 A2988 RMK AO2
