2015/12/18 11:15
KJVW 181115Z AUTO 00000KT 1SM HZ CLR M00/M03 A3019 RMK AO2
