2013/04/03 01:45
KJVY 030145Z 34005KT 10SM CLR 00/M11 A3027 RMK LAST
