2015/12/18 11:15
KJWN 181115Z AUTO 00000KT 10SM OVC030 M01/M03 A3010 RMK
