2015/12/18 11:15
KJWY 181115Z AUTO 31004KT 10SM CLR 00/00 A3033 RMK AO2 T00001005
