2015/12/18 11:16
KJXI 181116Z AUTO 33008KT 10SM CLR 02/M01 A3030 RMK AO2
