2015/12/18 10:56
KJXN 181056Z AUTO 24009KT 10SM SCT036 M02/M06 A2985 RMK AO2 SLP120 T10171061 TSNO
