2015/12/18 11:14
KJYG 181114Z AUTO 20003KT 10SM BKN080 OVC085 M07/M10 A2992 RMK AO2
