2015/12/18 11:15
KJYL 181115Z AUTO 30011G14KT 10SM SCT007 BKN012 OVC055 16/16 A2989 RMK AO2 T01610159
