2015/12/18 11:15
KJYM 181115Z AUTO 24005KT 10SM CLR M03/M05 A2986 RMK AO2 T10261054
