2015/12/18 11:15
KJYO 181115Z AUTO 36006KT 10SM OVC060 06/02 A2985 RMK AO2
