2015/12/18 11:15
KJYR 181115Z AUTO 25010KT 10SM CLR M08/M10 A3005 RMK AO2
