2015/12/18 11:15
KJZI 181115Z AUTO 23007G13KT 10SM FEW010 BKN050 OVC080 20/19 A2981 RMK AO2
