2013/09/03 18:35
KK22 031835Z AUTO 36004KT 10SM SCT042 SCT050 25/16 A3001 RMK AO2 T02480158
