2007/12/21 15:50
KK46 211550Z AUTO 15010KT 4SM BR CLR 01/00 A2973 RMK AO2
