2015/12/18 11:15
KK88 181115Z AUTO 20004KT M07/M08 A3024 RMK AO1 T10731084
