2015/12/18 11:15
KKLS 181115Z AUTO 14004KT 10/07 A2960 RMK AO1
