2009/10/30 06:52
KKZZ 300652Z AUTO 02003KT 02/M10 A3005 RMK AO2  LP165 T00221100 PWINO FZRANO TSNO 
