2014/01/31 16:50
KL01 311650Z AUTO 13013G19KT 9SM FEW044 13/11 A3008 RMK A01
