2015/12/11 14:30
KL18 111430Z AUTO 27005KT 10SM CLR 12/09 A2985 RMK AO2
