2015/12/18 10:53
KLAA 181053Z AUTO 00000KT 9SM CLR M13/M14 A3008 RMK AO2 SLP225 I1000 T11331144 TSNO
