2015/12/18 10:54
KLAF 181054Z AUTO 26005KT 10SM FEW120 M03/M06 A2999 RMK AO2 SLP162 T10331056
