2015/12/18 10:50
KLAL 181050Z 21007KT 10SM OVC006 23/23 A2994 RMK FIRST
