2015/12/18 11:15
KLAM 181115Z AUTO 00000KT 10SM CLR M05/M16 A3020 RMK AO2 T10531165
