2015/12/18 10:53
KLAN 181053Z 24012KT 10SM OVC038 M01/M06 A2984 RMK AO2 SLP113 T10061056
