2015/12/18 11:17
KLAR 181117Z AUTO 23030G43KT 3SM BLSN CLR M07/M12 A2990 RMK AO2 PK WND 23044/1103 PRESRR T10671117
