2015/12/18 10:56
KLAS 181056Z 22003KT 10SM CLR 02/M09 A3019 RMK AO2 SLP229 T00221089
