2015/12/18 10:53
KLAW 181053Z 00000KT 10SM CLR M04/M06 A3031 RMK AO2 SLP275 T10441061
