2015/12/18 10:53
KLAX 181053Z VRB04KT 10SM CLR 11/M02 A3011 RMK AO2 SLP195 T01061017
