2008/07/07 19:50
KLBA 071950Z VRB03KT 32/29 Q0997
