2015/12/18 10:53
KLBB 181053Z 25003KT 10SM CLR M05/M08 A3022 RMK AO2 SLP242 T10501078
