2015/12/18 10:53
KLBF 181053Z AUTO 28008KT 10SM CLR M12/M15 A3002 RMK AO2 SLP207 T11171150
