2015/12/18 11:15
KLBL 181115Z 24004KT 1/2SM OVC001 M09/M12 A3017 RMK AO1
