2014/08/29 14:15
KLBR 291415Z AUTO 13003KT 4SM SCT014 BKN019 BKN040 27/24 A2993 RMK AO1 T02710239
