2015/12/18 11:12
KLBT 181112Z AUTO 25007KT 5SM RA BR FEW008 BKN070 OVC110 18/17 A2973 RMK AO2 P0003 T01830167
