2015/12/18 11:15
KLCI 181115Z AUTO 24005KT 9SM CLR 04/02 A2965 RMK AO1
