2015/12/18 11:15
KLCQ 181115Z AUTO 27006KT 7SM OVC008 20/20 A2990 RMK AO2
