2015/12/18 11:15
KLDJ 181115Z AUTO 32011KT 10SM BKN028 OVC065 09/06 A2976 RMK AO2 T00940057
