2015/12/18 11:15
KLDM 181115Z AUTO 26009G15KT 230V290 10SM OVC036 M02/M08 A2982 RMK AO2 T10201085
