2015/12/18 11:00
KLEB 181100Z 00000KT 3SM BR BKN013 OVC018 07/06 A2968 RMK AO2 T00720056
