2015/12/18 10:53
KLEE 181053Z AUTO 20009KT 4SM -RA BR SCT012 BKN050 OVC065 23/22 A2992 RMK AO2 RAE13B29 SLP130 P0008 T02280217
