2015/12/18 11:15
KLEW 181115Z 00000KT 1/2SM OVC002 03/02 A2964 RMK AO1
