2015/12/18 10:54
KLEX 181054Z 28007KT 10SM OVC020 M01/M04 A3000 RMK AO2 SLP166 T10061044
