2015/12/18 11:23
KLFI 181123Z AUTO 01007KT 9SM R26/5500FT BKN007 OVC012 12/12 A2975 RMK AO2 RAE10 CIG 006V008 $
