2015/12/18 10:51
KLGA 181051Z 30011KT 10SM SCT016 BKN065 OVC220 12/11 A2971 RMK AO2 SLP061 T01190111 $
