2015/12/18 10:53
KLGB 181053Z AUTO 29004KT 10SM CLR 09/01 A3011 RMK AO2 SLP195 T00890006 TSNO
