2015/12/18 11:15
KLGC 181115Z AUTO 32007KT 10SM CLR 07/07 A3002 RMK AO2 T00650065
