2015/12/18 11:15
KLGD 181115Z AUTO 18013G20KT 10SM OVC019 02/M03 A2982 RMK AO1
