2015/12/18 10:51
KLGU 181051Z AUTO 00000KT 10SM OVC039 M05/M08 A3016 RMK AO2 SLP247 T10501083
