2015/12/18 11:15
KLHB 181115Z AUTO 36005KT 10SM CLR 02/00 A3031 RMK AO2 T00151005
