2015/12/18 10:53
KLHQ 181053Z AUTO 27008KT 10SM OVC025 M01/M06 A2996 RMK AO2 SLP151 T10061061
