2015/12/18 11:05
KLHW 181105Z AUTO 31016G18KT 10SM OVC012 19/18 A2984 RMK AO2 WSHFT 1055
