2015/12/18 10:53
KLHX 181053Z AUTO 36005KT 10SM OVC006 M07/M09 A3007 RMK AO2 SLP211 T10671089
