2015/12/18 11:15
KLHZ 181115Z AUTO 00000KT 5SM RA SCT024 SCT037 OVC095 12/12 A2979 RMK AO2 P0001
