2015/12/18 10:55
KLIC 181055Z AUTO 34003KT 10SM CLR M19/M21 A2998 RMK AO2 SLP232 T11941211
