2015/12/18 10:53
KLIT 181053Z 26007KT 10SM BKN032 04/00 A3024 RMK AO2 SLP245 T00440000
