2015/12/18 11:13
KLJF 181113Z AUTO 00000KT 10SM OVC028 M09/M11 A2987 RMK AO2
