2015/12/18 11:15
KLKU 181115Z AUTO 03006KT 10SM OVC026 08/06 A2980 RMK AO2
