2015/12/18 11:15
KLKV 181115Z 18019G25KT 10SM BKN026 OVC033 02/M02 A2993 RMK AO1
