2015/12/18 10:55
KLLJ 181055Z AUTO 00000KT 6SM -SN BR OVC050 M09/M12 A2999 RMK AO2 SNB34 SLP216 P0000 T10941117
