2015/12/18 10:53
KLLQ 181053Z AUTO 28003KT 10SM CLR M01/M01 A3022 RMK AO2 SLP234 T10061011
