2008/05/18 15:55
KLLR 181555Z 26005KT 25SM 12/09 A3008
