2015/12/18 11:14
KLMO 181114Z AUTO 23004KT 10SM CLR M16/M19 A2995 RMK AO2 T11641190
