2015/12/18 11:15
KLNC 181115Z AUTO 34005KT 10SM CLR 01/M02 A3032 RMK AO2 T00101017
