2015/12/18 10:53
KLND 181053Z AUTO 13003KT 10SM CLR M13/M19 A2989 RMK AO2 SLP190 T11331194
