2015/12/18 10:54
KLNK 181054Z AUTO 25011KT 10SM CLR M07/M10 A3008 RMK AO2 SLP203 T10671100
