2015/12/18 11:15
KLNL 181115Z AUTO 27006KT 10SM -SN OVC020 M09/M12 A2969 RMK AO2 T10901117
