2015/12/18 11:15
KLNN 181115Z AUTO 22007KT 10SM OVC033 01/M06 A2989 RMK AO1 T00051062
