2015/12/17 11:56
KLNR 171156Z AUTO 28010KT 10SM OVC030 M02/M08 A2981 RMK AO2 SLP096 7//// T10171078 11006 21022 53021
