2015/12/18 10:53
KLNS 181053Z 32013KT 10SM OVC060 04/M01 A2982 RMK AO2 SLP098 T00441006
