2015/12/18 10:53
KLOR 181053Z AUTO 34006KT 10SM CLR 06/02 A3004 RMK AO2 SLP170 T00610022 
