2015/12/18 11:15
KLOT 181115Z AUTO 26009KT 10SM OVC030 M03/M06 A2994 RMK AO2 T10301065
