2015/12/18 10:53
KLOZ 181053Z AUTO 29004KT 10SM OVC018 M01/M03 A3000 RMK AO2 SLP163 T10061028
