2015/12/18 11:15
KLPC 181115Z AUTO 09006KT 10SM CLR 03/00 A3012 RMK AO1
