2015/12/18 10:53
KLPR 181053Z AUTO 27008KT 10SM OVC034 00/M07 A2992 RMK AO2 SLP138 T00001067 TSNO
