2015/12/18 11:35
KLQK 181135Z AUTO 00000KT 10SM CLR 05/05 A2983 RMK AO2 T00540050
