2015/12/18 10:56
KLRD 181056Z AUTO 03013KT 10SM CLR 08/M03 A3029 RMK AO2 SLP265 T00831033 TSNO
