2015/12/18 10:58
KLRF 181058Z AUTO 26004KT 10SM OVC030 03/M01 A3023 RMK AO2 SLP241 T00301006
