2015/12/18 11:15
KLRJ 181115Z AUTO 22008KT 10SM CLR M07/M10 A2997 RMK AO2
