2015/12/15 14:55
KLRO 151455Z AUTO 28004KT 10SM CLR 18/14 A2991 RMK AO2 PWINO PNO
