2015/12/18 11:15
KLSB 181115Z AUTO 13003KT 10SM CLR M06/M08 A3023 RMK AO2
