2015/12/18 10:53
KLSE 181053Z AUTO 27010G19KT 10SM OVC033 M06/M13 A2991 RMK AO2 SNE17 SLP142 P0000 T10611128
