2015/12/18 10:58
KLSF 181058Z AUTO 28006KT 10SM CLR 06/06 A3001 RMK AO2 SLP165 T00640058
