2015/12/18 10:58
KLSV 181058Z AUTO 00000KT 10SM CLR 01/M08 A3024 RMK AO2 SLP246 T00051083 $
