2015/12/18 10:58
KLTS 181058Z AUTO 29001KT 10SM CLR M04/M07 A3030 RMK AO2 SLP272 T10421069 $
