2015/12/18 11:15
KLUA 181115Z AUTO 03007KT 10SM BKN065 BKN080 04/02 A2982 RMK AO2
