2015/12/18 11:15
KLUD 181115Z AUTO 33003KT 10SM CLR M03/M03 A3031 RMK AO2 T10261033
