2015/12/18 10:58
KLUF 181058Z AUTO 02006KT 10SM CLR 03/M02 A3016 RMK AO2 SLP215 T00251025 $
