2011/09/08 16:45
KLUG 081645Z AUTO VRB04KT 10SM BKN036 BKN060 21/12 A3000 RMK AO1 BKN V SCT $ 
