2015/12/18 11:15
KLUL 181115Z AUTO 00000KT 10SM CLR 01/01 A3018 RMK AO2 T00090009
