2015/12/18 11:15
KLUM 181115Z AUTO 23011G14KT 7SM -SN SCT016 SCT022 OVC031 M08/M12 A2986 RMK AO2 T10801117
