2015/12/18 11:35
KLUX 181135Z AUTO 26006KT 10SM CLR 08/07 A2983 RMK AO2
