2015/12/18 10:53
KLVJ 181053Z AUTO 33005KT 10SM CLR 08/00 A3027 RMK AO2 SLP251 T00780000
