2015/12/18 10:53
KLVK 181053Z AUTO 00000KT 9SM CLR 03/01 A3013 RMK AO2 SLP204 T00330011
