2015/12/18 11:00
KLVM 181100Z AUTO 22037G43KT 2SM -SN BKN048 OVC070 M03/M08 A2978 RMK AO2 PK WND 22043/1059 VIS 1V5 UPB1055E1056SNE1055B1056 P0000 T10281078
