2015/12/18 11:00
KLVN 181100Z AUTO 25007KT 10SM SCT046 M11/M13 A2989 RMK AO2
