2015/12/18 10:53
KLVS 181053Z AUTO 18005KT 10SM CLR M08/M14 A3006 RMK AO2 SLP193 T10781144
