2015/12/18 11:15
KLWA 181115Z AUTO 26014G18KT 10SM BKN029 OVC038 00/M06 A2988 RMK AO2 T10021057
