2015/12/18 11:15
KLWB 181115Z AUTO 31005KT 10SM OVC015 03/00 A2984 RMK AO2 T00271002
