2015/12/18 10:52
KLWC 181052Z AUTO 25004KT 10SM CLR M07/M09 A3020 RMK AO2 SLP235 T10671094
