2015/12/18 10:53
KLWD 181053Z AUTO 24010KT 10SM CLR M06/M09 A3006 RMK AO2 SLP195 T10611094
