2015/12/18 10:54
KLWM 181054Z AUTO 21003KT 10SM SCT100 07/06 A2968 RMK AO2 SLP050 T00720061
