2015/12/18 10:56
KLWS 181056Z AUTO 00000KT 10SM OVC070 03/00 A2976 RMK AO2 SLP089 T00280000
