2015/12/18 10:54
KLWT 181054Z AUTO 13009KT 10SM SCT120 M08/M14 A2979 RMK AO2 SLP144 T10831139
