2015/12/18 10:53
KLWV 181053Z AUTO 27007KT 10SM OVC042 01/M05 A3007 RMK AO2 SLP185 T00061050 $
