2015/12/18 11:15
KLXN 181115Z AUTO 28008KT 10SM CLR M12/M15 A3004 RMK AO2 T11221151
