2015/12/18 10:53
KLXT 181053Z AUTO 24005KT 10SM CLR M05/M09 A3017 RMK AO2 SLP230 T10501089 $
