2015/12/18 10:53
KLXV 181053Z AUTO 35011G16KT 10SM BKN029 OVC034 M09/M14 A3010 RMK AO2 UPE0955 SLP216 P0000 T10891139
