2015/12/18 11:15
KLXY 181115Z AUTO 31004KT 10SM CLR 01/M01 A3030 RMK AO2 T00091010
