2015/12/18 11:15
KLYV 181115Z AUTO 25007KT 10SM CLR M09/M11 A2991 RMK AO2
