2015/12/18 01:45
KLZU 180145Z 29005KT 10SM CLR 13/08 A2986 RMK JW
