2011/09/28 05:55
KM16 280555Z AUTO 00000KT 9SM VCTS CLR 23/22 A2990 RMK AO2 LTG DSNT N AND NE
