2015/12/18 10:56
KM19 181056Z AUTO 32007KT 10SM OVC034 02/M02 A3023 RMK AO2 T00221022 SLP236
