2015/12/18 11:15
KM30 181115Z AUTO 29005KT 10SM OVC033 01/M03 A3014 RMK AO2 T00121027
