2009/07/16 12:45
KM33 161245Z AUTO 27004KT 10SM OVC022 23/22 A3007 RMK AO1 T02330216 $ 
