2015/12/18 11:35
KM40 181135Z AUTO 33004KT 8SM CLR 00/M07 A3018 RMK AO2
