2013/07/11 18:13
KM46 111813Z 30016G22KT 1SM M13/M17 A2980 RMK Col trip 
