2015/12/18 10:56
KM63 181056Z AUTO 10004KT 10SM CLR 01/M12 A3022 RMK AO2 SLP220 T00081123
