2012/11/23 13:56
KM89 231356Z AUTO 03007KT 10SM -RA OVC031 14/12 A3030 RMK AO2 T01380116 OVC V BKN P0002 SLP275
