2015/12/01 20:15
KM91 012015Z AUTO 26005KT 10SM OVC022 11/11 A2994 RMK
