2015/12/18 10:53
KMAE 181053Z AUTO 10005KT 6SM BR CLR 02/00 A3019 RMK AO2 SLP222 T00170000
