2015/12/18 11:15
KMAN 181115Z AUTO 16009G15KT 10SM BKN075 OVC100 02/02 A2997 RMK AO1 
