2015/12/18 10:52
KMBG 181052Z AUTO 30011KT 10SM OVC032 M11/M13 A2989 RMK AO2 SLP152 T11061133 $
