2015/12/18 11:15
KMBL 181115Z AUTO 26011G15KT 10SM SCT033 OVC041 M02/M12 A2980 RMK AO1
