2015/12/18 11:15
KMBO 181115Z AUTO 00000KT 10SM CLR M03/M03 A3017 RMK AO2
