2015/12/18 10:53
KMBS 181053Z 24011KT 10SM OVC044 01/M06 A2980 RMK AO2 SLP099 T00111061
