2015/12/18 10:53
KMCB 181053Z AUTO 00000KT 10SM CLR 02/01 A3017 RMK AO2 SLP217 T00170006
