2015/12/18 11:15
KMCC 181115Z AUTO 15004KT 10SM CLR 04/01 A3016 RMK AO2
