2015/12/18 11:16
KMCD 181116Z AUTO 27014G26KT 10SM SCT005 BKN033 OVC050 M02/M06 A2967 RMK AO2 T10181057
