2015/12/18 10:53
KMCE 181053Z AUTO 11006KT 7SM CLR 01/M01 A3017 RMK AO2 SLP218 T00061006
