2015/12/18 11:03
KMCF 181103Z AUTO 24007KT 10SM FEW007 22/22 A2993 RMK AO2 $
