2015/12/18 10:53
KMCI 181053Z 22007KT 10SM CLR M07/M09 A3016 RMK AO2 SLP223 T10721094
