2015/12/18 11:15
KMCJ 181115Z AUTO 31012G15KT 10SM CLR 07/00 A3024 RMK AO1 
