2015/12/18 10:53
KMCK 181053Z AUTO 28008KT 10SM CLR M12/M14 A3006 RMK AO2 SLP217 T11171144
