2015/12/18 10:53
KMCN 181053Z AUTO 30008KT 10SM CLR 08/06 A2996 RMK AO2 SLP143 T00780056 TSNO
