2015/12/18 11:20
KMCO 181120Z 21007KT 10SM BKN008 OVC018 22/21 A2994 RMK AO2 T02220211
