2015/12/18 10:53
KMCW 181053Z AUTO 26007KT 10SM CLR M08/M13 A2995 RMK AO2 SLP155 T10831128
