2015/12/18 11:15
KMCX 181115Z AUTO 26005KT 10SM SCT110 M03/M06 A2997 RMK AO2 T10301062
