2015/12/18 11:15
KMDD 181115Z AUTO 00000KT 10SM CLR M02/M05 A3027 RMK AO2 T10201053
