2015/12/18 10:52
KMDH 181052Z AUTO 28007KT 10SM OVC043 01/M05 A3012 RMK AO2 SLP203 T00111050
