2015/12/18 11:10
KMDS 181110Z AUTO 26012G18KT 10SM SCT060 M09/M10 A2987 RMK AO2
