2015/12/18 10:56
KMDT 181056Z 33010KT 10SM BKN031 BKN090 04/M02 A2983 RMK AO2 SLP103 T00441017
