2015/12/18 10:53
KMDW 181053Z 29008KT 10SM OVC030 M02/M09 A2993 RMK AO2 SLP148 T10221089
