2015/12/18 11:15
KMDZ 181115Z AUTO 26009KT 3SM -SN OVC017 M09/M12 A2976 RMK AO2 T10931117
