2015/12/18 11:24
KMEB 181124Z AUTO 29005KT 7SM -RA SCT022 BKN037 OVC065 17/15 A2976 RMK AO2 P0003 T01670150
