2015/12/18 10:56
KMEH 181056Z AUTO 00000KT 10SM OVC060 00/M03 A2972 RMK AO2 SLP089 T00001028 
