2015/12/18 10:54
KMEM 181054Z 28004KT 10SM FEW040 00/M02 A3019 RMK AO2 SLP223 T00001022
