2015/12/18 11:15
KMER 181115Z AUTO 00000KT 5SM CLR 01/01 A3017 RMK AO1
