2015/12/18 10:52
KMFD 181052Z AUTO 24006KT 10SM OVC027 M02/M07 A2991 RMK AO2 SLP140 T10171072
