2015/12/18 10:53
KMFE 181053Z AUTO 31004KT 10SM CLR 08/03 A3027 RMK AO2 SLP249 T00830033
