2015/12/18 11:11
KMFI 181111Z AUTO 28015G20KT 10SM BKN027 OVC032 M08/M14 A2980 RMK AO2 T10781139
