2015/12/18 10:53
KMFR 181053Z AUTO 36008KT 10SM -RA FEW049 OVC060 07/06 A2981 RMK AO2 SLP097 P0001 T00670056
