2015/12/18 11:10
KMFV 181110Z AUTO 03005KT 5SM RA OVC003 11/03 A2975 RMK AO2 P0002
