2015/12/18 11:15
KMGC 181115Z AUTO 24005KT 10SM BKN028 OVC034 M03/M06 A2993 RMK AO2
