2015/12/18 11:17
KMGG 181117Z AUTO 23005KT 10SM OVC033 M08/M11 A2987 RMK AO2 T10851115
