2015/12/18 10:54
KMGJ 181054Z AUTO 31004KT 10SM CLR 07/03 A2974 RMK AO2 SLP073 T00670033 TSNO
