2015/12/18 10:53
KMGM 181053Z AUTO 29008KT 10SM CLR 04/01 A3009 RMK AO2 SLP187 T00440011 TSNO
