2015/12/18 11:15
KMGN 181115Z AUTO 23017G23KT 1SM -SN BKN005 OVC009 M02/M03 A2970 RMK AO2 T10231037
