2015/12/18 10:53
KMGW 181053Z AUTO 28007KT 10SM OVC018 01/M04 A2991 RMK AO2 SLP134 T00061044 TSNO
