2015/12/18 10:53
KMHE 181053Z AUTO 27014KT 10SM CLR M08/M13 A2994 RMK AO2 SLP160 T10831128
