2015/12/18 10:52
KMHK 181052Z AUTO 23007KT 10SM CLR M08/M09 A3019 RMK AO2 SLP237 T10781094
