2015/12/18 11:15
KMHL 181115Z AUTO 24005KT CLR M02/M05 A3017 RMK AO2 PWINO
