2015/12/18 10:45
KMHR 181045Z 15006KT 10SM SKC 03/01 A3015
