2015/12/18 10:53
KMHT 181053Z VRB04KT 10SM SCT095 BKN250 06/06 A2965 RMK AO2 SLP054 T00610056
