2015/12/18 11:00
KMHV 181100Z AUTO 00000KT 9SM CLR M00/M08 A3019 RMK A01
