2015/12/18 10:53
KMIA 181053Z 00000KT 10SM FEW015 24/23 A2997 RMK AO2 SLP148 T02440233
