2015/12/18 10:58
KMIB 181058Z 30010KT 10SM CLR M16/M20 A2990 RMK AO2A SLP168 T11651198
