2015/12/18 10:53
KMIC 181053Z AUTO 25006KT 10SM BKN046 M09/M14 A2987 RMK AO2 SLP131 T10891139 TSNO
