2015/12/18 10:53
KMIE 181053Z AUTO 27007KT 10SM OVC034 M01/M06 A2996 RMK AO2 SLP153 T10111056
