2015/12/18 10:54
KMIV 181054Z AUTO 30008KT 10SM OVC050 09/07 A2977 RMK AO2 SLP078 T00940067
