2015/12/18 10:53
KMIW 181053Z AUTO 24007KT 10SM CLR M08/M11 A2999 RMK AO2 SLP170 T10831111
