2010/05/20 10:00
KMJP 201000Z 11010KT 99999 FEW020 SCT150 27/21 Q1010
