2015/12/18 11:13
KMJQ 181113Z AUTO 25008KT 10SM SCT038 SCT055 BKN090 M06/M10 A2989 RMK AO2
