2015/12/18 11:15
KMJX 181115Z AUTO 29005KT 10SM OVC060 11/09 A2974 RMK AO1
