2015/12/18 10:54
KMKC 181054Z 23007KT 10SM CLR M04/M08 A3019 RMK AO2 SLP229 T10391078
