2015/12/18 10:55
KMKG 181055Z 26011G19KT 10SM OVC038 M01/M09 A2985 RMK AO2 SLP114 FIRST AUGMENTED OBS OF THE DAY T10111089
