2015/12/18 11:15
KMKJ 181115Z AUTO 28011KT 10SM BKN016 BKN021 OVC035 04/02 A2986 RMK AO2 T00410016
