2015/12/18 10:53
KMKL 181053Z AUTO 27006KT 10SM BKN035 M01/M03 A3016 RMK AO2 SLP214 T10111033
