2015/12/18 11:15
KMKN 181115Z AUTO 32004KT 10SM CLR M02/M02 A3031 RMK AO2 T10201020
