2015/12/18 10:53
KMKO 181053Z AUTO 27005KT 10SM CLR M03/M06 A3032 RMK AO2 SLP272 T10331056
