2015/12/18 11:15
KMKS 181115Z AUTO 23007KT 7SM BKN009 OVC012 17/15 A2980 RMK AO2
