2015/12/18 11:15
KMKY 181115Z AUTO 16006KT 10SM CLR 24/21 A2995 RMK AO1
