2015/12/18 10:53
KMLB 181053Z 20009KT 10SM BKN005 23/22 A2993 RMK AO2 SLP134 T02280217
