2015/12/18 10:53
KMLC 181053Z AUTO 32004KT 10SM CLR M01/M04 A3032 RMK AO2 SLP270 T10061044
