2015/12/18 10:52
KMLF 181052Z AUTO 22015KT 10SM CLR M07/M11 A3017 RMK AO2 SLP259 T10671106
