2015/12/18 10:52
KMLI 181052Z AUTO 28015G23KT 10SM CLR M05/M12 A3001 RMK AO2 PK WND 28030/1008 SLP168 T10501117
