2015/12/18 11:15
KMLJ 181115Z AUTO 29009KT 10SM CLR 08/05 A2994 RMK AO2
