2015/12/18 10:53
KMLP 181053Z AUTO VRB05KT 1/2SM SN FZFG VV002 M04/M07 A2962 RMK AO2 SLP087 P0005 T10441067
