2015/12/18 11:10
KMLS 181110Z AUTO 32005KT 10SM BKN009 M16/M18 A2997 RMK AO2 T11561178
