2015/12/18 11:22
KMLT 181122Z AUTO 26003KT 1/2SM FG BKN003 OVC008 02/00 A2962 RMK AO2 T00170000
