2015/12/18 11:15
KMMH 181115Z AUTO 36004KT 10SM CLR M11/M12 A3019 RMK AO2
