2015/12/18 10:53
KMMK 181053Z AUTO 33007KT SCT080 BKN095 10/07 A2972 RMK AO2 SLP062 T01000067 TSNO
