2015/12/18 10:56
KMML 181056Z AUTO 26011KT 10SM BKN055 BKN080 M08/M11 A2988 RMK AO2 SLP142 T10831106 FZRANO
