2015/12/18 10:58
KMMT 181058Z AUTO 26007KT 10SM OVC075 15/13 A2981 RMK AO2 RAB12E33 SLP096 P0000 T01490133
