2015/12/18 11:15
KMMU 181115Z AUTO 32007G14KT 10SM OVC060 07/04 A2975 RMK AO2
