2015/12/18 10:53
KMMV 181053Z AUTO 21009KT 10SM SCT047 BKN065 OVC080 11/08 A2964 RMK AO2 RAE24 SLP036 P0000 T01060078
