2015/12/18 11:15
KMNE 181115Z AUTO 34004KT 10SM CLR 01/00 A3026 RMK AO2 T00100000
