2015/12/18 11:15
KMNH 181115Z AUTO 21007KT 10SM CLR M08/M16 A2993 RMK AO2
