2015/12/18 11:15
KMNI 181115Z AUTO 00000KT 5SM RA SCT009 BKN020 OVC028 16/16 A2981 RMK AO2 P0004
