2015/12/18 11:15
KMNM 181115Z AUTO 25007KT 10SM OVC047 M05/M12 A2976 RMK AO1
