2015/12/18 10:53
KMNN 181053Z AUTO 27007KT 10SM OVC028 M01/M08 A2994 RMK AO2 SLP148 T10111078 TSNO
