2015/12/18 11:22
KMNZ 181122Z AUTO 33005KT 10SM CLR M01/M01 A3032 RMK AO2
