2015/12/18 10:56
KMOB 181056Z AUTO 34007KT 10SM CLR 05/02 A3014 RMK AO2 SLP205 T00500017
