2015/12/18 10:53
KMOD 181053Z AUTO 11005KT 4SM BR CLR 01/M01 A3016 RMK AO2 SLP215 T00111011
