2015/12/18 11:15
KMOR 181115Z AUTO 28004KT 10SM SCT014 01/M01 A2996 RMK A01
