2015/12/18 10:54
KMOT 181054Z AUTO 29013KT 10SM FEW025 M15/M21 A2991 RMK AO2 SLP165 T11501206
