2015/12/18 11:14
KMOX 181114Z AUTO 30010KT 10SM OVC055 M11/M13 A2985 RMK AO2
