2015/12/18 11:19
KMPV 181119Z AUTO 31006KT 10SM OVC031 03/M01 A2975 RMK AO2 T00331006
