2015/12/18 11:15
KMPZ 181115Z AUTO 25006KT 10SM CLR M04/M09 A3007 RMK AO2 T10401088
