2015/12/18 10:54
KMQE 181054Z AUTO 28010KT 08/08 A2965 RMK AO1 SLP054 T00780078 
