2015/12/18 11:15
KMQI 181115Z AUTO 19008KT 4SM -RA SCT120 17/17 A2974 RMK AO2 P0001 T01670167
