2015/12/18 11:05
KMQJ 181105Z AUTO 26008KT 10SM OVC038 M02/M05 A2999 RMK AO2
