2015/12/18 11:15
KMQS 181115Z AUTO 31009KT 10SM OVC050 04/01 A2982 RMK AO2
