2010/01/22 22:50
KMQT 222250Z 14004KT 10SM SKC 00/M07 A3004
