2015/12/18 10:56
KMQY 181056Z AUTO 32008KT 10SM OVC026 01/M03 A3011 RMK AO2 T00051033 SLP210
