2015/12/18 10:53
KMRB 181053Z AUTO 31007KT 10SM FEW035 03/M02 A2985 RMK AO2 SLP109 T00331017 TSNO
