2015/12/18 11:15
KMRC 181115Z AUTO 00000KT 10SM CLR M02/M02 A3010 RMK
