2015/12/18 10:56
KMRF 181056Z AUTO 32005KT 10SM CLR M07/M11 A3026 RMK AO2 SLP255 T10721106 FZRANO
