2015/12/18 10:58
KMRH 181058Z AUTO 22011KT 5SM -RA BR FEW030 SCT060 OVC075 19/19 A2977 RMK AO2 SLP080 P0002 T01940189 TSNO
