2015/12/18 11:15
KMRJ 181115Z AUTO 28012KT 10SM SCT028 M05/M10 A2987 RMK AO2
