2015/12/18 11:15
KMRN 181115Z AUTO 32004KT CLR 07/04 A2986 RMK AO2 T00700044 PWINO
