2015/12/18 11:14
KMRT 181114Z AUTO 27004KT 10SM OVC025 M01/M05 A2994 RMK AO2 T10071051
