2015/12/18 10:54
KMRY 181054Z AUTO 10004KT 10SM CLR 06/02 A3013 RMK AO2 SLP215 T00610022 TSNO
