2008/10/12 16:53
KMSI 121653Z 09010G15KT 10SM BKN023 BKN060 26/21 A3010 RMK AO2 SLP196 BKN023 V SCT T02560206 $ 
