2015/12/18 10:53
KMSL 181053Z AUTO 32003KT 10SM CLR M01/M03 A3014 RMK AO2 SLP207 T10061033
