2015/12/18 10:53
KMSN 181053Z AUTO VRB04KT 10SM OVC038 M05/M11 A2986 RMK AO2 SLP123 T10501106
