2015/12/18 11:26
KMSO 181126Z AUTO 12010KT 1 1/2SM -SN BR OVC020 M06/M07 A2983 RMK AO2 P0001 T10561072
