2015/12/18 10:53
KMSP 181053Z 24007KT 10SM BKN047 M09/M14 A2989 RMK AO2 SLP138 T10941139
