2015/12/18 10:53
KMSS 181053Z AUTO 21004KT 10SM OVC048 03/00 A2977 RMK AO2 SLP084 T00280000
