2015/12/18 11:15
KMSV 181115Z AUTO 27004KT 10SM CLR 01/01 A2977 RMK AO1
