2015/12/18 10:53
KMSY 181053Z 36011KT 10SM BKN250 11/02 A3017 RMK AO2 SLP220 T01060022
