2015/12/18 10:58
KMTC 181058Z AUTO 24009KT 10SM OVC035 01/M06 A2984 RMK AO2 SLP114 T00081060 $
