2015/12/18 10:53
KMTH 181053Z AUTO 00000KT 10SM FEW036 24/23 A2996 RMK AO2 SLP144 T02440233
