2015/12/18 10:53
KMTJ 181053Z AUTO 14005KT 10SM OVC055 M07/M12 A3031 RMK AO2 SLP286 T10671117
