2015/12/18 10:45
KMTN 181045Z 31009KT 10SM OVC050 09/05 A2982 RMK FIRST
