2015/12/18 10:53
KMTO 181053Z AUTO 25005KT 10SM CLR M03/M06 A3003 RMK AO2 SLP177 T10281056
