2015/12/18 10:54
KMTP 181054Z AUTO 00000KT 12/11 A2971 RMK AO1 SLP059 T01220111 
