2015/12/18 11:15
KMTV 181115Z AUTO 01003KT 10SM BKN039 OVC047 09/03 A2981 RMK AO2 T00880027
