2015/12/18 10:56
KMTW 181056Z AUTO 27011G18KT 10SM OVC039 M03/M11 A2982 RMK AO2 SLP120 T10331106 FZRANO
