2015/12/18 10:58
KMUI 181058Z AUTO VRB04KT 10SM CLR 03/M03 A2982 RMK AO2 SLP103 T00331026
