2015/12/18 09:45
KMUO 180945Z 10020G28KT 10SM SCT004 OVC100 M01/M01 A3002 RMK A02A CIG 004 RWY30 SLP191
