2015/12/18 11:15
KMUT 181115Z AUTO 29016KT 10SM CLR M05/M11 A3006 RMK AO2
