2015/12/18 11:01
KMVE 181101Z AUTO 27004KT 10SM OVC043 M11/M13 A2989 RMK AO2
