2015/12/18 11:15
KMVH 181115Z AUTO 00000KT 10SM OVC100 M12/M17 A2982 RMK AO2
