2015/12/18 10:54
KMVL 181054Z AUTO 33003KT 10SM OVC034 04/03 A2973 RMK AO2 SLP075 T00440033
