2015/12/18 11:15
KMVN 181115Z AUTO 27005KT 10SM OVC046 01/M06 A3011 RMK AO1
