2015/12/18 10:53
KMVY 181053Z AUTO 00000KT 7SM OVC002 12/11 A2969 RMK AO2 SLP055 T01170111
