2015/12/18 11:15
KMWA 181115Z AUTO 27003KT 10SM OVC043 01/M03 A3012 RMK AO2
