2015/12/18 11:14
KMWH 181114Z AUTO 13004KT 6SM BR OVC003 M01/M02 A2967 RMK AO2 FZRAE08 PRESFR P0000 I1000 T10061017
