2015/12/18 11:15
KMWK 181115Z AUTO 33003KT 10SM SCT043 09/07 A2980 RMK AO2 T00900066
