2015/12/18 10:53
KMWL 181053Z AUTO 33005KT 10SM CLR M02/M03 A3030 RMK AO2 SLP263 T10171033
