2015/12/18 11:14
KMWM 181114Z AUTO 26008KT 10SM SCT037 BKN044 OVC060 M07/M09 A2987 RMK AO2
