2015/12/18 11:15
KMWO 181115Z AUTO 26005KT 10SM OVC027 01/M05 A3001 RMK AO2 T00121052
