2015/12/18 10:53
KMWT 181053Z AUTO VRB05KT 10SM OVC020 03/M02 A3022 RMK AO2 SLP239 T00281022 $ 
