2015/12/18 10:58
KMXF 181058Z AUTO 30006KT 10SM CLR 04/02 A3007 RMK AO2 SLP186 T00390016
