2015/12/18 11:15
KMXO 181115Z AUTO 28010G17KT 10SM CLR M07/M11 A2998 RMK AO2
