2011/03/01 02:13
KMXS 010213Z AUTO 13003KT 5SM UP BR SCT014 BKN022 OVC031 02/M01 A3005 RMK AO2 P0000 TSNO 
