2015/12/18 10:53
KMYF 181053Z AUTO 09004KT 10SM CLR 08/01 A3011 RMK AO2 SLP193 T00830006 TSNO
