2015/12/18 10:51
KMYL 181051Z AUTO 01003KT 1 3/4SM -SN BR OVC009 M03/M04 A2988 RMK AO2 SLP160 P0005 T10331044
