2015/12/18 10:53
KMYV 181053Z AUTO 18006KT 10SM BKN028 OVC036 06/04 A3015 RMK AO2 SLP213 T00560039
