2015/12/18 11:15
KMYZ 181115Z AUTO 23006KT 10SM CLR M07/M08 A3013 RMK AO2
