2015/12/18 11:15
KMZG 181115Z AUTO 36023G28KT 10SM CLR 15/07 A3023 RMK A01
