2015/12/18 11:14
KMZH 181114Z AUTO 25004KT 10SM OVC030 M10/M13 A2978 RMK AO2
