2015/12/18 11:15
KMZZ 181115Z AUTO 25007KT 10SM CLR M03/M08 A2997 RMK AO2 T10321077
