2015/12/18 11:15
KN03 181115Z AUTO 00000KT 10SM OVC032 02/00 A2979 RMK AO2
