2015/12/18 11:15
KN38 181115Z AUTO 27003KT 10SM FEW022 OVC030 01/M03 A2978 RMK AO2
