2015/12/18 10:52
KN60 181052Z AUTO 32020KT M13/M17 A2991 RMK AO1 PK WND 32027/1000 SLP167 T11281167 
