2015/12/18 10:56
KNBC 181056Z AUTO 24011KT 10SM BKN010 BKN080 19/19 A2982 RMK AO2 RAB16E26 CIG 008V013 SLP098 P0000 T01940189 
