2015/12/18 10:55
KNBG 181055Z 36004KT 10SM BKN250 09/04 A3017 RMK AO2 SLP214 T00940039 $ 
