2011/11/29 08:55
KNBO 290855Z AUTO 24003KT 3SM BR CLR 01/M02 A3004 RMK AO2 SLP170 T00061017 58007 FZRANO TSNO $ 
