2012/03/15 12:55
KNBW 151255Z 05004KT 1/2M FG BKN002 OVC250 17/15 A3025 RMK AO2 SLP243 T01670150 $ 
