2015/12/18 10:56
KNCA 181056Z AUTO 23008KT 7SM -RA BKN070 OVC090 20/18 A2973 RMK AO2 SLP070 P0011 T02000183 
