2015/12/18 10:56
KNDZ 181056Z AUTO 33004KT 10SM CLR 07/02 A3010 RMK AO2 SLP179 T00670022 $ 
