2015/12/13 12:23
KNEL 131223Z AUTO 00000KT 2 1/2SM BR CLR 11/11 A3015 RMK AO2 T01110106 
