2015/12/18 10:53
KNEW 181053Z 01018KT 10SM CLR 10/03 A3018 RMK AO2 SLP212 T01000028
