2015/12/18 10:56
KNFE 181056Z AUTO 34005KT 4SM +RA FEW004 BKN012 OVC036 17/14 A2974 RMK AO2 SLP074 P0032 T01670139 
