2015/12/18 10:54
KNFG 181054Z AUTO 04003KT 9SM CLR 02/02 A3011 RMK AO2 SLP196 T00220017 $ 
