2010/01/16 12:56
KNFK 161256Z AUTO 27005KT 10SM CLR 09/M02 A2999 RMK AO2 SLP172 T00941017 TSNO 
