2015/12/18 10:56
KNFL 181056Z AUTO 24004KT 10SM CLR M06/M08 A3008 RMK AO2 SLP153 T10561083 
