2015/12/18 10:52
KNFW 181052Z AUTO 34011KT 10SM CLR 02/M02 A3032 RMK AO2 SLP250 T00171022 $ 
