2015/12/18 10:56
KNGP 181056Z AUTO 02016KT 10SM CLR 11/03 A3028 RMK AO2 SLP253 T01110033 
