2015/12/18 11:13
KNGU 181113Z 01007KT 8SM SCT005 OVC010 13/12 A2978 RMK AO2 RAE09 P0001 T01330122 
