2015/12/18 10:52
KNHK 181052Z 32007KT 10SM OVC042 10/07 A2979 RMK AO2 SLP088 T01000067 $ 
