2015/12/18 11:25
KNIP 181125Z 21007KT 10SM -RA BKN010 BKN030 OVC070 23/21 A2989 RMK AO2 P0000 T02280211 $ 
