2009/12/10 15:56
KNJJ 101556Z 26003KT 10SM FEW080 SCT150 SCT200 06/02 A3011 RMK AO6 [‹»230 00560022 
