2015/12/18 10:56
KNJK 181056Z AUTO 26006KT 10SM CLR 04/M11 A3019 RMK AO2 SLP239 T00391106 $ 
