2015/11/28 15:57
KNJM 281557Z AUTO 35005KT 10SM CLR 21/12 A3027 RMK AO2 SLP252 T02110122 
