2015/12/18 10:54
KNKT 181054Z 19007KT 8SM RA OVC085 19/18 A2977 RMK AO2 SLP076 P0007 T01940183 
