2015/12/18 10:55
KNKX 181055Z 08007KT 10SM CLR 08/M01 A3010 RMK AO2 SLP189 T00781011 $ 
