2008/11/24 01:56
KNLB 240156Z 00000KT 1 1/2SM HZ CLR 13/06 A3003 RMK AO2 TWR VIS 2 SLP171 RH/59 T01330061 $ 
