2015/12/18 10:56
KNLC 181056Z AUTO 15005KT 1 3/4SM BR CLR M02/M02 A3019 RMK AO2 SLP226 T10171022 
