2009/07/23 15:56
KNLO 231556Z 34008KT 10SM FEW130 SCT180 27/07 A2986 RMK AO2 SLP107 RH/29 T02720072 $ 
