2015/12/18 10:56
KNMM 181056Z AUTO 31006KT 10SM CLR 01/M01 A3016 RMK AO2 SLP225 T00111011 
