2015/01/06 09:58
KNMT 060958Z AUTO 20006KT CLR 03/00 A3040 RMK AO2 SLP112 T00280000 PNO $
