2015/12/18 10:56
KNOG 181056Z AUTO 03008KT 10SM CLR 06/01 A3030 RMK AO2 SLP240 T00610011 TSNO $ 
