2015/12/18 11:15
KNOW 181115Z AUTO 31007KT 10SM -RA SCT011 BKN065 OVC100 07/06 A2945 RMK AO2 T00650056
