2015/12/18 08:56
KNPA 180856Z AUTO 34009KT 10SM CLR 09/04 A3005 RMK AO2 SLP176 T00890039 53017 $ 
