2008/04/01 10:56
KNPP 011056Z AUTO 33004KT CLR`08/M07 A3004 RMK AO2 SLP152 T00781067 $ 
