2015/12/18 11:30
KNQA 181130Z 00000KT 10SM BKN035 M01/M02 A3020
