2015/12/18 11:14
KNQX 181114Z 18007KT 10SM FEW015 SCT250 26/24 A2996 RMK AO2 T02560239 
