2015/12/18 11:23
KNRB 181123Z 22006KT 7SM -RA SCT008 BKN015 OVC100 22/21 A2988 RMK AO2 P0000 T02220206 $ 
