2015/12/18 10:56
KNRS 181056Z AUTO 10008KT 7SM CLR 08/02 A3011 RMK AO2 SLP196 T00830022 $ 
