2015/12/18 10:56
KNSE 181056Z AUTO 33006KT 10SM -RA CLR 06/02 A3010 RMK AO2 SLP180 P0000 T00560022 $ 
