2015/12/18 10:56
KNTD 181056Z AUTO 36004KT 10SM CLR 07/M01 A3011 RMK AO2 SLP199 T00671006 $ 
