2015/12/18 10:56
KNTU 181056Z 33009KT 2SM RA BR SCT003 BKN008 OVC040 16/14 A2974 RMK AO2 SLP074 P0028 T01610139 
