2015/12/18 10:53
KNUI 181053Z AUTO 30005KT 10SM OVC042 11/07 A2978 RMK AO2 SLP082 T01060067 
