2015/12/18 10:56
KNUQ 181056Z AUTO 17003KT 10SM CLR 07/06 A3014 RMK AO2 SLP210 T00670056
