2015/12/18 10:56
KNUW 181056Z 12015KT 6SM -RA BR SCT007 BKN015 OVC050 05/04 A2947 RMK AO2 WSHFT 1032 RAB0959 SLP977 P0008 T00500044 $ 
