2015/12/18 10:56
KNXF 181056Z AUTO 03007KT 10SM CLR 08/02 A3011 RMK AO2 SLP282 T00780017 
