2015/12/18 10:56
KNXP 181056Z AUTO 00000KT 10SM CLR 00/M13 A3026 RMK AO2 SLP235 T00001133 
