2011/03/31 02:56
KNXX 310256Z 15008KT 10SM SCT042 BKN050 OVC060 04/M03 A2999 RMK RAE40 SLP165 60000 T00441028 50002 STATION CLOSED LAST
