2015/12/18 11:15
KNYC 181115Z AUTO 31008G15KT 10SM OVC016 11/06 A2975 RMK AO2 T01060061 $ 
