2015/12/18 10:56
KNYG 181056Z AUTO 01009G21KT 10SM OVC040 09/01 A2983 RMK AO2 SLP102 T00940011 $ 
