2015/12/18 10:57
KNYL 181057Z AUTO 05003KT 10SM CLR 06/M06 A3016 RMK AO2 SLP214 T00611061 
