2009/04/28 00:56
KNZK 280056Z 25022G25KT 10SM SCT150 28/00 A2982 RMK AO2 SLP111 T02780000 
