2015/12/18 11:15
KO22 181115Z AUTO 00000KT 10SM CLR M02/M02 A3011 RMK AO1
