2015/12/18 11:15
KO54 181115Z AUTO 00000KT 3SM FEW002 OVC018 03/02 A3001 RMK AO1 P0003
