2015/12/18 11:15
KO69 181115Z AUTO 09004KT 10SM OVC022 10/09 A3015 RMK AO1
