2015/12/18 11:15
KO86 181115Z AUTO 00000KT 2SM SCT003 OVC012 02/02 A3002 RMK AO1 P0004
