2015/12/18 11:15
KOAJ 181115Z AUTO 23009KT 9SM FEW045 OVC100 19/16 A2975 RMK AO1
