2015/12/18 11:15
KOBE 181115Z AUTO 18006KT 10SM SCT005 22/22 A2996 RMK AO2
