2015/12/18 11:15
KOCF 181115Z AUTO 21008KT 10SM BKN008 OVC015 22/20 A2992 RMK AO1
