2015/12/18 11:15
KOCQ 181115Z AUTO 26012G16KT 10SM OVC044 M05/M12 A2979 RMK AO1 T10471125
