2015/12/18 11:15
KOCW 181115Z AUTO 00000KT 7SM -RA SCT007 BKN029 OVC120 18/18 A2972 RMK AO2 T01830179
