2015/12/18 10:53
KODX 181053Z AUTO 29005KT 10SM CLR M11/M15 A3000 RMK AO2 SLP193 T11061150 $
