2015/12/18 11:15
KOEO 181115Z AUTO 26008G15KT 10SM OVC031 M08/M13 A2989 RMK AO2 T10851131
