2015/12/18 10:58
KOFF 181058Z AUTO 23005KT 10SM CLR M06/M09 A3007 RMK AO2 SLP201 T10611093 $
