2015/12/18 10:56
KOFK 181056Z AUTO 25008KT 10SM CLR M08/M13 A2999 RMK AO2 SLP179 T10831128
