2015/12/18 11:02
KOFP 181102Z AUTO VRB04KT 10SM SCT019 OVC033 09/05 A2981 RMK AO2 T00890050
