2015/12/18 11:15
KOGA 181115Z AUTO 26010KT 10SM CLR M16/M18 A2999 RMK AO2 T11571181
