2015/12/18 11:00
KOGB 181100Z AUTO 28008KT 10SM SCT010 SCT050 OVC060 16/14 A2983 RMK AO2 T01610139
