2015/12/18 10:53
KOGD 181053Z 16004KT 10SM OVC040 M02/M07 A3016 RMK AO2 SLP232 T10221067
