2007/12/17 18:55
KOIC 171855Z 27007KT 10SM SKC 06/M14 A3021
