2015/12/18 11:15
KOJA 181115Z AUTO 00000KT 7SM CLR M05/M06 A3029 RMK AO2
