2015/12/18 10:53
KOJC 181053Z AUTO 25004KT 10SM CLR M06/M09 A3018 RMK AO2 SLP233 T10611089 $
