2015/12/18 10:52
KOKB 181052Z AUTO 00000KT 10SM CLR 03/01 A3011 RMK AO2 SLP196 T00280006
