2015/12/18 10:52
KOKC 181052Z 31005KT 10SM CLR M04/M06 A3028 RMK AO2 SLP267 T10441056
