2008/12/31 15:56
KOKH 311556Z AUTO 23014G23KT 10SM SCT017 BKN041 OVC065 03/00 A2995 RMK FIRST
