2015/12/18 11:15
KOKM 181115Z AUTO 28004KT 10SM CLR M03/M05 A3031 RMK AO2 T10351050
