2015/12/18 11:15
KOKZ 181115Z AUTO 28003KT 10SM CLR 09/09 A2993 RMK AO2 T00880088
