2015/12/18 11:15
KOLE 181115Z AUTO 27003KT 10SM OVC023 M01/M05 A2977 RMK AO2
