2015/12/18 10:53
KOLF 181053Z AUTO 00000KT 10SM CLR M20/M23 A3003 RMK AO2 SLP215 T12001228
