2015/12/18 11:15
KOLG 181115Z AUTO 24007KT 3SM BKN027 OVC036 M09/M12 A2977 RMK AO1
