2015/12/18 10:54
KOLM 181054Z AUTO 19008KT 10SM FEW025 SCT065 BKN100 08/07 A2949 RMK AO2 RAE19 SLP987 P0003 T00830067
