2015/12/18 10:54
KOLS 181054Z AUTO 10003KT 10SM CLR M03/M08 A3014 RMK AO2 SLP193 T10331078
