2015/12/18 11:15
KOLU 181115Z AUTO 25008KT 10SM CLR M07/M15 A3003 RMK AO2 RVRNO
