2015/12/18 11:15
KOLV 181115Z AUTO 33004KT 7SM CLR M01/M01 A3019 RMK A01 P000 
