2015/12/18 11:15
KOLY 181115Z AUTO 25009KT 10SM BKN042 00/M03 A3008 RMK AO2
