2015/12/18 10:52
KOMA 181052Z 23008KT 10SM CLR M05/M10 A3006 RMK AO2 SLP190 T10501100
