2015/12/18 11:15
KOMH 181115Z AUTO 00000KT 10SM SCT041 OVC049 07/05 A2982 RMK AO2
