2015/12/18 11:23
KOMK 181123Z AUTO 00000KT 1 3/4SM -SN BR BKN025 OVC036 M03/M04 A2970 RMK AO2 P0000 T10331044
