2015/12/18 11:15
KONL 181115Z AUTO 25008KT 10SM CLR M11/M15 A2997 RMK AO2 T11101151
