2015/12/18 11:15
KONM 181115Z AUTO 31005KT 10SM CLR M06/M11 A3027 RMK AO2 T10581115
