2015/12/18 10:53
KONO 181053Z AUTO 35008KT 10SM OVC014 M01/M03 A3001 RMK AO2 SLP186 T10061028
