2015/12/18 11:15
KONP 181115Z AUTO 22016G19KT 10SM SCT020 SCT029 BKN060 11/08 A2977 RMK AO2
