2015/12/18 10:53
KONT 181053Z 03004KT 10SM CLR 06/M03 A3012 RMK AO2 SLP197 T00611028
