2015/12/18 11:15
KONX 181115Z AUTO 03004KT 10SM RA SCT003 SCT006 OVC011 16/16 A2974 RMK AO2 P0003 T01610161
