2015/12/18 11:14
KONZ 181114Z AUTO 22005KT 10SM OVC032 01/M04 A2988 RMK AO2
