2015/12/18 11:15
KOOA 181115Z AUTO 24007KT 10SM SCT110 M07/M09 A3005 RMK AO2 T10661089
