2015/12/18 10:53
KOPF 181053Z AUTO 18003KT 10SM CLR 23/22 A2997 RMK AO2 SLP148 T02330222
