2014/10/31 15:55
KOPM 311555Z AUTO 03013G20KT 10SM SCT055 SCT065 BKN090 25/18 A3014 RMK A01
