2015/12/18 11:15
KOPN 181115Z AUTO 33008KT 10SM CLR 07/06 A2999 RMK AO2
