2015/12/18 00:52
KOQU 180052Z 05007KT 6SM BR OVC009 22/20 A2965
