2015/12/18 11:13
KORB 181113Z AUTO 27007KT 7SM -SN OVC045 M12/M15 A2967 RMK AO2
