2015/12/18 11:15
KORC 181115Z AUTO 24010KT 10SM CLR M08/M10 A2993 RMK AO2
