2015/12/18 10:51
KORD 181051Z 28007KT 10SM OVC035 M04/M10 A2992 RMK AO2 SLP140 T10391100
