2015/12/18 11:25
KORE 181125Z AUTO 28008KT 10SM BKN010 OVC021 07/06 A2970 RMK AO2 T00720061
