2015/12/18 11:20
KORF 181120Z AUTO 35008KT 7SM -RA BKN004 OVC011 13/12 A2975 RMK AO2 P0002 T01330122 TSNO
