2015/12/18 10:54
KORH 181054Z AUTO 26005KT 10SM BKN090 08/07 A2967 RMK AO2 SLP051 T00830072
