2015/12/18 11:15
KORS 181115Z AUTO 00000KT 7SM -RA FEW004 BKN014 OVC029 05/04 A2941 RMK AO2 P0001
