2015/12/18 11:14
KOSC 181114Z AUTO 24012G16KT 10SM BKN050 M01/M07 A2976 RMK AO2 T10091069
