2015/12/18 11:18
KOSH 181118Z 24007KT 10SM SCT028 OVC040 M04/M11 A2981 RMK AO2 T10441106
