2015/12/18 10:53
KOSU 181053Z AUTO 27005KT 10SM OVC027 M01/M07 A2995 RMK AO2 SLP151 T10111067
