2015/12/18 11:15
KOTG 181115Z AUTO 24008KT 10SM BKN080 M08/M12 A2989 RMK AO1
