2015/12/18 11:15
KOTH 181115Z 22006KT 10SM CLR 11/09 A2982 RMK AO1 RA BR
