2015/12/18 10:53
KOTM 181053Z AUTO 26008KT 10SM CLR M06/M09 A3005 RMK AO2 SLP186 T10561094
