2015/12/18 11:15
KOUN 181115Z AUTO 30004KT 10SM CLR M04/M04 A3031 RMK AO2
