2015/12/18 11:21
KOVE 181121Z AUTO 16006KT 10SM BKN025 OVC036 08/03 A3015 RMK AO2 T00830033
