2015/12/18 11:12
KOVL 181112Z AUTO 23007KT 10SM OVC047 M08/M10 A2987 RMK AO2
