2015/12/18 10:53
KOVS 181053Z AUTO 27010G16KT 230V300 10SM BKN033 M06/M12 A2993 RMK AO2 SLP145 T10561117
