2015/12/18 10:56
KOWB 181056Z AUTO 31007KT 10SM OVC032 01/M04 A3009 RMK AO2 T00111044 SLP191
