2015/12/18 10:53
KOWD 181053Z AUTO 00000KT 6SM BR FEW002 FEW100 08/08 A2967 RMK AO2 SLP047 T00830078
