2015/12/18 10:53
KOXB 181053Z AUTO 35003KT 4SM -RA BR FEW007 BKN040 OVC085 12/11 A2976 RMK AO2 RAB08 SLP076 P0003 T01170106 TSNO
