2015/12/18 10:55
KOXC 181055Z 01009KT 10SM OVC011 09/04 A2972 RMK AO1
