2015/12/02 00:55
KOXI 020055Z AUTO 18007KT 10SM CLR 01/00 A2988 RMK AO1
