2015/12/18 10:51
KOXR 181051Z AUTO 02009KT 10SM CLR 11/M04 A3011 RMK AO2 SLP195 T01061039
