2015/12/18 11:15
KOZW 181115Z AUTO 23006KT 10SM OVC038 00/M05 A2983 RMK AO2 T10031047
