2015/12/18 11:15
KP08 181115Z AUTO 11005KT 10SM CLR 01/M02 A3017 RMK AO2
