2015/12/18 10:56
KP28 181056Z AUTO 00000KT M08/M10 A3024 RMK AO1 SLP259 T10831100 
