2015/12/18 10:56
KP53 181056Z AUTO 26006KT M04/M13 A2969 RMK AO1 SLP061 T10441128 
