2015/12/18 10:51
KP58 181051Z AUTO VRB04KT 00/M05 A2978 RMK AO1 SLP094 T00001050 
