2015/12/18 10:51
KP59 181051Z AUTO 33013G23KT M05/M09 A2962 RMK AO1 SLP044 P0001 T10501094 $ 
