2015/12/18 10:56
KP60 181056Z AUTO 00000KT M13/M14 A2996 RMK AO1 SLP234 P0001 T11281144 $ 
