2010/12/23 13:52
KP61 231352Z AUTO 00000KT M01/M01 A3014 BMK AO2 SLP231 T10061011 PWINO FZRANO TSNO 
