2015/12/18 10:53
KP68 181053Z AUTO 18005KT M04/M06 A3013 RMK AO1 SLP217 T10391061 
