2015/12/18 10:52
KP69 181052Z AUTO 36003KT M02/M03 A2990 RMK AO1 SLP149 P0007 T10171028 
