2015/12/18 10:53
KP92 181053Z AUTO 00000KT 08/05 A3017 RMK AO1 SLP216 T00830050 $ 
