2015/12/18 11:25
KPAE 181125Z AUTO 16019G26KT 10SM FEW004 BKN011 BKN095 06/04 A2947 RMK AO2 PK WND 17026/1125 RAE04 CIG 008V015 P0001 T00610044
