2015/12/18 10:53
KPAH 181053Z AUTO 33008KT 10SM OVC030 01/M04 A3012 RMK AO2 SLP202 T00111039
