2015/12/18 10:53
KPBG 181053Z AUTO 00000KT 10SM OVC060 04/M02 A2975 RMK AO2 SLP076 T00441017
