2015/12/18 11:15
KPBH 181115Z AUTO 24009KT 7SM -SN OVC018 M10/M12 A2974 RMK AO2 T10961125
