2015/12/18 10:53
KPBI 181053Z 20004KT 10SM FEW017 SCT250 23/22 A2997 RMK AO2 SLP147 T02280217 $
