2015/12/18 11:15
KPBX 181115Z AUTO 29004KT 10SM OVC007 00/M01 A2996 RMK AO2 T10051015
