2015/12/18 11:15
KPCM 181115Z AUTO 20005KT 10SM SCT041 SCT060 BKN090 24/24 A2995 RMK AO2
