2015/12/18 11:18
KPCW 181118Z AUTO 25012KT 10SM OVC039 01/M04 A2990 RMK AO2 $
