2015/12/18 11:15
KPCZ 181115Z AUTO 27011KT 10SM SCT024 SCT033 OVC039 M04/M10 A2982 RMK AO2 T10431096
