2015/12/18 11:10
KPDC 181110Z AUTO 26009G18KT 10SM CLR M07/M12 A2995 RMK AO2 T10661124
