2015/12/18 10:53
KPDK 181053Z AUTO 30009KT 10SM CLR 04/01 A2995 RMK AO2 SLP146 T00440011 TSNO
