2015/12/18 11:08
KPDT 181108Z AUTO 04003KT 5SM BR FEW001 OVC090 M01/M02 A2965 RMK AO2 T10111017 $
