2015/12/18 10:53
KPDX 181053Z 20009KT 10SM -RA FEW022 BKN060 OVC075 12/12 A2961 RMK AO2 RAB0954 SLP024 P0002 T01170117
