2015/12/18 11:15
KPEA 181115Z AUTO 23009KT 10SM CLR M05/M09 A3004 RMK AO2 T10541087
