2015/12/18 11:22
KPEO 181122Z AUTO 30006KT 10SM OVC034 02/M03 A2982 RMK AO2 T00221028 TSNO
