2015/12/18 11:15
KPEQ 181115Z AUTO 04006KT 10SM CLR M03/M07 A3025 RMK AO2 T10321069
