2015/12/18 11:14
KPEX 181114Z AUTO 21003KT 10SM SCT030 M11/M13 A2985 RMK AO2 T11121131
