2010/06/03 02:53
KPFN 030253Z VRB03KT 10SM FEW023 25/23 A2989
