2015/12/18 10:53
KPGA 181053Z AUTO 00000KT 8SM CLR M02/M09 A3026 RMK AO2 SLP253 T10221089 TSNO
