2015/12/18 10:53
KPGD 181053Z AUTO 18007KT 10SM FEW010 23/23 A2995 RMK AO2 SLP143 T02280228
