2011/06/21 03:55
KPGE 210355Z AUTO 12012KT 10SM FEW010 BKN017 BKN023 26/24 A2982 RMK AO2 SLP097 T02560239 
