2015/12/18 11:15
KPGV 181115Z AUTO 35006KT 7SM BKN003 OVC008 17/17 A2976 RMK AO2
