2015/12/18 10:53
KPHD 181053Z AUTO 24003KT 10SM OVC027 M01/M06 A2993 RMK AO2 SLP144 T10061061
