2015/12/18 11:22
KPHF 181122Z 04004KT 10SM BKN009 OVC014 12/11 A2976 RMK AO2 RAE1057 P0000 T01220111
