2015/12/18 10:54
KPHL 181054Z 32016G19KT 10SM SCT021 OVC055 09/04 A2978 RMK AO2 SLP085 T00940039
