2015/12/18 11:16
KPHN 181116Z AUTO 22004KT 10SM OVC037 00/M05 A2985 RMK AO2
