2015/12/18 10:55
KPHP 181055Z AUTO 26008KT 10SM CLR M14/M19 A2996 RMK AO2 SLP181 T11441189
