2015/12/18 11:15
KPHT 181115Z AUTO 27003KT 10SM OVC035 M03/M04 A3012 RMK
