2015/12/18 10:53
KPIH 181053Z AUTO 35009KT 5SM -SN BR OVC025 M05/M06 A3008 RMK AO2 SNE01B35 SLP222 P0000 T10501061
