2015/12/18 10:53
KPIL 181053Z AUTO 32008KT 10SM CLR 11/08 A3024 RMK AO2 SLP240 T01060078
