2015/12/18 10:53
KPIR 181053Z AUTO 26008KT 10SM CLR M11/M14 A2994 RMK AO2 SLP165 T11061144
