2015/12/18 10:51
KPIT 181051Z 27006KT 10SM BKN027 OVC033 00/M04 A2988 RMK AO2 SLP135 T00001044
