2009/11/08 19:00
KPKC 081900Z 00000KT 6000 SCT100 24/22 Q1011 NOSIG
