2015/12/18 10:53
KPKD 181053Z AUTO 31006KT 5SM -SN OVC025 M11/M13 A2976 RMK AO2 SLP108 P0000 T11061133
