2009/07/10 06:55
KPKE 100655Z AUTO 13003KT 10SM CLR 24/22 A3005 RMK AO2 SLP174 T02390222 
