2015/12/18 11:15
KPKV 181115Z AUTO 36009KT 10SM CLR 05/01 A3029 RMK AO2 T00460010
