2007/05/24 13:50
KPLB 241350Z 04005KT 10SM SKC 21/13 A3030
