2015/12/18 10:54
KPLN 181054Z AUTO 25008KT 7SM -SN SCT020 BKN030 OVC080 M02/M05 A2970 RMK AO2 SLP067 P0001 T10221050
