2015/12/18 11:15
KPLU 181115Z AUTO 17004KT 10SM OVC048 09/09 A2953 RMK AO2
