2015/12/18 10:53
KPMD 181053Z AUTO 19004KT 10SM CLR M02/M06 A3020 RMK AO2 SLP231 T10171061
