2015/12/18 10:53
KPMP 181053Z AUTO 00000KT 10SM -RA SCT018 SCT025 24/23 A2996 RMK AO2 RAB47 SLP145 P0000 T02390233
