2015/12/18 11:15
KPNA 181115Z AUTO 00000KT 10SM BKN033 OVC038 M13/M16 A3005 RMK AO2
