2015/12/18 10:54
KPNE 181054Z AUTO 30009KT 10SM OVC060 09/05 A2977 RMK AO2 SLP082 T00940050 TSNO
