2015/12/18 11:14
KPNM 181114Z AUTO 24006KT 10SM OVC035 M09/M13 A2985 RMK AO2
