2015/12/18 11:15
KPNT 181115Z AUTO 26009KT 10SM BKN030 BKN110 M03/M05 A2999 RMK AO2 T10271053
