2011/02/03 21:19
KPO1 032119Z 24007KT 10SM M03/M07 A3005 RMK Poplar 
