2009/06/17 14:08
KPOA 171408Z AUTO VRB05KT 10SM FEW019 27/23 A3005 RMK AO2 
