2015/12/18 11:26
KPOB 181126Z AUTO 29004KT 7SM R23/5500FT -RA FEW009 BKN020 OVC028 16/16 A2975 RMK AO2 CIG 020V026
