2015/12/18 04:47
KPOC 180447Z 00000KT 10SM CLR 09/M04 A3016
