2015/12/18 10:58
KPOE 181058Z AUTO 35006KT 10SM CLR 05/03 A3018 RMK AO2 SLP223 T00450033
