2015/12/18 10:53
KPOF 181053Z AUTO 25003KT 10SM OVC041 00/M03 A3017 RMK AO2 SLP221 T00001033
