2015/12/18 10:53
KPOU 181053Z 05006KT 10SM OVC019 08/05 A2974 RMK AO2 SLP069 T00830050
