2015/12/18 11:15
KPOV 181115Z AUTO 26007KT 10SM OVC030 M01/M07 A2989 RMK AO2 T10061071
