2015/12/18 11:15
KPOY 181115Z AUTO 13014KT 10SM CLR M11/M16 A2983 RMK AO2
