2015/12/18 11:15
KPPA 181115Z AUTO 18005KT 10SM CLR M07/M08 A3020 RMK AO2 T10671077
