2015/12/18 10:52
KPPF 181052Z AUTO 00000KT 10SM CLR M07/M08 A3026 RMK AO2 SLP257 T10671078
