2015/12/18 11:15
KPPO 181115Z AUTO 25006KT 10SM SCT110 M03/M06 A2993 RMK AO2 T10301065
