2015/12/18 11:15
KPPQ 181115Z AUTO 28009KT 10SM CLR M02/M08 A3012 RMK AO2 T10231079
