2007/12/20 03:53
KPQE 200353Z AUTO 00000KT 10SM FEW030 00/M04 A3019 RMK AO2 SLP217 T00001039 FZRANO TSNO 
