2015/12/18 11:29
KPQI 181129Z AUTO 00000KT 1SM BR OVC003 01/01 A2962 RMK AO2 RAE1041UPB1012E1013 P0000 FZRANO RVRNO
