2015/12/18 10:53
KPRB 181053Z AUTO 00000KT 9SM CLR M01/M03 A3016 RMK AO2 SLP215 T10061028 TSNO
