2015/12/18 10:53
KPRC 181053Z AUTO 20005KT 5SM HZ CLR M04/M09 A3022 RMK AO2 SLP222 T10441089
