2015/12/18 11:15
KPRO 181115Z AUTO 25012KT 10SM BKN100 M05/M08 A3001 RMK AO2 T10501080
