2015/12/18 11:15
KPRS 181115Z AUTO 01006KT 10SM CLR 01/M07 A3026 RMK AO2 T00141072
