2015/12/18 11:15
KPRX 181115Z 33013KT 10SM OVC016 02/M04 A3031 RMK AO1
