2015/12/18 11:10
KPSC 181110Z AUTO 00000KT 10SM BKN014 OVC065 M01/M02 A2975 RMK AO2 T10061017
