2015/12/18 11:10
KPSF 181110Z AUTO 30011G17KT 280V340 10SM SCT010 BKN016 OVC021 03/01 A2973 RMK AO2 T00330006
