2015/12/18 10:58
KPSM 181058Z 26008KT 10SM FEW002 SCT100 BKN250 07/07 A2963 RMK AO2A SLP037 T00720067
