2015/12/18 11:15
KPSN 181115Z AUTO 32004KT 02/00 A3031 RMK AO2 T00230000 PWINO
