2015/12/18 10:53
KPSP 181053Z 33006KT 10SM CLR 05/M05 A3019 RMK AO2 SLP224 T00501050
