2015/12/18 10:53
KPSX 181053Z AUTO 36010KT 10SM CLR 06/02 A3028 RMK AO2 SLP253 T00560017
