2015/12/18 11:15
KPTB 181115Z AUTO 04009KT 10SM -RA BKN008 OVC015 12/10 A2977 RMK AO2 T01200100
