2015/12/18 10:53
KPTK 181053Z 22007KT 10SM OVC035 M01/M06 A2983 RMK AO2 SLP110 FIRST AUGMENTED OBS OF THE DAY T10061061
