2015/12/18 11:15
KPTS 181115Z AUTO 25003KT 10SM CLR M03/M05 A3023 RMK AO2 T10321054
