2015/12/18 11:15
KPTT 181115Z AUTO 25009KT 10SM CLR M09/M11 A3021 RMK AO2 T10861107
