2015/12/18 10:54
KPTW 181054Z AUTO 30008KT 10SM OVC021 05/01 A2980 RMK AO2 SLP090 T00500011
