2015/12/18 10:53
KPUB 181053Z 00000KT 10SM CLR M13/M17 A3005 RMK AO2 SLP224 T11331167
