2015/12/18 10:53
KPUC 181053Z AUTO 00000KT 10SM OVC045 M04/M12 A3023 RMK AO2 SLP284 T10441117 $
