2015/12/18 10:53
KPUW 181053Z AUTO 13021KT 10SM FEW036 OVC045 02/M01 A2971 RMK AO2 PK WND 13027/1038 UPE09RAB09E13 SLP080 P0000 T00221006
