2015/12/18 11:15
KPVB 181115Z AUTO 26015KT 10SM OVC026 M06/M10 A2991 RMK AO1 T10561096
