2015/12/18 11:21
KPVC 181121Z AUTO 27006KT 3SM BR OVC002 09/09 A2968 RMK AO2
