2015/12/18 10:51
KPVD 181051Z 00000KT 10SM SCT090 OVC210 11/09 A2969 RMK AO2 SLP052 FIRST AUGMENTED T01060094
