2015/12/18 10:53
KPWA 181053Z AUTO 26004KT 10SM CLR M04/M06 A3029 RMK AO2 SLP269 T10441061
