2015/12/18 11:12
KPWC 181112Z AUTO 00000KT 5SM -SN OVC030 M11/M13 A2981 RMK AO2
