2015/12/18 10:56
KPWG 181056Z AUTO 30005KT 10SM CLR 01/M01 A3033 RMK AO2 SLP288 T00061011 FZRANO
