2015/12/18 10:52
KPWK 181052Z AUTO 27009KT 10SM OVC036 M04/M10 A2993 RMK AO2 SLP144 T10391100
