2015/12/18 10:51
KPWM 181051Z 27004KT 1/2SM FG OVC002 06/06 A2964 RMK AO2 SLP035 T00560056
