2015/12/18 11:15
KPWT 181115Z 17007KT 10SM FEW008 FEW016 BKN095 07/07 A2951 RMK AO1
