2015/12/18 10:52
KPYM 181052Z AUTO 27005KT 5SM BR OVC002 09/09 A2968 RMK AO2 SLP050 T00940094
