2007/05/28 19:53
KPYT 281953Z AUTO VRB04KT 10SM FEW045 28/17 A3014 RMK AO2 SLP193 T02780167 $ 
