2015/12/18 11:15
KPZQ 181115Z AUTO 22009G14KT 10SM CLR M02/M07 A2972 RMK AO2 T10201071
