2007/10/16 21:55
KQ0T 162155Z 26008G12KT 7SM SKC 28/02 A2965 RMK SLP042 T02820016 PA+461 DA+2205
