2009/07/26 08:55
KQ1T 260855Z 19006G12KT 140V230 9000 HZ CLR 39/07 A2960 RMK SLP000 57005
