2008/12/23 15:55
KQ1W 231555Z 14007KT 9999 FEW180 15/09 A3005 RMK SLP175 QNH1017
