2008/04/23 02:55
KQ2T 230255Z 00000KT 8000 HZ BKN200 18/04 A2999 RMK SLP146 53014
