2010/03/16 13:59
KQ36 161359Z AUTO 00000KT CLR 32/09 A2981 RMK CDP03483 CLR
