2010/03/16 09:59
KQ49 160959Z AUTO 28007KT CLR 29/07 A2980 RMK CDP03488 CLR
