2009/12/29 23:52
KQ69 292352Z AUTO 00000KT M01/M04 A3000 RMK AO2 SLP187 T10061039 10`0 21017 56010 PWINO FZRANO TSNO 
