2008/03/05 08:55
KQ7Z 050855Z VRB03KT 8000 HZ SKC 05/M02 A3021 RMK SLP280 WND DATA EST SLP EST 54000
