2009/12/22 17:55
KQ9D 221755Z 29002KT 9999 SCT200 05/M07 A3017 RMK SLP236 WND DATA ESTMD ALSTG/SLP ESTMD 52002
