2008/03/05 19:55
KQA0 051955Z 12010G22KT 9999 BKN020 BKN100 M01/M07 A2905 RMK SLP989 ALTSG/SLP/WND DATA ESTMD LAST
