2015/11/15 16:55
KQA2 151655Z AUTO 14005KT 6SM HZ FEW065 BKN210 18/05 A2985 RMK AO2 SLP094 WND DATA ESTMD T01820047
