2014/11/03 18:55
KQA4 031855Z 03010KT 9999 BKN100 BKN150 19/12 A2997 RMK SLP120 WND DATA ESTMD ALSTG/SLP ESTMD Q1014
