2009/11/09 06:00
KQA6 090600Z 26006KT 9999 BKN010 OVC020 08/05 A3029 RMK SLPNO WND DATA/ALSTG ESTMD CLDS OBSCNG MNTNS
