2015/01/18 09:55
KQA7 180955Z 31012G17KT 9999 CLR 11/03 A3025 RMK SLP239 WND DATA ESTMD ALSTG/SLP ESTMD
