2009/12/12 06:00
KQA8 120600Z 26007KT 9999 FEW080 BKN150 BKN200 09/M05 A3005 RMK VIS S 9000 SLPNO WND DATA ESTMD ALSTG ESTMD BLDU IN VALLEY S
