2009/09/20 03:55
KQAA 200355Z 00000KT 4000 -SHRA DU BR FEW000 BKN100 BKN180 21/17 A2978 RMK TS N MOV NE DU BR FEW000 SLP076 P0010 T02060171 PA 747 DA 1602
