2009/06/26 11:55
KQAB 261155Z 33008G15KT 9999SM FEW030 FEW200 27/06 A3005 RMK SLPNO LAST
