2011/11/20 03:55
KQAE 200355Z 31003KT 9999 SCT090 13/08 A2994 RMK AO2A LTG DSNT NE SLP137 T01260078 LAST
