2009/09/11 10:55
KQAF 111055Z COR 29010G18KT 9999 SKC 36/06 A2975 RMK SLP064 T03550062 PA 774 DA 3312
