2009/11/01 10:55
KQAH 011055Z 12010KT 8000 DU SCT100 BKN160 27/14 A2984 RMK SLP093 T02660143 PA 695 DA 2214
