2008/06/28 00:55
KQAI 280055Z 00000KT 7SM CLR 23/19 A2964 RMK AO2 SLP027 WND DATA ESTMD ALSTG/SLP ESTMD
