2015/12/18 10:56
KQAL 181056Z 08004KT 9999 FEW026 BKN060 14/10 A3015 RMK AO2A SLP210 T01440099
