2008/10/16 16:55
KQAM 161655Z 27005KT 9999 SKC 24/07 A3003 RMK SLP160 T02370067 PA 524 DA 1706
