2009/03/12 21:55
KQAN 122155Z AUTO 35043KT 300V010 3/4SM +FZRA VV005 08/M05 A3077 RMK AO2 PK WND 35060/2123 WSHFT 2137 RAB2129RAE2130RAB2134RAE2134RAB2138RAE2139RAB2143RAE2144RAB2148RAE2148RAB2153RAE2153 SLP494 T00821048 $
