2008/10/16 02:56
KQAO 160256Z 00000KT 7SM FEW200 23/M04 A2972 RMK SLP057 T02251037
