2009/11/20 23:55
KQAP 202355Z 25003KT 7SM OVC020 08/04 A3003 RMK SLPNO WND DATA ESTMD ALSTG ESTMD
