2011/12/15 12:55
KQAQ 151255Z 11001KT 9999 OVC250 19/M04 A3014 RMK SLPNO WND DATA ESTMD ALSTG ESTMD PA -92 DA +432 LAST
