2015/12/18 10:55
KQAT 181055Z 04007KT 9999 17/08 A3015 RMK SLP207 T01650080
