2009/11/13 23:55
KQAU 132355Z AUTO VRB01KT 12SM SCT140 15/02 A2995 RMK AO2 SLP142 T01450019 10120 20009 401630009 54001
