2015/08/11 19:55
KQAX 111955Z AUTO 17004KT 5SM HZ VV001 38/12 A2995 RMK AO2 SLP122 T03750118 $
