2015/03/03 18:45
KQAZ 031845Z AUTO 13009KT 9999 CLR 25/M01 A3000 RMK CDP03565 CLR
