2008/03/18 02:55
KQB0 180255Z 00000KT 9999 SKC 07/M08 A3012 RMK SLPNO WND/ALSTG ESTMD
