2008/01/22 12:58
KQB4 221258Z AUTO 21002KT M1/4SM M06/M11 A2948
