2008/06/23 06:55
KQB7 230655Z AUTO 02002KT 7SM FEW010 BKN160 23/22 A3013 RMK AO2 SLP195
