2010/01/03 08:55
KQB9 030855Z 11003KT 9999 FEW080 BKN200 13/M04 A3014 RMK SLP219 WND DATA ESTMD ALSTG/SLP ESTMD 57024
