2009/10/09 22:55
KQBA 092255Z 09004KT 9999 CLR 25/03 A2975 RMK SLP081 WND/ALSTG/SLP/QNH ESTMD QNH1007
