2015/02/25 04:50
KQBC 250450Z AUTO VRB02KT 9999 FEW003 SCT016 BKN029 26/23 A2987 RMK AO2 SLP115 T02550229
