2010/03/16 13:55
KQBD 161355Z AUTO 30004KT 6SM CLR 05/03 A3019 RMK AO2 SLP233 T00490027
