2008/03/31 09:55
KQBE 310955Z AUTO VRB02KT 9999 CLR 15/05 A3080 RMK AO2 SLP433
