2015/12/18 10:55
KQBF 181055Z AUTO 06007KT 040V100 5SM HZ CLR 27/M03 A3027 RMK AO2 SLP238 WND DATA ESTMD T02651035
