2015/12/18 10:55
KQBG 181055Z AUTO 05009G18KT 35/17 A2976 RMK AO2 SLP073 WND DATA ESTMD T03460172 TSNO $
