2008/08/25 15:59
KQBH 251559Z 02003KT 7SM FEW003 25/20 A2992 RMK SLPNO WND DATA ESTMD ALSTG ESTMD
