2009/11/17 23:55
KQBI 172355Z 00000KT 9999 SKC M08/M11 A3044 RMK SLP315 WND DATA AND ALSTG/SLP ESTMD 11076 21099 52015 LAST
