2015/01/05 14:56
KQBK 051456Z AUTO 09005KT 9999 CLR 18/04 A3013 RMK AO2 SLP033 T01840042 53009
