2015/12/18 08:56
KQBL 180856Z AUTO 34005KT 10SM CLR 10/04 A3004 RMK AO2 SLP174 T00970041 52014
