2008/10/14 21:55
KQBM 142155Z VRB02KT 9000 DU FEW000 FEW100 SCT200 26/02 A3005 RMK DU FEW000 SLP162 T02610017 PA 561 DA 1989
