2009/08/31 11:55
KQBO 311155Z 00000KT 9999 SKC 39/02 A2969 RMK SLPNO T03900020 10390 20325 58010 PA 1125 DA 4165
