2014/10/22 17:00
KQBR 221700Z AUTO 26002KT 6SM CLR 21/04 A3130 RMK AO2 SLP588 T02140036
