2014/03/31 09:55
KQBS 310955Z 30010G15KT 6000 HZ CLR 21/M01 A2975 RMK SLP086 WND/ALSTG/SLP/QNH ESTMD QNH1008 LAST LAST LAST LAST LAST
