2015/12/18 10:55
KQBT 181055Z AUTO VRB03KT 9999 CLR 13/M03 A3005 RMK AO2 SLP196 T01281032 $
