2013/03/16 08:55
KQBU 160855Z AUTO 28001KT 9999 FEW065 SCT200 16/M01 A3029 RMK AO2 SLP262 T01551014 58020 $
