2008/09/19 12:55
KQBY 191255Z 07005KT 9999 SCT200 16/07 A3018 RMK BLU
