2009/07/22 00:55
KQBZ 220055Z VRB04KT 7SM SCT100 24/21 A2990 RMK SLP121 WND DATA ESTMD ALSTG/SLP ESTMD KBAD/JEO
