2009/01/02 06:55
KQC0 020655Z 29006KT 3200 DU BR SKC M00/M04 A3028 RMK SLP269
