2013/07/18 10:55
KQC3 181055Z AUTO 30007G18KT 230V360 6000 HZ CLR 35/M03 A2980 RMK AO2 SLP946 T03471032 $
