2013/02/28 18:58
KQCA 281858Z AUTO 06004KT 10SM -RA FEW080 SCT120 12/M08 A3043 RMK AO2 RAB23 SLP895 P0000 T01171078 $ 
