2010/03/06 21:21
KQCB 062121Z VRB02KT 7SM SKC 17/M09 A3021 RMK WND DATA ESTMD ALSTG ESTMD LAST
