2009/10/13 09:55
KQCG 130955Z AUTO 30008G15KT 190V330 9999 FG FEW024 SCT038 BKN049 10/02 A3038 RMK AO2 SLP296 T00950024
