2013/04/08 05:55
KQCH 080555Z AUTO 16002KT 4800 21/09 A3005 RMK AO2 SLP155 T02080086 10169 20135 50004 PWINO PNO TSNO $
