2013/06/25 16:55
KQCJ 251655Z AUTO VRB04KT 6000 CLR 26/13 A3001 RMK AO2 SLP001 T02600127 $
