2013/09/26 04:55
KQCK 260455Z AUTO VRB03KT 9999 CLR 26/12 A3018 RMK AO2 SLP124 T02610122 $
