2015/12/18 10:55
KQCL 181055Z AUTO 07004KT 9999 CLR 14/M08 A3014 RMK AO2 SLP233 WND DATA ESTMD T01401085 PWINO $
