2013/05/29 04:55
KQCN 290455Z AUTO 30002KT 9999 28/M13 A2995 RMK AO2 SLP070 T02841135 PWINO PNO TSNO $
