2010/07/01 17:55
KQCO 011755Z AUTO 30005KT 9999 CLR 34/00 A2962 RMK AO2 SLP010 T03381004 10417 20369 52010
