2009/11/25 14:55
KQCP 251455Z AUTO 24008G16KT 9999 FEW210 13/02 A2979 RMK AO2 SLP090 T01270018 56023
