2009/09/20 01:55
KQCR 200155Z 23006G14KT 6SM BLDU FEW100 BKN200 35/06 A2982 RMK SLP041
