2008/07/25 18:55
KQCU 251855Z VRB05KT 7SM FEW160 38/04 A2993 RMK SLPNO WND DATA ESTMD ALSTG ESTMD
