2009/03/18 15:55
KQCV 181555Z AUTO 00000KT 9999 CLR 17/11 A2995 RMK AO2 SLP138
