2010/01/27 16:55
KQCW 271655Z AUTO 26006KT M02/M09 A2967 RMK AO2 SLP063 T10231089 TSNO $
