2010/05/13 03:55
KQCX 130355Z 00000KT 7SM SCT250 24/M03 A2980 RMK SLPNO T02411030
