2007/05/04 17:55
KQCY 041755Z AUTO VRB02KT 7SM SCT080 32/13 A3071 RMK AO2 SLP382
