2010/03/06 10:55
KQD0 061055Z VRB03KT 9999 FEW040 SCT065 14/05 A3002 RMK SLP168 WND DATA ESTMD ALSTG/SLP ESTMD
