2012/07/13 05:55
KQD2 130555Z AUTO 09012G24KT 350V220 8000 CLR 33/M07 A2980 RMK AO2 LTG DSNT NE SLP980 T03331075 10303 20285 57006
