2008/03/11 12:55
KQD4 111255Z AUTO 00000KT 5SM BKN140 23/22 A3000 RMK AO2 SLP151
