2010/02/28 12:55
KQD8 281255Z 21003KT 9999 BKN050 16/09 A2997 RMK SLP145 WND DATA ESTMD ALSTG/SLP ESTMD
