2013/10/11 17:55
KQD9 111755Z 26002KT 9999 CLR 24/16 A2992 RMK TEST
