2010/05/06 05:55
KQDA 060555Z VRB03KT 7SM FEW300 27/M05 A2976 RMK SLP949 T02711051
