2013/04/26 01:55
KQDB 260155Z 22005KT 7SM SKC 29/03 A2987 RMK SLP110 T02860025
