2010/03/14 17:55
KQDC 141755Z 05005KT 7SM BKN004 OVC007 11/09 A2948 RMK WND DATA ESTMD ESTMD ALSTG
