2008/06/05 05:55
KQDI 050555Z 10008KT 8000 HZ SKC 33/12 A2979 RMK SLP002 WND DATA ESTMD ALSTG/SLP ESTMD 58005
