2009/10/31 05:55
KQDJ 310555Z 27010G22KT 230V300 9999 SCT065 BKN085 BKN100 12/05 A2930 RMK PK WND 26028/40 SLP920 60008 51021
