2009/02/21 12:55
KQDK 211255Z 16004KT 7SM FEW090 FEW200 09/05 A3014 RMK SLP208
