2008/05/09 14:55
KQDL 091455Z 16010KT 7SM FEW200 20/00 A2981 RMK SLP072 WND DATA ESTMD ALSTG/SLP ESTMD 52014
