2014/06/17 12:09
KQDM 171209Z AUTO VRB01KT //// 35/22 A3073
