2014/06/04 13:14
KQDN 041314Z AUTO 18005KT 9000 HZ CLR 42/03 A2982 RMK CDP03436 CLR
