2008/08/02 09:55
KQDO 020955Z VRB05KT 8000 HZ SCT040 SCT080 30/20 A2982 RMK TCU DSNT N SLP028 WND DATA ESTMD ALSTG/SLP ESTMD
