2014/06/17 13:59
KQDP 171359Z AUTO 15013G20KT 8000 HZ 45/02 A2995
