2008/03/04 12:55
KQDR 041255Z 25003KT 4SM BR SCT150 SCT230 25/22 A3003 RMK LTG DSNT W AO2 AUTO - OBSERVATION NOT SENT.
