2010/01/13 19:55
KQDS 131955Z VRB04KT 7SM BKN150 BKN220 12/M03 A3029 RMK WIND DATA ESTIMATED/ ALTSG/ SLP263
