2007/12/02 18:10
KQDT 021810Z AUTO 22009KT 07/M08 A2983
