2012/02/01 20:40
KQDV 012040Z 14003KT 7SM BKN250 26/M06 A3008 RMK AO2A WND DATA/ALSTG ETSMD
