2012/11/24 14:55
KQDX 241455Z AUTO 34003KT 9999 CLR 11/M08 A3021 RMK AO2 SLP257 T01081076 52017 $
