2010/02/10 16:55
KQDY 101655Z AUTO 15004KT 9SM SCT045 BKN075 BKN090 01/M06 A3026 RMK AO2 SLP282 T00111057
