2010/03/16 13:55
KQDZ 161355Z 09003KT 7SM BKN100 BKN150 11/06 A3021 RMK SLP229 WND DATA ESTMD ALSTG/SLP ESTMD
