2008/10/09 15:55
KQE8 091555Z AUTO 29001KT 9999 CLR 17/11 A3003 RMK AO2 SLP156
