2015/02/27 09:55
KQEA 270955Z AUTO 26001KT 10SM CLR 29/21 A2980 RMK AO2 SLP092 T02860212
