2015/12/18 10:55
KQEB 181055Z AUTO 04015G20KT 9999 FEW150 20/14 Q1022 RMK AO2 LTG DSNT S SLP169 WND DATA ESTMD T01950143 PNO $
