2007/08/19 22:55
KQEE 192255Z 09002KT 9999 FEW030 25/22 A2994 RMK SLPNO ALSTG ESTMD T02670204
