2009/12/08 05:55
KQEF 080555Z AUTO 00000KT 4SM CLR 04/M15 A3027 RMK AO2 SLP333 T00401151 11021 21065 50005 $
