2007/12/10 20:55
KQEG 102055Z 24003KT 4000 -DZ FEW018 OVC044 04/02 A3010 RMK AO2A SLP195 LAST
