2009/11/05 02:10
KQEH 050210Z AUTO 09009KT 7SM CLR 18/03 A3023 RMK A02
