2015/12/18 11:30
KQEJ 181130Z AUTO 04002KT 9999 FEW034 M02/M08 A3045 RMK A02 TSNO
