2015/12/18 11:30
KQEL 181130Z AUTO 04001KT 9999 CLR M05/M09 A3058 RMK A02 TSNO
