2010/03/09 10:55
KQEM 091055Z 00000KT 1200 -SN BR FEW004 SCT007 OVC010 01/M01 A3002 RMK SLP169
