2007/12/05 01:55
KQEO 050155Z VRB03KT 9000 BR SKC M01/M14 A3059 RMK AO2A SLP358
