2015/08/13 04:30
KQEP 130430Z AUTO 27010G35KT 2000 HZ CLR 22/17 A2963 RMK A02 TSNO
