2015/12/18 11:30
KQEQ 181130Z AUTO 35001KT 9999 CLR M03/M07 A3039 RMK A02 TSNO
