2014/01/29 05:55
KQET 290555Z 08003KT 7SM CLR 06/M14 A3006 RMK AO2A SLP179 T00621145 57041
