2007/04/23 20:55
KQEU 232055Z AUTO 00000KT 9999 FEW130 BKN150 06/03 A2999 RMK AO2 SLP155
