2015/12/18 11:30
KQEV 181130Z AUTO 13001KT 9999 CLR 01/M03 A3052 RMK A02 TSNO
