2015/12/18 11:30
KQEW 181130Z AUTO 26004KT 9999 BKN027 03/M03 A3048 RMK A02 TSNO
