2015/12/18 11:30
KQEY 181130Z AUTO 08001KT 9999 BKN024 02/M03 A3050 RMK A02 TSNO
