2009/11/29 14:55
KQEZ 291455Z 33003KT 9999 SKC 16/06 A3012 RMK SLP198 T01570060 53003 PA 22 DA 151
