2015/05/28 06:55
KQFA 280655Z AUTO 21006G12KT 9999 FEW220 30/07 A2977 RMK AO2 SLP078 T02980070 $
