2015/12/18 11:30
KQFB 181130Z AUTO 28008KT 9999 CLR 04/M04 A3052 RMK A02 TSNO
