2009/01/25 23:55
KQFE 252355Z VRB02KT 7SM SCT032 BKN050 28/14 A3018 RMK A02A SLP219 WND DATA ESTMD ALSTG/SLP ESTMD LAST
