2009/01/17 18:55
KQFF 171855Z 07003KT 7SM SKC 12/M02 A3041 RMK AO2A SLP300 WND DATA ESTMD ALSTG/SLP ESTMD
