2015/12/18 10:55
KQFG 181055Z AUTO VRB06KT 8000 CLR 16/M05 A3014 RMK AO2 SLP217 T01571047
