2015/08/25 14:55
KQFI 251455Z VRB05KT 7SM SCT100 BKN200 25/07 A3002 RMK SLPNO WND DATA ESTMD ALSTG ESTMD 52014
