2007/12/20 11:00
KQFJ 201100Z AUTO 00000KT 10SM 15/M03 A3013
