2010/03/16 13:55
KQFL 161355Z AUTO 05001KT 9999 FEW085 M04/M09 A3032 RMK AO2 SLP272 T10361088 $
