2010/03/16 13:55
KQFN 161355Z AUTO 32007G12KT 280V340 9999 CLR 01/M12 A3035 RMK AO2 SLP279 T00061125 $
