2009/12/04 01:57
KQFO 040157Z 23006KT 1600 OVC005 38/21 A3015 RMK SLPNOIS A TEST
