2009/09/04 18:55
KQFP 041855Z VRB02KT 7SM SCT060 26/11 A3010 RMK WND DATA ESTMD ALSTG/SLP ESTMD LAST
