2015/12/18 10:55
KQFQ 181055Z AUTO 00000KT 9999 BKN015 BKN020 M02/M04 A3049 RMK AO2 SLP331 T10191045 $
