2009/06/28 15:55
KQFR 281555Z 29006KT 9999 FEW180 33/22 A2994 RMK SLP130 T03280224
