2015/04/21 03:56
KQFS 210356Z AUTO 26005KT 9999 M 19/04 A2998 RMK AO2 SLPNO T01880044 $
