2015/12/18 11:30
KQFT 181130Z AUTO 04001KT 9999 OVC005 M01/M09 A3052 RMK A02 TSNO
