2015/12/18 11:30
KQFU 181130Z AUTO 23001KT 4800 HZ CLR M01/M07 A3052 RMK A02 TSNO
