2014/10/04 19:40
KQFW 041940Z AUTO 15002KT 9999 CLR 08/06 A3019 RMK A02 TSNO
