2015/12/18 11:30
KQFX 181130Z AUTO 07001KT 9999 BKN005 OVC005 M01/M08 A3054 RMK A02 TSNO
