2015/03/03 16:59
KQGA 031659Z AUTO 12009G17KT 4400 HZ CLR 34/M04 A2989 RMK CDP03659 CLR
