2009/03/26 23:59
KQGC 262359Z COR 07003KT 7SM SKC 03/M02 A2988 RMK SLP130 T00271022 10090 20026 400270027 51025 LAST COR 2359
