2010/03/16 13:55
KQGE 161355Z AUTO VRB03KT 10SM CLR 10/07 A3013 RMK AO2 SLP208 T00980068
