2007/10/19 14:55
KQGP 191455Z 34007KT 7SM BKN010 22/16 A2988 RMK SLPNO WND DATA ESTMD ALSTG ESTMD 6//// 52030
