2014/05/01 19:00
KQGR 011900Z AUTO 30008KT 9999 BKN001 33/16 A2995 RMK CDP03564 BKN001 CLD AVG 001
