2013/11/23 07:00
KQGU 230700Z VRB06KT 9999 BKN020 OVC040 26/24 A2980
