2015/12/18 10:58
KQGX 181058Z AUTO 35007KT 9999 CLR 25/10 A3009 RMK AO2 SLP192 T02490099
