2010/01/28 05:55
KQGY 280555Z 26005KT 7SM FEW030 SCT080 07/04 A3002 RMK SLP151 T00720044 10111 20072 50006
