2010/01/11 00:55
KQGZ 110055Z 23004KT 9999 CLR 12/08 A3008 RMK A02A SLP188 T01240083 $
