2010/08/30 13:55
KQHA 301355Z 03005KT 9999 FEW050 SCT250 34/20 A2990 RMK A02A SLPNO WND DATA ESTMD ALSTG ESTMD LAST
