2009/02/28 08:55
KQHB 280855Z 14005KT 9999 BKN200 31/07 A2989 RMK SLPNO WND DATA ESTMD ALSTG ESTMD 58027
