2010/06/15 17:55
KQHD 151755Z AUTO 29005KT 7SM FEW003 SCT008 BKN025 26/20 A2998 RMK AO2 SLP126 60025 60021 T02610204 10225 20204 58006 PWINO $
