2009/10/04 09:55
KQHM 040955Z VRB06KT 9999 SKC 32/M02 A3002 RMK SLP126 T03171017 PA 2337 DA 4793
