2015/12/18 10:55
KQHN 181055Z 28002KT 9999 FEW250 13/M03 A3018 RMK SLP207 Q1022 DA3623
