2010/03/10 20:55
KQHO 102055Z 17012G19KT 9999 SKC 34/12 A2978 RMK SLPNO
