2014/07/09 19:55
KQHT 091955Z 26005KT 10SM FEW040 SCT080 SCT200 25/22 A3011 RMK AO2A SLPNO WND DATA ESTMD ALSTG ESTMD $
