2015/12/18 10:55
KQHU 181055Z 03005KT 9999 SCT150 BKN300 17/07 A3015 RMK SLP210 WND DATA/ALSTG ESTMD
