2010/03/16 04:55
KQHV 160455Z 32007KT 9999 SCT040 03/M13 A3013 RMK SLPNO WND DATA ESTMD ALSTG ESTMD
