2014/04/13 12:55
KQHW 131255Z 32005G13KT 9999 FEW060 28/M02 A2987 RMK SLP082 QNH1011 LAST
