2010/02/05 11:55
KQHX 051155Z 35015KT 9999 BKN200 23/15 A2988 RMK A02A SLP120 T02280151 10265 20225 56009 $
