2015/12/18 10:56
KQHY 181056Z AUTO 35006KT 10SM CLR 07/03 A3010 RMK AO2 SLP195 T00740026
