2009/03/25 14:58
KQHZ 251458Z 29005KT 6SM -DRDU SKC 16/M08 A3015 RMK WND DATA ESTMD ALSTG ESTMD 5////
