2007/08/21 19:56
KQIB 211956Z 30001KT 9000 BR FEW019 SCT023 25/23 A2972 RMK AO2A LTG DSNT S SLP059
