2007/04/17 10:59
KQIH 171059Z AUTO 28010KT 6000M HZ 15/10 A3021 RMK AO2 SLP235 T01500100 $
