2015/12/18 10:58
KQIR 181058Z 18005KT 9000 HZ CLR 22/08 A3008 RMK AO2A SLP189 T02230080 $
