2009/10/25 07:55
KQIT 250755Z VRB05KT 8000 HZ BKN200 25/07 A3005 RMK SLP164
