2008/02/01 05:55
KQIW 010555Z VRB03KT 7SM SKC 05/M08 A3012 RMK SLP224 10090 20050 58010 WND/ALSTG/SLP DATA ESTMD
