2009/11/30 08:55
KQJ4 300855Z 28005KT 9000 BR BKN050 OVC080 17/04 A3014 RMK SLPNO WND DATA ESTMD ALSTG ESTMD
