2007/06/07 02:55
KQJA 070255Z 27007KT 9999 FEW200 25/M02 A2969 RMK SLP040 T02531024 56003 PA 833 DA 2248
