2008/03/29 04:59
KQJB 290459Z 00000KT 9999 FEW100 FEW200 01/M04 A3006 RMK SLPNO
