2007/06/04 01:00
KQJI 040100Z 11104KT 19/06 A2979 RMK SLPNO ESTMD ALSTG P1002.0
