2008/08/06 18:55
KQJJ 061855Z AUTO VRB03KT 5SM SCT003 BKN005 OVC007 15/13 A3001 RMK AO2 SLP162
