2008/05/30 12:55
KQJM 301255Z AUTO VRB04KT 6000 CLR 40/02 A2965 RMK AO2 SLP038
