2008/01/18 21:55
KQJO 182155Z 03006KT 7SM BKN050 OVC100 04/M04 A3013 RMK SLPNO WND DATA ESTMD ALSTG ESTMD
