2009/10/01 09:55
KQJP 010955Z 03008KT 9000 HZ CLR 31/M03 A2999 RMK SLP150 Q1015MB FU LYR ALFT
