2007/09/29 08:16
KQJT 290816Z AUTO VRB03KT 5000 FEW003 SCT005 19/15 A2999 RMK AO2 SLP152
