2008/09/16 20:55
KQJX 162055Z 12007KT 100V180 9999 SCT040 BKN100 OVC250 30/26 A2980 RMK OCNL LTG DSNT SSE SLPNO
