2009/05/06 23:55
KQJZ 062355Z 20011KT 9999 FEW180 OVC200 18/07 A2975 RMK SLPNO WND DATA/ALSTG ESTMD
