2012/06/19 00:55
KQKA 190055Z AUTO 04009KT 9999 CLR 25/05 A2968 RMK AO2 SLP972 T02450047
