2009/09/24 18:55
KQKB 241855Z COR 34010G17KT 9999 CLR 30/10 A2980 RMK SLP098 WND/ALSTG/SLP/QNH ESTMD QNH1009 COR 1858
