2007/06/06 03:58
KQKF 060358Z AUTO 18001KT 10SM 32/03 A2986
