2015/12/18 10:55
KQKG 181055Z AUTO 21007G15KT 10SM -TSRA CLR 18/17 A3013 RMK AO2 PK WND 05028/1034 RAB1011E1020B1045E1047SHRAB1020E1028 SLP164 WND DATA ESTMD P0001 T01750166 $
