2007/08/10 17:55
KQKK 101755Z 16008KT 7SM SCT030 34/30 A2989
