2008/08/30 21:55
KQKN 302155Z 32005KT 4400 DU FEW000 34/09 A2966 RMK DU FEW000 SLP038 T03410086 PA 418 DA 2726
