2009/09/01 17:55
KQKS 011755Z 29007KT 9000 DU CLR 33/M01 A2972 RMK SLP054 Q1006MB 52012
