2014/08/25 19:00
KQKV 251900Z AUTO 01003KT //// CLR 36/03 A2996 RMK CDP03576 CLR
