2009/09/24 20:55
KQKW 242055Z 29003KT 7SM FEW026 OVC060 23/17 A3008 RMK WND DATA ESTMD ALSTG ESTMD 58008
