2007/10/09 18:55
KQKZ 091855Z AUTO VRB03KT 7SM CLR 37/14 A2989 RMK AO2 SLP114
