2015/12/18 10:55
KQL5 181055Z VRB03KT 9000 HZ CLR 16/M04 A3012 RMK AO2A SLP209 T01571036
