2010/07/02 15:55
KQLC 021555Z AUTO 04002KT 12SM 23/M06 A3008 RMK AO2 SLP055 T02281065 $
