2013/04/02 14:55
KQLD 021455Z AUTO 15009G17KT 8000 SHRASN FEW021 SCT036 BKN050 OVC065 02/M01 A3020 RMK AO2 LTG DSNT NE SHRAB1441SHRAE1448SHRASNB1448 SLP310 T00211008 53028
