2010/09/23 03:55
KQLE 230355Z 26009KT 8000 DU SKC 21/M03 A2985 RMK SLP077 T02121032 PA2401 DA3692
