2010/06/05 10:55
KQLG 051055Z AUTO VRB02KT 10SM FEW020 SCT024 BKN036 31/24 A3005 RMK AO2 SLP171 T03050235 $
