2012/02/04 22:56
KQLK 042256Z AUTO 27008KT 10SM CLR 17/M11 A3003 RMK AO2 SLP115 T01721111 TSNO 
