2008/10/19 09:55
KQLO 190955Z 34008G13KT 9000 HZ SKC 30/01 A3004 RMK SLP168
