2015/12/18 10:55
KQLP 181055Z AUTO 06008G14KT 330V060 10SM FEW033 BKN055 BKN070 21/11 A3025 RMK AO2 SLP184 WND DATA ESTMD T02120114
