2014/09/24 05:55
KQLQ 240555Z VRB06KT 9999 FEW120 27/M03 A3022 RMK SLP115 WND DATA ESTMD ALTSG/SLP DATA ESTMD LAST
