2009/05/30 21:55
KQLS 302155Z 31010KT 8000 HZ CLR 24/M09 A2983 RMK SLP091 Q1009MB
