2014/07/23 06:55
KQLT 230655Z VRB05KT 9999 FEW230 37/M04 A2978 RMK SLP944
