2007/09/14 18:55
KQLV 141855Z 04002KT 9999 SKC 27/04 A2977 RMK WND DATA ESTMD ALSTG ESTMD MOBOB
