2013/09/29 23:55
KQLY 292355Z AUTO 05002KT 6000 CLR 19/04 A2987 RMK AO2 SLP095 T01940039 10310 20246 403240188 52006 $
