2014/04/13 12:55
KQM1 131255Z AUTO VRB01KT 9999 26/M10 A2992 RMK AO2 SLP107 T02641104 $
