2009/10/11 08:55
KQMA 110855Z 18006G14KT 9999 SKC 30/00 A3006 RMK SLP145 T02970000 57007 PA 2299 DA 4529
