2009/03/21 09:55
KQMB 210955Z 36014G29KT 9000 HZ FEW000 23/07 A2979 RMK HZ FEW000 SLP086 T02310065 PA 399 DA 1456
