2015/12/17 17:55
KQMC 171755Z 10003KT 9999 SCT040 BKN050 30/20 A2984 RMK AO2A SLP101 WND DATA ESTMD T02990200 10223 20206 58018
