2014/06/12 02:59
KQMD 120259Z AUTO 36006KT //// 27/01 A2995
