2014/01/22 12:55
KQMF 221255Z VRB03KT 8000 HZ FEW015 FEW030 24/19 A3003 SLPNO WND DATA ESTMD ALSTG ESTMD
