2007/10/04 05:55
KQMK 040555Z 090005KT 9999 FEW040 SCT080 SCT100 25/M07 A3007 RMK SLP139 T02521073 10252 20194 56007 PA 2287 DA 4042
