2013/06/20 14:55
KQML 201455Z AUTO 31004KT 8000 HZ CLR 38/M03 A2965 RMK AO2 SLP004 T03841030 55001 $
