2008/12/27 14:55
KQMM 271455Z 31009KT 9999 SCT 10/M02 A3021 RMK SLP231 T01021018 50000 PA 402 DA -4
