2007/06/13 13:55
KQMP 131355Z 02005KT 7SM SCT012 BKN120 BKN180 25/20 A2993 RMK WND DATA ESTMD ALSTG ESTMD
