2008/04/19 05:55
KQMQ 190555Z 29006KT 8000 HZ FEW000 SCT140 OVC250 22/M02 A2991 RMK HZ FEW000 SLP126 T02161017 10160 20216 51012 PA 203 DA 1047
