2015/02/06 15:50
KQMR 061550Z 27012KT 9999 SCT060 SCT150 29/19 A2978 RMK AO2A SLP084 T02900187 LAST
