2012/06/26 03:55
KQMS 260355Z AUTO 10011G21KT 9999 FEW004 SCT019 BKN024 27/22 A2996 RMK AO2 SLP143 T02660217 $
