2010/01/10 06:55
KQMV 100655Z 33007KT 9999 SCT200 12/02 A3020 RMK SLP227 T01210021 PA -44 DA -378
