2009/10/12 01:55
KQMW 120155Z 33009KT 9000 DU HZ SKC 25/02 A2997 RMK SLP139 QNH1014
