2010/03/16 13:55
KQMY 161355Z VRB01KT 7SM SCT200 SCT250 09/02 A3034 RMK SLP275
