2009/06/15 18:55
KQMZ 151855Z 06012KT 7SM FEW220 28/18 A3000 RMK SLP159
