2009/09/23 15:55
KQNB 231555Z AUTO 00000KT 3SM 22/11 A3022 RMK AO2 SLP231 T02190112 TSNO $
