2015/06/08 08:55
KQND 080855Z AUTO VRB02KT 9SM FEW190 30/20 A2991 RMK AO2 SLP111 T03030204 50000 TSNO $
