2008/10/15 12:55
KQNG 151255Z VRB06KT 9000 HZ FEW045 SCT200 20/08 A3003 RMK AO2 SLP168
