2009/03/27 01:00
KQNL 270100Z VRB02KT 9000 NSC 07/03 A2994 RMK INDIGENOUS DATA NOT QCD
