2009/01/28 20:30
KQNN 282030Z VRB04KT 3SM SCT019 BKN033 BKN120 20/13 A2967 RMK SLP047
