2009/10/23 14:55
KQNR 231455Z VRB03KT 6SM DU SKC 10/M08 A3004 RMK SLP169 T010221077
