2010/03/06 08:55
KQNS 060855Z 16002KT 6000 -SHRA BR SCT008 BKN010 BKN017 02/00 A3013 RMK A02A SLP260 WND DATA ESTMD ALSTG/SLP ESTMD 60002 T00220003 58006
