2009/10/10 07:55
KQNT 100755Z 23003KT 7SM SKC 15/M06 A2991 RMK AO2A SLP110 T01461062
