2009/11/03 11:53
KQNX 031153Z 03003KT 10SM FEW020 SCT070 26/23 A2999 RMK SLP155 T02560233 10256 20239 53010
