2010/01/10 23:55
KQNY 102355Z 00000KT 7SM FEW200 21/M09 A3020 RMK SLP207 T02061089 10206 20133 58026
