2007/06/15 03:55
KQO5 150355Z 20010KT 7SM 36/03 A2967 RMK SLPNO T03630031 SP29.380
