2009/09/14 02:55
KQOF 140255Z 00000KT 6000 BR SKC 19/15 A3015 RMK SLP202
