2010/05/20 00:55
KQOK 200055Z 36006KT 9999 24/08 A2973 RMK AO2 SLP060
