2011/09/11 06:55
KQOL 110655Z AUTO 34007KT 5000 CLR 34/08 A2974 RMK AO2 SLP067 T03430075 $
