2011/03/03 09:55
KQON 030955Z AUTO 28015G26KT 6000 FEW004 18/M09 A3002 RMK AO2 SLP167 T01781092 $
