2012/08/08 14:55
KQOS 081455Z 23005KT 9000 HZ SKC 36/M02 A2963 RMK SLP958 T03621023 55000 PA3534 DA6689
