2013/04/27 23:56
KQOT 272356Z 32005KT 7SM FEW150 36/M05 A2986 RMK SLP111 T03571054 10361 20344 57010
