2007/10/18 17:55
KQOU 181755Z AUTO VRB02KT 7SM SCT031 BKN065 27/21 A2994 RMK AO2 SLP133
