2009/07/06 12:55
KQOV 061255Z 23005G14KT 4000 DU HZ SCT000 37/22 A2956 RMK DU HZ SCT000 SLP989 T03650105 PA 1258 DA 4000
