2012/08/19 14:55
KQOW 191455Z AUTO 08006G18KT 8000 CLR 35/21 A2956 RMK AO2 SLP952 T03470208 53011 $
