2013/11/05 00:55
KQOX 050055Z AUTO VRB02KT 8000 -RA FEW024 SCT032 05/03 A3037 RMK AO2 SLP295 T00540033 PNO $
