2009/10/24 21:55
KQOY 242155Z AUTO 26001KT 12SM FEW120 SCT150 26/22 A2985 RMK AO2 SLP107 T02560220
