2010/11/26 08:55
KQP8 260855Z VRB03KT 5000 FU HZ CLR 23/05 A2994 RMK SLP134 57030
