2013/04/26 18:55
KQPA 261855Z 29007KT 9999 SKC 25/M02 A2990 RMK SLP127 T02531019
