2009/12/13 11:55
KQPC 131155Z 00000KT SKC 19/08 A3006 RMK SLP189 1088 20080 57015 PA 892 DA 1010
