2009/01/28 04:55
KQPF 280455Z 35005KT 7SM SKC 01/M07 A3030 RMK RMK WND/ALT ESTMD RANGE AND BEARING 123 AT 12KM
