2009/05/08 12:55
KQPJ 081255Z VRB02KT 7SM SKC 19/M01 A2990 RMK SLPNO
