2013/11/14 16:55
KQPR 141655Z AUTO 27010KT 10SM CLR 07/M03 A2990 RMK AO2 SLP151 T00671029
