2008/12/11 10:56
KQPT 111056Z COR 00000KT 7SM SCT180 11/M06 A3018 RMK SLP219 T01091064
