2009/03/16 07:57
KQPU 160757Z VRB01KT 9999 SCT200 08/M03 A3021 RMK SLPNO
