2009/06/12 17:55
KQQ9 121755Z 28003KT 9999 SCT170 22/07 A2986 RMK SLP041 WND DATA ESTMD ALSTG/SLP ESTMD 60000 57002
