2009/03/29 01:53
KQQE 290153Z AUTO 00000KT 10SM CLR 07/M11 A2998 RMK AO2 SLP126 00671106 TSNO 
