2013/09/24 04:55
KQQN 240455Z AUTO 33001KT 4800 CLR 31/M08 A2983 RMK AO2 SLP049 T03071082 $
