2010/01/22 13:55
KQQP 221355Z 01005KT 9999 FEW080 17/07 A3019 RMK SLP224 T01670074 PA -35 DA 197
