2012/10/13 05:55
KQQR 130555Z AUTO 15004G10KT 25/04 A3004 RMK AO2 SLP122 T02520043 10194 20170 50001 PWINO TSNO $
