2015/06/27 08:55
KQQY 270855Z AUTO 00000KT 9999 FEW055 BKN120 22/20 A3006 RMK AO2 SLP162 T02200195 56019 $
