2008/03/14 14:55
KQRA 141455Z AUTO 02003KT 7000 CLR 22/M02 A2986 RMK AO2 SLP098
