2015/03/07 07:50
KQRB 070750Z AUTO 06003KT 24/21 A2989 RMK AO2 SLP119 T02420213 TSNO $
