2010/03/03 20:55
KQRD 032055Z AUTO 11004KT 12SM CLR 12/M04 A2992 RMK AO2 SLP163 T01211039 57015
