2015/12/18 10:56
KQRH 181056Z AUTO 07007G15KT 9999 CLR 30/20 A2997 RMK AO2 SLP142 T02950201
