2009/06/30 16:55
KQRP 301655Z AUTO 27010G16KT 11SM CLR 18/M03 A3001 RMK AO2 SLP158 T01781028
