2010/02/26 11:55
KQRS 261155Z AUTO VRB03KT 12SM CLR 13/M04 Q1021 RMK AO2 SLP208 70001 T01311039 10006 21016 58017 $
