2009/07/20 17:55
KQRT 201755Z AUTO 17005KT 12SM CLR 29/14 A3008 RMK AO2 SLP185 T02930143 $
