2014/08/17 04:55
KQRU 170455Z AUTO VRB06KT 8000 HZ CLR 21/08 A3012 RMK AO2 SLP114 T02130079
