2009/09/17 02:00
KQRW 170200Z COR 05015KT 9999 SCT025 28/19 A2987 RMK SLP115 LAST T02820187
