2014/08/27 08:55
KQRY 270855Z AUTO VRB03KT 9999 CLR 28/M05 A3004 RMK AO2 SLP048 T02791048 57020 $
