2009/06/28 00:55
KQRZ 280055Z 29010G16KT 0800 DS VV003 33/06 A2961 RMK DU VV003 SLP018 T03280059 PA 566 DA 2762
