2009/11/07 06:55
KQS0 070655Z 32007KT FEW045 BKN080 18/M01 A3015 RMK SLPNO WND DATA ESTMD ALSTG ESTMD MTN PASSES AND TOPS CLR ESTRN SECTOR MORE SCATTERED THIN DECK WSTRN CLD DECK THICKER AND NON-TRANSPARENT STARTING TO DROP DOWN NEAR 11450FT PEAK TO THE WEST
