2010/01/04 12:55
KQS2 041255Z 00000KT 9999 FEW150 BKN250 17/00 A2990 RMK SLPNO WND DATA ESTMD ALSTG ESTMD
