2008/04/30 09:55
KQS9 300955Z 09009G12KT 9999 FEW090 SCT200 33/M01 A2987 RMK CB DSNT NE SLP055 WND DATA ESTMD ALSTG/SLP ESTMD
