2015/12/18 10:56
KQSA 181056Z 00000KT 9999 FEW200 09/M08 A3013 RMK AO2A SLP175 T00921075
