2014/06/03 11:55
KQSB 031155Z AUTO 36013G20KT 9999 FEW140 37/M02 A2985 RMK AO2 SLP022 T03671020 10356 20230 57015 PNO $
