2013/06/30 06:55
KQSD 300655Z VRB03KT 9999 BKN080 27/06 A2995 RMK AO2A SLP020 WND DATA ESTMD ALSTG/SLP ESTMD
