2015/12/18 10:55
KQSF 181055Z AUTO 05003KT 9999 CLR 09/M11 A3020 RMK AO2 SLP278 T00891114 $
