2010/03/16 12:55
KQSI 161255Z VRB02KT 9999 FEW250 34/M09 A2985 RMK WND/ALSTG DATA ESTMD
