2014/05/11 21:55
KQSJ 112155Z AUTO 00000KT 9999 CLR 12/07 A2994 RMK AO2 SLP083 T01150073 PWINO $
