2011/10/19 16:55
KQSL 191655Z 34010G15KT 0400 +DS VV000 23/08 A2995 RMK SLPNO Q1013MB LAST
