2010/10/12 14:55
KQSM 121455Z COR 33002KT 9999 FEW060 SCT250 24/10 A3001 RMK SLP161 Q1016MB 57002
