2014/05/04 00:55
KQSQ 040055Z 34006KT 9999 FEW100 SCT150 23/09 A2979 RMK SLP026 T02250093 PA2556 DA4042
