2013/09/12 10:55
KQSR 121055Z 23012KT 9999 CLR 26/M06 A3025 RMK AO2A SLP128 WND DATA ESTMD ALSTG ESTMD LAST $
