2009/04/12 07:55
KQSS 120755Z 35002KT 9999 SCT050 BKN180 21/09 A3009 RMK SLP158 MTN TOPS OBSCRD W-N BUILDING CU OVR MTNS ALQDS WND DATA ESTMD ALSTG/SLP ESTMD
