2013/12/07 09:55
KQSV 070955Z 19008G14KT 9999 FEW140 17/02 A2991 RMK SLP126 T01710018 PA3250 DA4278
