2007/05/29 03:55
KQT0 290355Z 35008KT 5000 HZ SKC 28/07 A2966 RMK SLP043 Q1004MB PA+407 DA+2234
