2011/10/05 09:54
KQT8 050954Z 11016KT 10SM SCT048 26/14 A3005 RMK DA012
