2015/12/18 10:56
KQTA 181056Z AUTO 17001KT 9999 CLR 14/04 A3019 RMK AO2 SLP220 T01440043
