2007/05/11 08:55
KQTB 110855Z 33006KT 10SM FEW140 14/04 A3012 RMK SLP150 WND DATA ESTMD
