2015/03/16 13:55
KQTC 161355Z AUTO VRB05KT 10SM CLR 40/M03 A2981 RMK AO2 SLP120 T03981030 $
