2012/08/15 02:55
KQTD 150255Z AUTO 32001KT 9999 CLR 23/M02 A2980 RMK AO2 SLP063 T02311021 52013 $
