2015/03/27 19:55
KQTF 271955Z AUTO VRB03KT 8SM CLR 16/13 A3014 RMK AO2 SLP205 T01550134
