2015/04/20 03:55
KQTH 200355Z AUTO 13009KT 020V170 9999 CLR 27/00 A3003 RMK AO2 SLP141 T02721002 $
