2015/12/18 10:55
KQTI 181055Z VRB03KT 9999 FEW120 FEW200 18/06 A3014 RMK AO2A SLP205 T01780061
