2015/06/21 08:55
KQTM 210855Z AUTO 26008KT 210V280 10SM FEW200 40/M04 A2855 RMK AO2 SLP658 T03981042 52012
