2011/11/18 10:55
KQTO 181055Z 03006KT 9999 FEW100 BKN250 23/05 A3001 RMK SLP160
