2010/01/30 16:50
KQTP 301650Z 00000KT 7SM IC SCT200 SCT250 M21/M25 A3061 RMK WND ALSTG ESTMD IC VERY LIGHT CONTRAILS 250
