2007/04/14 21:55
KQTQ 142155Z 19008KT 9999 FEW050 SCT100 15/10 A2983 RMK SLP100 T01530100 PA 361 DA 521
