2009/06/21 01:55
KQTT 210155Z 17003KT 8000 HZ FU CLR 26/11 A2971 RMK SLP058 WIND TEMP ALSTG/SLP ESTMD
