2011/10/02 04:55
KQTU 020455Z AUTO 27002KT CLR 20/12 A3004 RMK AO2 SLP167 T01950119 PWINO $
