2007/07/06 20:55
KQTW 062055Z AUTO 33001KT 10SM 29/06 A2944
