2011/11/16 14:55
KQTX 161455Z 01011KT 9999 SCT045 13/08 A2996 RMK TS DST N WND DATA ESTMD ALSTG ESTMD 6//// 5////
