2008/10/02 20:55
KQTY 022055Z VRB04KT 9000 HZ SKC 20/M02 A2995 RMK SLP133 56003
