2015/12/18 10:55
KQTZ 181055Z 05005KT 9999 FEW120 19/04 A3014 RMK SLP206 WND DATA ESTMD ALSTG/SLP ESTMD
