2007/07/11 05:51
KQUB 110551Z AUTO 01006KT 8000M BR FEW023 SCT031 BKN090 02/01 Q1015 RMK AO2 SLP173 60007 T00170006 10022 20011 53017 $
