2015/03/19 23:55
KQUD 192355Z AUTO 27001KT 5SM VCTS FEW080 BKN150 23/20 A3007 RMK AO2 SLP110 T02330203 10284 20220 403190207 58002 $
