2008/01/31 16:56
KQUS 311656Z 10010G16KT 10SM OVC110 00/M09 A3011 RMK SLP202
