2009/08/30 12:55
KQV0 301255Z 28005KT 3200 DU FEW000 38/05 A2970 RMK SLPNO T03820048 PA 1110 DA 4115
