2013/11/26 07:58
KQVA 260758Z VRB04KT 9999 BKN030 BKN080 26/23 A2980 RMK TSRAE30 TS NW MOV NW SLP092 P0002 T02570231
