2007/06/11 10:55
KQVD 111055Z AUTO VRB04KT /// /// /// 26/14 A2993 RMK AO2 SLP057
