2012/09/22 04:55
KQVE 220455Z AUTO 10001KT 9999 27/08 A2999 RMK AO2 SLP099 T02690076 PWINO TSNO $
