2015/12/18 10:55
KQVF 181055Z AUTO VRB06KT 10SM FEW060 33/23 A2995 RMK AO2 SLP138 WND DATA ESTMD T03280226
