2009/08/28 21:55
KQVI 282155Z 00000KT 9999 SKC 26/M01 A2975 RMK SLPNO T02601010 PA 1067 DA 2670
