2010/03/13 15:55
KQVO 131555Z AUTO VRB02KT 8SM SCT008 BKN010 07/04 A2954 RMK AO2 SLP006 T00720041 TSNO $
