2008/06/25 17:55
KQVQ 251755Z 20005KT 7SM FEW070 FEW250 35/13 A3023 RMK SLP238 WND DATA ESTMD ALSTG/SLP ESTMD 58008
