2014/03/27 15:44
KQVR 271544Z AUTO VRB02KT //// 16/00 A2973
