2014/03/27 00:14
KQVS 270014Z AUTO 23001KT //// 14/01 A3505
