2008/01/01 07:55
KQW2 010755Z AUTO VRB06KT /// /// /// 03/M13 A3021 RMK AO2 SLP334
