2009/11/20 04:55
KQWE 200455Z 25005KT 6000 HZ FEW010 12/01 A3023 RMK FU FEW010 SLP238 QNH1023
