2007/06/07 08:55
KQWF 070855Z AUTO 19002KT 6SM FEW190 26/17 A3057 RMK AO2 SLP353
