2014/07/14 10:56
KQWL 141056Z AUTO 19009G14KT 9000 CLR 41/M01 A2959 RMK AO2 SLP948 T04141005
