2015/12/18 10:55
KQWM 181055Z 13014KT 9000 HZ FEW100 BKN250 20/09 A3002 RMK SLPNO QNH1016 ALSTG/QNH ESTMD
