2010/02/26 04:55
KQWN 260455Z 12003KT 3000 DU FEW006 BKN080 BKN120 OVC250 16/07 A2971 RMK LGT DSNT SE DU FEW006 SLP059 QNH1006
