2009/02/22 03:55
KQWQ 220355Z 31008KT 2000 DU SCT000 OVC250 15/M01 A2996 RMK DU SCT000 SLP143 QNH1014
