2014/01/14 18:55
KQWR 141855Z AUTO 12006KT M06/M09 A3031 RMK AO2 SLP408 T10581093 PWINO TSNO $
