2015/12/18 10:55
KQXH 181055Z AUTO VRB01KT 9999 CLR 16/05 A3021 RMK AO2 SLP237 T01590050
