2011/12/17 15:55
KQXJ 171555Z 31003KT 9999 CLR 13/M01 A3007 RMK SLPNO WND DATA ESTMD ALSTG ESTMD LAST
