2008/10/31 21:55
KQXQ 312155Z VRB04KT 9999 BKN220 13/04 A3023 RMK SLP238
