2014/09/19 13:59
KQXR 191359Z AUTO VRB02KT //// 06/06 A3012
