2014/09/19 13:59
KQXS 191359Z AUTO 20003KT //// 09/06 A3016
