2015/12/18 10:55
KQXT 181055Z VRB03KT 9999 FEW220 14/M03 A3021 SLP248 WND DATA ESTMD ALSTG/SLP ESTMD Q1023
