2015/12/18 10:55
KQXY 181055Z AUTO VRB03KT 9999 CLR 15/05 A3009 RMK AO2 LTG DSNT W SLP198 T01460052
