2008/04/10 04:55
KQY2 100455Z VRB02KT 9999 SCT055 BKN180 09/06 A2971 RMK SLP006 WND DATA ESTMD ALSTG/SLP ESTMD BLU
