2008/04/05 11:55
KQY5 051155Z 17005KT 9999 SCT025 SCT060 15/06 A2976 RMK SLP080 WND DATA ESTMD ALSTG/SLP ESTMD QNH1007 BLU
