2008/12/01 21:13
KQYA 012113Z AUTO 36001KT 8SM CLR BLO 250 06/04 A2961 RMK A01
