2007/10/22 21:55
KQYD 222155Z 33009G14KT 7SM -SHRA FEW012 OVC030 16/14 A2987 RMK SLP111 WND DATA ESTMD ALSTG ESTMD
