2007/10/11 19:55
KQYF 111955Z AUTO VRB03KT 7SM CLR 24/05 A3003 RMK AO2 SLP167
