2010/01/14 14:55
KQYI 141455Z VRB02KT 1200 DU VV012 13/06 A3014 RMK SLP210 53005
