2012/11/15 06:55
KQYK 150655Z AUTO VRB02KT 20/M14 A3031 RMK AO2 SLP250 T02021139 PWINO TSNO $
