2012/02/24 08:55
KQYL 240855Z AUTO VRB03KT 9999 CLR M01/M16 A3005 RMK AO2 SLP331 T10141156 57014
