2010/02/07 09:55
KQYM 070955Z 05002G03KT 9000 BR BKN220 10/08 A3003 RMK SLPNO
