2008/07/24 04:55
KQYN 240455Z 27006KT 9999 SKC 32/04 A2958 RMK SLP010 T03180035 PA 496 DA 2745
