2008/07/20 21:55
KQYR 202155Z VRB03KT 9999 SCT020 25/17 A2996 RMK SLP135
