2009/11/08 17:55
KQYT 081755Z AUTO VRB05KT 12SM CLR 04/00 A2999 RMK AO2 SLP199 T00370001 10011 21017 51012
