2013/12/01 14:55
KQYU 011455Z AUTO 02011G27KT 9999 CLR 07/01 A3042 RMK AO2 SLP326 T00710011 51013 TSNO $
