2015/07/16 07:56
KQYV 160756Z AUTO 30003KT 9999 FEW048 22/14 A3013 RMK AO2 SLPNO T02150142
