2009/05/08 16:55
KQYZ 081655Z VRB05KT 7SM SKC 26/02 A2985 RMK SLPNO WND DATA ESTMD ALSTG ESTMD
