2014/06/18 17:55
KQZ2 181755Z AUTO VRB03KT 9999 BKN065 32/21 A2992 RMK AO2 LTG DSNT N SLP120 T03160207 10239 20231 58023
