2008/07/05 17:55
KQZ3 051755Z 27004KT 9999 SKC 30/02 A2978 RMK SLPNO WND DATA ESTMD ALSTG ESTMD FALOP 0001 3512N 04233E 974 FT PAS T02980020 LAST
