2012/07/05 19:55
KQZ4 051955Z 15005KT 9999 SKC 32/M04 A2946 RMK SLP895 LAST TO3191037 PA3185 DA5846
