2010/03/02 14:55
KQZ7 021455Z 00000KT 9999 FEW100 OVC120 11/M02 A3008 RMK SLPNO WND DATA ESTMD ALSTG ESTMD
