2007/10/27 22:55
KQZB 272255Z 00000KT 7SM FEW100 FEW250 31/03 A3007 RMK SLPNO T03100030 PA 300 DA 2350
