2009/01/15 14:55
KQZD 151455Z 06007G17KT 7SM SKC 03/M05 A3050 RMK SLP332 ALSTG/SLP ESTMD 53031
