2009/03/18 03:55
KQZH 180355Z 26005KT 7SM 18/02 A3019 RMK RMK WND DATA ESTMD ALSTG DATA ESTMD
