2009/12/28 08:55
KQZN 280855Z COR VRB03KT 6000 HZ FEW100 BKN170 07/M08 A3015 RMK AO2A SLP271 WND DATA ESTMD ALSTG/SLP ESTMD T00721078 57018 COR 0917
