2010/02/09 14:55
KQZQ 091455Z 10003KT 8000 FU HZ FEW000 SCT130 OVC150 14/00 A3000 RMK FU FEW000 SLP160 QNH1015 ALSTG/SLP ESTMD WND DATA ESTMD PA +45 DA -24 53014
