2015/12/18 10:53
KRAC 181053Z AUTO 25007KT 10SM CLR M05/M12 A2990 RMK AO2 SLP132 T10501117
