2015/12/18 10:53
KRAL 181053Z AUTO 04004KT 10SM CLR 08/M05 A3012 RMK AO2 SLP191 T00781050
