2011/11/07 10:57
KRAM 071057Z 11016KT 10SM CLRBLO120 22/17 A3014
