2015/12/18 10:52
KRAP 181052Z AUTO 00000KT 10SM CLR M14/M21 A2989 RMK AO2 SLP186 T11441206
