2015/12/18 11:15
KRAS 181115Z AUTO 02012G20KT 10SM CLR 10/03 A3028 RMK AO2 T01000026
