2015/12/18 10:53
KRBD 181053Z 35008KT 10SM CLR 01/M01 A3029 RMK AO2 SLP257 T00111011
