2015/12/18 10:53
KRBG 181053Z AUTO 16004KT 4SM RA BR OVC050 12/09 A2977 RMK AO2 SLP082 P0014 T01170094
