2015/12/18 11:15
KRBO 181115Z AUTO 02008KT 10SM CLR 08/01 A3030 RMK AO2 T00810008
