2015/12/18 11:15
KRBW 181115Z AUTO 28007KT 7SM RA SCT006 BKN014 OVC019 18/17 A2984 RMK AO2
