2015/12/18 11:15
KRCM 181115Z AUTO 21005KT 10SM CLR M05/M07 A3019 RMK AO2
