2015/12/18 11:15
KRCR 181115Z AUTO 25007KT 10SM CLR M01/M05 A2995 RMK AO2
