2015/12/16 07:20
KRCV 160720Z AUTO 28010KT 10SM CLR M12/M18 A2980 RMK AO2 T11161178
