2015/12/18 11:15
KRCX 181115Z AUTO 25007KT 10SM -SN OVC022 M08/M12 A2980 RMK AO2 T10811118
