2015/12/18 11:15
KRCZ 181115Z AUTO 25003KT 7SM SCT043 OVC050 15/15 A2977 RMK AO2 T01520150
