2015/12/18 11:23
KRDD 181123Z 17004KT 1 1/2SM -RA BR BKN003 OVC009 07/04 A3008 RMK AO2 RAB1059 CIG 002V006 P0003 T00670044
