2015/12/18 10:54
KRDG 181054Z 31003KT 10SM BKN065 OVC095 04/M01 A2980 RMK AO2 SLP096 T00441006
