2015/12/18 11:15
KRDK 181115Z AUTO 24006KT 10SM CLR M06/M08 A3007 RMK AO2
