2015/12/18 10:56
KRDM 181056Z AUTO 19010G22KT 10SM SCT038 BKN048 08/01 A2968 RMK AO2 PK WND 18026/1036 SLP048 T00780006
