2015/12/18 10:59
KRDR 181059Z AUTO 34013G21KT 10SM OVC029 M13/M18 A2986 RMK AO2 SNE58
