2015/12/18 10:51
KRDU 181051Z 00000KT 3SM -RA BR FEW006 BKN038 OVC065 13/12 A2977 RMK AO2 SFC VIS 5 SLP080 P0006 T01330117 $
