2015/12/18 10:52
KREO 181052Z AUTO 18010KT 04/M01 A2991 RMK AO1 SLP136 T00441006 
