2015/12/18 10:54
KRFD 181054Z 25008KT 10SM OVC039 M03/M10 A2993 RMK AO2 SLP144 T10281100
