2015/12/18 11:15
KRFI 181115Z AUTO 33003KT 10SM CLR 03/00 A3029 RMK AO2 T00261005
