2015/12/18 11:15
KRGK 181115Z AUTO 28006G16KT 10SM OVC049 M09/M13 A2989 RMK AO2
