2015/12/18 10:53
KRHI 181053Z AUTO 25013G20KT 10SM OVC019 M09/M13 A2971 RMK AO2 SNB28E38 SLP088 P0000 T10891133
