2015/12/18 05:47
KRHV 180547Z 00000KT 10SM FEW032 09/07 A3024
