2015/12/18 10:54
KRIC 181054Z 03007KT 10SM OVC012 10/09 A2978 RMK AO2 SLP088 T01000089
