2015/12/18 10:53
KRIL 181053Z AUTO 00000KT 10SM OVC050 M08/M12 A3030 RMK AO2 SLP304 T10831122
