2015/12/18 10:53
KRIW 181053Z AUTO 21011KT 10SM CLR M10/M18 A2989 RMK AO2 SLP183 T11001183
