2010/09/16 18:04
KRJD 161804Z AUTO 23006KT 10SM CLR 05/M02 A3039 RMK=TEST 16
