2015/12/18 11:20
KRKD 181120Z AUTO 31004KT 10SM FEW007 SCT017 OVC025 08/08 A2960 RMK AO2
