2015/12/18 10:53
KRKP 181053Z AUTO 01010KT 10SM CLR 09/01 A3028 RMK AO2 SLP254 T00940006
