2015/12/18 11:15
KRKR 181115Z AUTO 30003KT 10SM OVC026 01/M05 A3031 RMK AO2 T00071047
