2015/12/18 10:54
KRKS 181054Z AUTO 25014G23KT 10SM OVC022 M04/M09 A3006 RMK AO2 PK WND 26034/1003 SLP229 T10391089
