2009/07/16 12:50
KRKW 161250Z AUTO 35003KT 10SM CLR 22/21 A3008 RMK AO1 T02160205 $ 
