2015/12/18 10:53
KRME 181053Z AUTO 28007KT 10SM OVC040 03/00 A2981 RMK AO2 SLP095 T00330000
