2015/12/18 11:15
KRMN 181115Z AUTO 36006KT 10SM OVC037 07/02 A2986 RMK AO2 T00720015
