2015/12/18 11:13
KRMY 181113Z AUTO 22008KT 10SM SCT035 M02/M05 A2986 RMK AO2 T10251053
