2015/12/18 11:15
KRNC 181115Z AUTO 32005KT 10SM OVC016 00/M02 A3006 RMK
