2015/12/18 10:58
KRND 181058Z AUTO 01006KT 10SM CLR 04/M02 A3028 RMK AO2 SLP254 T00381025
