2015/12/18 11:15
KRNH 181115Z AUTO 27009G17KT 10SM BKN032 OVC037 M09/M14 A2986 RMK AO2 T10911141
