2009/04/13 23:53
KRNI 132353Z 27009KT 10SM CLR 21/06 A2992 RNK AO2 SLP124 T02110056 10239 20211 56013 
