2015/12/18 11:15
KRNP 181115Z AUTO 24011G16KT 10SM BKN040 00/M08 A2982 RMK AO2 T00001078
