2015/12/18 10:54
KROA 181054Z 30014KT 10SM CLR 08/02 A2983 RMK AO2 SLP099 T00780022
