2015/12/18 10:54
KROC 181054Z 29007KT 10SM SCT038 OVC046 02/M04 A2983 RMK AO2 SLP110 BINOVC T00221044
