2015/12/18 11:05
KROG 181105Z 30006KT 10SM SCT025 M03/M06 A3024 RMK AO2
