2015/12/18 11:16
KROS 181116Z AUTO 27006G15KT 10SM OVC032 M09/M14 A2985 RMK AO2 T10901136
