2015/12/18 10:51
KROW 181051Z 16007KT 10SM CLR M06/M11 A3019 RMK AO2 SLP218 T10611111
