2015/12/18 11:14
KROX 181114Z AUTO 29007KT 10SM -SN SCT042 OVC047 M13/M16 A2978 RMK AO2
