2015/12/18 11:15
KRPD 181115Z AUTO 27009KT 10SM SCT027 OVC035 M08/M14 A2983 RMK AO2 T10821139
