2010/12/09 10:55
KRPE 091055Z 07015KT 10SM CLR 08/08 A3025
