2015/12/18 11:15
KRPJ 181115Z AUTO 27018G25KT 10SM OVC037 M03/M09 A2994 RMK AO2 T10321090
