2015/12/18 10:55
KRPX 181055Z AUTO 21000KT 40SM M12/M19 A2979 RMK A01 T11221188 
