2008/06/26 01:53
KRQA 260153Z AUTO 25012KT 10SM CLR 26/M04 A3022 RMK AO2 SLP108 T02611039 TSNO 
