2015/12/18 11:15
KRQB 181115Z AUTO 27007KT 10SM OVC035 M02/M08 A2979 RMK AO2 T10171083
