2008/01/24 02:53
KRQM 240253Z AUTO 11065KT 10SM SCT065 00/M08 A3003 RMK AO2 
