2015/12/18 11:14
KRRT 181114Z AUTO 28007KT 10SM BKN030 OVC048 M13/M17 A2976 RMK AO2
