2015/12/18 10:53
KRSL 181053Z AUTO 22008KT 10SM CLR M09/M11 A3014 RMK AO2 SLP235 T10891106 $
