2015/12/18 10:54
KRST 181054Z 28013KT 10SM OVC046 M09/M13 A2989 RMK AO2 SLP143 T10941128 $
