2015/12/18 11:15
KRSV 181115Z AUTO 26009KT 10SM SCT040 M01/M04 A3007 RMK AO2 T10141045
