2015/12/18 10:53
KRSW 181053Z 17006KT 10SM BKN003 23/22 A2994 RMK AO2 SLP137 T02330222
