2015/12/18 10:53
KRTN 181053Z AUTO 06007KT 10SM CLR M12/M16 A3005 RMK AO2 SLP211 T11171156
