2015/12/18 11:15
KRTS 181115Z AUTO 33004KT 10SM CLR 03/M05 A3004 RMK AO2
