2015/12/18 11:22
KRUE 181122Z AUTO 32008KT 10SM BKN029 02/M03 A3026 RMK AO2 T00221033
