2015/12/18 11:15
KRUG 181115Z AUTO 31019G24KT 10SM OVC046 M15/M18 A2987 RMK AO2 
