2015/12/18 10:53
KRWF 181053Z AUTO 23007KT 10SM SCT060 M08/M12 A2988 RMK AO2 SLP138 T10831117
