2015/12/18 11:07
KRWI 181107Z AUTO 33004KT 3SM -RA BR BKN008 BKN039 OVC055 14/14 A2975 RMK AO2 P0002 T01440139
