2015/12/18 11:10
KRWV 181110Z AUTO 32004KT 10SM CLR 02/00 A3034 RMK AO2
