2015/12/18 11:02
KRXE 181102Z AUTO 04004KT 2SM BR BKN004 OVC008 M06/M07 A3007 RMK AO2 CIG 003V007 I1000 T10611067
