2015/12/18 10:53
KRYT 181053Z AUTO 00000KT 10SM BKN028 03/M02 A2982 RMK AO2 SLP104 T00331017 $ 
