2015/12/18 11:15
KRYV 181115Z AUTO 23006KT 10SM OVC037 M05/M10 A2986 RMK AO2 T10501105
