2015/12/18 11:15
KRYW 181115Z AUTO 01007KT 10SM CLR 02/M01 A3029 RMK AO2 T00221013
