2015/12/17 23:47
KRYY 172347Z 29005KT 10SM BKN120 12/08 A2986
