2015/12/18 11:15
KRZL 181115Z AUTO 24007KT 10SM BKN120 M02/M05 A2996 RMK AO2
