2015/12/18 11:10
KRZN 181110Z AUTO 27012G19KT 10SM OVC032 M09/M13 A2983 RMK AO2 T10901135
