2015/12/18 11:15
KRZR 181115Z AUTO VRB03KT 10SM OVC020 02/00 A3002 RMK A01
