2009/06/25 18:54
KRZZ 251854Z AUTO VRB06KT 10SM CLR 33/14 A2985 RMK AO2 SLP104 T03280144 PNO $
