2015/12/18 11:15
KS25 181115Z AUTO 29012KT 10SM OVC021 M13/M16 A2996 RMK AO2 
