2015/12/18 11:35
KS32 181135Z AUTO 32013KT 6SM -SN BKN020 OVC026 M12/M14 A2985 RMK AO2
