2015/12/18 11:20
KS39 181120Z AUTO 17010G21KT 10SM OVC040 07/00 A2970 RMK AO2
