2011/04/07 13:44
KS58 071344Z 18015KT 7SM SCT030 23/23 A3000 RMK WT22 SEAS2-4
