2011/02/03 20:59
KS59 032059Z 00000KT 10SM M06/M12 A3049 RMK Libby 
