2011/02/03 21:19
KS71 032119Z 24016KT 10SM 04/M03 A3005 RMK Chinook 
