2015/12/18 10:51
KSAD 181051Z AUTO 14005KT 10SM CLR M01/M06 A3021 RMK AO2 SLP229 T10061056 
