2015/12/18 10:53
KSAF 181053Z AUTO 35013KT 10SM CLR M04/M14 A3018 RMK AO2 SLP231 T10441144
