2015/12/18 10:51
KSAN 181051Z 00000KT 10SM CLR 10/01 A3012 RMK AO2 SLP200 T01000011
