2015/12/18 11:15
KSAR 181115Z AUTO 28007KT 10SM CLR M01/M05 A3014 RMK AO2 T10061048
