2015/12/18 10:51
KSAT 181051Z VRB05KT 10SM CLR 05/M03 A3029 RMK AO2 SLP249 T00501028
