2015/12/18 10:56
KSAV 181056Z 28012KT 10SM SCT009 BKN012 OVC021 20/18 A2984 RMK AO2 T02000183
