2015/12/18 10:57
KSAW 181057Z AUTO 26006KT 10SM CLR M08/M11 A2966 RMK AO2 T10811107
