2015/12/18 11:13
KSAZ 181113Z AUTO 27007KT 10SM SCT023 OVC033 M11/M13 A2979 RMK AO2
