2015/12/18 10:53
KSBA 181053Z AUTO 00000KT 10SM CLR 04/01 A3011 RMK AO2 SLP195 T00440011
