2015/12/18 10:53
KSBM 181053Z AUTO 26016G25KT 10SM OVC039 M04/M12 A2983 RMK AO2 SLP110 T10391117
