2015/12/18 10:54
KSBN 181054Z 23011KT 10SM FEW120 M04/M06 A2991 RMK AO2 SLP140 T10391061
