2015/12/18 11:15
KSBS 181115Z AUTO 14004KT 2SM OVC011 M14/M16 A3020 RMK AO1 T11421161
