2015/12/18 11:21
KSBY 181121Z 32008KT 5SM -RA BR SCT009 BKN041 OVC095 11/11 A2977 RMK AO2 P0001 T01110106
