2015/12/18 11:15
KSCF 181115Z AUTO 33007KT 10SM CLR 14/05 A3018 RMK A01
