2015/12/17 18:50
KSCH 171850Z 18005KT 10SM -RA OVC008 10/09 A2981
