2015/12/18 10:55
KSCK 181055Z AUTO 13006KT 6SM BR CLR 03/01 A3014 RMK AO2 SLP207 T00280011
