2015/03/19 03:00
KSCL 190300Z 000000KT 9000 FEW015 BKN090 21/18 A3004 RMK/HZ
