2015/12/18 10:48
KSDB 181048Z AUTO 06010KT 10SM CLR 03/M11 A3016 RMK AO2 SLP198 T00331106 $ 
