2015/12/18 10:56
KSDF 181056Z 30007KT 10SM OVC027 01/M06 A3004 RMK AO2 SLP175 T00111056
