2015/12/18 11:15
KSDY 181115Z 29007KT 10SM OVC019 M13/M17 A3001 RMK AO1
