2015/12/18 10:53
KSEA 181053Z 15008KT 10SM -RA BKN050 07/06 A2949 RMK AO2 PK WND 20035/1010 SLP995 P0009 T00720061
