2015/12/18 10:53
KSEG 181053Z AUTO 28006KT 10SM OVC035 04/M02 A2985 RMK AO2 SLP111 T00391022
