2015/12/18 11:30
KSEM 181130Z AUTO 29004KT 10SM CLR 02/00 A3011 RMK AO2 TSNO
