2015/12/18 10:54
KSET 181054Z AUTO 28014KT 10SM BKN110 M01/M04 A3012 RMK AO2 SLP201 T10111044
