2015/12/18 11:15
KSEZ 181115Z AUTO 03011KT CLR 02/M08 A3020 RMK AO2 PWINO
