2015/12/18 11:05
KSFB 181105Z AUTO 22007KT 10SM BKN011 OVC018 24/21 A2992 RMK AO2 T02390211
