2009/03/08 05:56
KSFD 080556Z 06008KT 10SM OVC090 M03/M08 A2989 SLP141 T10331083 11011 21033 400111056 57017
