2015/12/18 10:53
KSFF 181053Z AUTO 14005KT 2SM -SN BR BKN007 OVC014 M01/M02 A2972 RMK AO2 UPB21E24B40E49SNE21B24E40B49 SLP079 P0003 I1000 T10061017
