2015/12/18 10:56
KSFO 181056Z 00000KT 10SM FEW021 08/07 A3013 RMK AO2 SLP204 T00830067
