2015/12/18 11:15
KSFY 181115Z AUTO 28019G24KT 10SM OVC029 M04/M10 A2997 RMK AO2 T10441104
