2015/12/18 11:15
KSFZ 181115Z AUTO 29004KT 10SM SCT070 BKN080 BKN100 09/08 A2967 RMK AO1
