2015/12/18 10:52
KSGF 181052Z 28008KT 10SM CLR M03/M07 A3019 RMK AO2 SLP234 T10331072
