2015/12/18 10:56
KSGH 181056Z AUTO 26009KT 10SM OVC023 M02/M06 A2997 RMK AO2 T10161055 SLP159
