2015/12/18 10:58
KSGJ 181058Z AUTO 20005KT 10SM -RA FEW008 BKN025 OVC095 22/21 A2989 RMK AO2 SLP121 P0000 T02170211
