2015/12/18 10:53
KSGR 181053Z AUTO 34009KT 10SM CLR 06/01 A3027 RMK AO2 SLP251 T00560006
