2015/12/18 11:12
KSGS 181112Z AUTO 26007KT 10SM SCT037 BKN047 M09/M13 A2990 RMK AO2 T10931130
