2015/12/18 11:15
KSGT 181115Z AUTO 33006KT 10SM CLR 01/M03 A3024 RMK AO1
