2015/12/18 11:15
KSHD 181115Z AUTO 01004KT 10SM BKN055 OVC070 08/05 A2982 RMK AO2 T00800050
