2015/12/18 11:15
KSHL 181115Z AUTO 22010KT 10SM SCT039 SCT049 BKN055 M08/M10 A2990 RMK AO2
