2015/12/18 10:56
KSHM 181056Z AUTO 01002KT 10SM BKN220 M13/M15 A2997 RMK AO2 SLP234 T11291151 $
