2015/12/18 10:53
KSHN 181053Z AUTO 22009KT 10SM FEW110 08/06 A2944 RMK AO2 RAE30 SLP974 P0003 T00780061
