2015/12/18 10:53
KSHR 181053Z AUTO 16003KT 10SM OVC075 M16/M21 A2988 RMK AO2 SLP196 T11611211
