2015/12/18 10:56
KSHV 181056Z 33009KT 10SM CLR 05/01 A3025 RMK AO2 SLP244 T00500006
