2015/12/18 11:35
KSIK 181135Z AUTO 27007KT 10SM OVC040 01/M01 A3017 RMK AO2 PWINO
