2015/12/18 10:53
KSIY 181053Z AUTO 17020KT 10SM OVC050 08/01 A2987 RMK AO2 PK WND 17032/1001 RAB05E36 SLP125 P0000 T00780011 TSNO
