2015/12/18 10:53
KSJC 181053Z AUTO 14005KT 10SM CLR 06/04 A3014 RMK AO2 SLP204 T00610039
