2015/12/18 11:15
KSJS 181115Z AUTO 00000KT 10SM OVC018 00/M02 A2997 RMK AO2 T00001020
