2015/12/18 10:51
KSJT 181051Z 22006KT 10SM CLR M04/M06 A3030 RMK AO2 SLP268 T10391061
