2015/12/18 11:28
KSKA 181128Z AUTO 08007KT 3SM -FZRA BR OVC005 M02/M02 A2966 RMK AO2
