2015/12/18 10:58
KSKF 181058Z AUTO 35001KT 10SM CLR 04/M03 A3029 RMK AO2 SLP258 T00361028
