2015/12/18 11:15
KSKX 181115Z AUTO 36004KT 10SM CLR M14/M19 A3019 RMK AO1
