2015/12/18 11:15
KSLB 181115Z AUTO 24012KT 10SM FEW044 BKN055 OVC065 M06/M09 A2995 RMK AO2
