2015/12/18 10:53
KSLC 181053Z 12007KT 10SM FEW038 BKN048 OVC055 01/M06 A3016 RMK AO2 SLP225 T00061061
