2015/12/18 10:56
KSLE 181056Z AUTO 20009KT 10SM -RA FEW034 OVC055 11/09 A2965 RMK AO2 SLP039 P0004 T01110089
