2015/12/18 11:15
KSLG 181115Z AUTO 29004KT 10SM CLR M03/M09 A3024 RMK AO1
