2015/12/18 11:15
KSLH 181115Z AUTO 25004KT 1SM -SN BKN004 OVC013 M02/M03 A2970 RMK AO2 T10221030
