2015/12/18 10:58
KSLI 181058Z AUTO 00000KT 10SM CLR 05/03 A3010 RMK AO2 SLP196 T00500034
