2015/12/18 10:51
KSLK 181051Z AUTO 23003KT 10SM OVC031 01/M01 A2971 RMK AO2 SLP073 T00061011
