2015/12/18 10:53
KSLN 181053Z AUTO 21006KT 10SM CLR M07/M10 A3020 RMK AO2 SLP241 T10671100
