2015/12/18 11:15
KSLR 181115Z AUTO 35013KT 10SM OVC015 03/00 A3033 RMK AO2 T00280000
