2015/12/18 11:15
KSME 181115Z AUTO 29006KT 10SM BKN015 OVC019 00/M03 A3005 RMK AO2
