2015/12/18 10:53
KSMF 181053Z 16008KT 10SM CLR 06/02 A3014 RMK AO2 SLP205 T00610017 $
