2015/12/02 04:56
KSMP 020456Z AUTO 05008G19KT 030V100 4SM -SN BR BKN002 OVC034 M08/M11 A3002 RMK AO2 SNB47 SLP217 P0000 T10831106 FZRANO $ 
