2015/12/18 11:03
KSMQ 181103Z AUTO 33009KT 10SM BKN022 OVC039 09/05 A2973 RMK AO2 T00890050
