2015/12/18 11:15
KSMS 181115Z AUTO 25005KT 10SM -DZ FEW034 SCT044 BKN055 17/16 A2981 RMK AO2
