2015/12/18 10:51
KSMX 181051Z AUTO 09003KT 10SM CLR 04/02 A3013 RMK AO2 SLP207 T00440022
