2015/12/18 11:15
KSNC 181115Z AUTO 34007KT 10SM BKN007 BKN011 11/11 A2969 RMK AO2 PWINO PNO
