2015/12/16 13:15
KSNH 161315Z AUTO 00000KT 10SM CLR 07/00 A2987 RMK
