2015/12/18 11:15
KSNK 181115Z AUTO 00000KT 10SM CLR M03/M06 A3028 RMK AO2 T10331056
