2015/12/18 10:53
KSNS 181053Z 12007KT 10SM CLR 04/02 A3014 RMK AO2 SLP215 T00440022
