2015/12/18 10:51
KSNT 181051Z AUTO 00000KT M09/M12 A2993 RMK AO1 SLP177 P0005 T10891117 
