2014/11/06 20:00
KSNV 062000Z 00000KT 9999 VCSH FEW025TCU BKN200 31/21 A2978 RMK TCU/VCSH/E
