2015/12/18 10:53
KSNY 181053Z AUTO 24009KT 10SM CLR M14/M18 A2995 RMK AO2 SLP213 T11391178
