2015/12/18 11:15
KSOW 181115Z AUTO 19004KT 10SM CLR M09/M17 A3023 RMK AO2
