2015/12/18 11:35
KSPA 181135Z AUTO 32007KT 10SM SCT004 BKN015 OVC019 09/05 A2982 RMK AO2
