2015/12/18 10:53
KSPB 181053Z AUTO 00000KT 10SM FEW043 SCT055 OVC110 11/09 A2958 RMK AO2 RAE14 SLP015 P0000 T01060094
