2015/12/18 10:56
KSPD 181056Z AUTO 20009KT M10/M11 A3007 RMK AO1 SLP219 T11001111 
