2015/12/18 11:15
KSPF 181115Z AUTO 27009KT CLR M08/M17 A2986 RMK AO2
