2015/12/18 10:52
KSPI 181052Z 29013KT 10SM FEW029 OVC100 M01/M06 A3006 RMK AO2 SLP186 T10111061
