2015/12/18 11:15
KSPR 181115Z AUTO 36018G24KT 10SM CLR 15/04 A3015 RMK A01
