2015/12/18 10:53
KSPW 181053Z AUTO 23009KT 10SM CLR M08/M12 A2993 RMK AO2 SLP156 T10831117
