2015/12/18 11:15
KSQE 181115Z AUTO 36027G32KT 10SM CLR 17/02 A3016 RMK A01
