2015/12/18 11:15
KSQI 181115Z 25020KT 10SM FEW025 OVC035 M03/M09 A2993 RMK AO1
