2015/12/18 11:15
KSRB 181115Z AUTO VRB04KT 10SM OVC016 00/M02 A3004 RMK
