2015/12/18 11:17
KSRC 181117Z AUTO 00000KT 10SM OVC032 02/01 A3025 RMK AO2 FZRANO TSNO
