2012/07/16 00:55
KSRE 160055Z AUTO 13008KT 10SM 26/22 A2998 RMK AO2
