2010/05/19 09:45
KSRN 190945Z 19012KT 10SM BKN016 27/23 A2983 RMK SEAS 1-3
