2015/12/18 10:53
KSRQ 181053Z 22007KT 10SM -RA FEW060 OVC090 22/22 A2993 RMK AO2 SLP134 P0001 T02220217
