2015/12/18 11:15
KSRR 181115Z AUTO 02004KT 10SM CLR M02/M17 A3021 RMK AO2
