2015/12/18 10:58
KSSC 181058Z AUTO 26010KT 10SM FEW028 SCT034 BKN043 OVC065 16/14 A2977 RMK AO2 RAE09 SLP081 P0001 T01570144 $
