2015/12/18 10:53
KSSF 181053Z AUTO 01005KT 10SM CLR 06/M02 A3029 RMK AO2 SLP256 T00561022
