2015/12/18 10:53
KSSI 181053Z AUTO 23008KT 10SM BKN010 BKN015 OVC028 21/21 A2985 RMK AO2 RAE14 CIG 008V012 SLP109 P0000 T02110211
