2015/12/18 10:53
KSTC 181053Z AUTO 26007KT 10SM OVC035 M11/M14 A2985 RMK AO2 SLP137 T11061139
