2015/12/18 11:15
KSTE 181115Z AUTO 28011G19KT 250V310 5SM -SN BKN026 OVC032 M07/M12 A2981 RMK AO2 T10751122
