2015/12/18 10:53
KSTJ 181053Z AUTO 19004KT 10SM CLR M06/M09 A3016 RMK AO2 SLP222 T10611089
