2015/12/18 11:10
KSTK 181110Z AUTO 19009KT 10SM CLR M20/M22 A2997 RMK AO2
