2015/12/18 10:51
KSTL 181051Z 28011KT 10SM BKN100 M01/M06 A3012 RMK AO2 SLP210 T10061056
