2015/12/18 10:53
KSTP 181053Z AUTO 27010KT 10SM OVC049 M09/M13 A2991 RMK AO2 SLP138 T10891133
