2015/12/18 11:21
KSTS 181121Z AUTO 13004KT 2 1/2SM -RA BR OVC016 09/09 A3011 RMK AO2 P0001 T00940089
