2015/12/18 11:15
KSUE 181115Z AUTO 26015G20KT 10SM OVC040 M04/M13 A2979 RMK AO1
