2015/12/18 11:15
KSUN 181115Z AUTO 32005KT 2 1/2SM -SN OVC012 M05/M06 A3004 RMK AO2
