2015/12/18 10:54
KSUS 181054Z AUTO 28010G15KT 10SM OVC100 M01/M06 A3013 RMK AO2 SLP210 T10111056
