2015/12/18 11:15
KSUT 181115Z AUTO 23008G15KT 7SM 19/18 A2978 RMK AO2 T01870183
