2015/12/18 11:15
KSUW 181115Z AUTO 28014KT 10SM SCT027 OVC036 M08/M13 A2980 RMK AO2 T10851130
