2015/12/18 11:35
KSVC 181135Z AUTO 36009KT 10SM M04/M08 A3024 RMK AO2
