2015/12/18 11:15
KSVH 181115Z AUTO 30003KT 10SM OVC012 11/11 A2978 RMK AO2 T01070107
