2015/12/18 11:33
KSVN 181133Z AUTO 28014KT 10SM BKN011 BKN017 BKN026 OVC030 20/20 A2983 RMK AO2 CIG 011V030 BKN011 V SCT
