2015/12/18 10:45
KSWF 181045Z 29014KT 10SM SCT020 BKN040 07/05 A2975
