2015/12/18 10:53
KSWO 181053Z AUTO 27004KT 10SM CLR M06/M07 A3030 RMK AO2 SLP270 T10611072 TSNO
