2015/12/18 11:15
KSWW 181115Z AUTO 20005KT 10SM CLR M02/M04 A3030 RMK AO2 T10211038
