2015/12/18 10:56
KSXS 181056Z AUTO 33007G13KT 10SM CLR 06/03 A3005 RMK AO2 SLP178 T00570028
