2015/12/18 10:56
KSXT 181056Z AUTO 21015G24KT 1/2SM RA FG VV002 04/04 A2977 RMK AO2 PK WND 18038/1004 SLP085 P0017 T00440044 
