2015/12/18 11:15
KSYI 181115Z AUTO 28005KT 10SM BKN023 M01/M02 A3009 RMK
