2015/12/18 11:14
KSYN 181114Z AUTO 25006KT 10SM BKN034 BKN048 M08/M13 A2989 RMK AO2 T10851129
