2015/12/18 10:54
KSYR 181054Z 27009KT 10SM OVC034 03/M01 A2981 RMK AO2 SLP095 T00331011
