2015/12/18 10:58
KSZL 181058Z 24005KT 10SM CLR M05/M07 A3017 RMK AO2A SLP229 T10531075
