2015/12/18 11:15
KSZT 181115Z AUTO 05013KT 2SM -SN SCT004 OVC019 M03/M04 A2976 RMK AO2
