2015/12/18 11:15
KT20 181115Z AUTO 35004KT 10SM CLR 03/00 A3030 RMK AO2 T00271003
