2007/07/17 19:45
KT43 171945Z AUTO 14011KT 10SM CLR 28/21 A2999 RMK AO2
