2008/04/04 03:28
KT47 040328Z AUTO 09011G17KT 3SM +TSRA SCT006 BKN022 OVC038 16/14 A2983 RMK AO2 LTG DSNT ALQS P0031
