2015/12/18 11:15
KT65 181115Z AUTO 35007KT 7SM CLR 08/05 A3027 RMK AO2 T00760050
