2013/06/28 17:35
KT77 281735Z AUTO 00000KT 10SM CLR 33/12 A3007 RMK AO2 T03330116 TSNO
