2015/12/18 11:10
KT82 181110Z AUTO 00000KT 10SM CLR M01/M04 A3028 RMK AO2 T10151043
