2008/11/20 21:23
KT86 202123Z AUTO 24004KT 10SM 26/15 A3008 RMK AO2 T02610145
