2008/06/05 12:04
KT89 051204Z AUTO 16008KT 10SM SCT025 OVC034 26/20 A2970 RMK AO2
