2015/12/18 10:54
KTAD 181054Z AUTO 30008KT 10SM CLR M09/M13 A3001 RMK AO2 SLP190 T10941133
