2008/02/29 19:00
KTAK 291900Z 20002MPS 6000 FEW200 09/06 Q1019 NOSIG
