2015/12/18 10:52
KTAN 181052Z AUTO 00000KT 7SM OVC003 10/09 A2968 RMK AO2 SLP049 T01000089
