2015/12/18 11:15
KTAZ 181115Z AUTO 28009KT 10SM BKN120 M02/M05 A3007 RMK AO2
