2015/12/18 10:58
KTBN 181058Z AUTO 27006KT 10SM SCT070 M03/M07 A3014 RMK AO2 SLP221 T10261068
