2015/12/18 11:15
KTBX 181115Z AUTO 13010KT CLR M10/M17 A2990 RMK AO2 PWINO
