2015/12/18 10:53
KTCC 181053Z AUTO 31007KT 10SM CLR M07/M09 A3011 RMK AO2 SLP212 T10721094
