2015/12/18 10:53
KTCL 181053Z AUTO 29003KT 10SM CLR 01/M01 A3014 RMK AO2 SLP205 T00061011
