2015/12/18 10:58
KTCM 181058Z AUTO 20009KT 10SM OVC060 09/09 A2951 RMK AO2 RAE47 SLP998 P0009 T00890088 $
