2015/12/18 10:53
KTCS 181053Z AUTO 01004KT 10SM CLR M04/M13 A3024 RMK AO2 SLP232 T10391128 TSNO 
