2015/12/18 11:15
KTDF 181115Z AUTO 33005KT 10SM SCT009 BKN029 BKN065 10/10 A2978 RMK AO2
