2007/10/01 03:47
KTDO 010347Z 14005KT 7SM OVC12 10/06 A2984 RMK SLP105 LAST
