2015/12/18 10:53
KTDZ 181053Z AUTO 24010KT OVC036 M01/M05 A2992 RMK AO2 SLP139 T10061050 $
