2015/12/18 11:26
KTEB 181126Z 32012KT 10SM SCT027 OVC065 09/03 A2974 RMK AO2 $
