2015/12/18 11:14
KTEW 181114Z AUTO 23007KT 10SM BKN036 M01/M05 A2984 RMK AO2 T10111051
