2015/12/18 11:15
KTEX 181115Z AUTO 14007KT 10SM CLR M09/M13 A3022 RMK AO2 T10911128
