2015/12/18 11:15
KTFP 181115Z AUTO 02012KT 10SM CLR 09/02 A3028 RMK AO2 T00860017
