2015/12/18 11:12
KTGI 181112Z AUTO 33012KT 10SM SCT026 BKN070 OVC110 12/11 A2977 RMK AO1 P0001
