2015/12/18 11:15
KTHA 181115Z AUTO 33006KT 10SM OVC018 M02/M02 A3007 RMK
