2015/12/18 10:58
KTIK 181058Z AUTO 28002KT 10SM CLR M03/M05 A3027 RMK AO2 SLP269 T10341053
