2015/12/18 10:53
KTIW 181053Z AUTO 17009KT 10SM FEW050 OVC075 09/08 A2949 RMK AO2 RAE43 SLP988 P0005 T00890078
