2015/12/18 01:48
KTIX 180148Z 18008KT 7SM BKN043 23/22 A2993 RMK LAST
