2015/12/18 10:53
KTKI 181053Z AUTO 34005KT 10SM CLR M01/M02 A3031 RMK AO2 SLP276 T10061022
