2015/12/18 11:15
KTKV 181115Z AUTO 26007KT 10SM -SN OVC019 M09/M12 A2975 RMK AO2 T10911120
