2015/12/18 11:15
KTKX 181115Z AUTO 29005KT 10SM OVC036 02/M01 A3018 RMK AO2
