2015/12/18 10:53
KTLH 181053Z AUTO 33013KT 10SM CLR 13/09 A2999 RMK AO2 SLP156 T01330089
