2015/12/18 11:15
KTMA 181115Z AUTO 31010G15KT 10SM CLR 12/10 A2997 RMK AO2 T01150098
