2015/12/18 11:19
KTMB 181119Z 00000KT 5SM BR SCT020 22/22 A2997 RMK AO2 T02170217
