2015/12/18 11:15
KTME 181115Z AUTO 35006KT 10SM +RA CLR 04/00 A3030 RMK AO2
