2015/12/18 11:15
KTMK 181115Z AUTO 24008G14KT 7SM -RA SCT015 BKN021 OVC044 10/09 A2965 RMK AO2 P0001
