2015/12/18 11:15
KTNB 181115Z AUTO 29014G20KT 270V330 10SM CLR 03/M01 A2981 RMK AO2 T00301008
