2008/01/04 04:53
KTNK 040453Z AUTO 16004KT 10SM CLR 00/M08 A3062 RMK AO2 SLP374 T00001078 FZRANO 
