2015/12/18 11:15
KTNU 181115Z AUTO 23009KT 10SM CLR M06/M09 A3000 RMK AO2
