2015/12/18 03:49
KTOA 180349Z VRB05KT 10SM SKC 14/08 A3014 RMK LAST
