2015/12/18 11:13
KTOB 181113Z AUTO 27009KT 10SM M09/M13 A2987 RMK AO2
