2015/12/18 11:15
KTOC 181115Z AUTO 27005KT 10SM CLR 06/04 A2987 RMK AO2 T00580038
