2015/12/18 10:53
KTOI 181053Z AUTO 31005KT 10SM CLR 06/02 A3007 RMK AO2 SLP180 T00560022
