2015/12/18 10:52
KTOL 181052Z 22007KT 10SM OVC033 M01/M06 A2991 RMK AO2 SLP135 T10111061
