2015/12/18 10:53
KTOP 181053Z AUTO 23004KT 10SM CLR M04/M09 A3019 RMK AO2 SLP232 T10441089 $
