2015/12/18 10:53
KTOR 181053Z AUTO 29015G21KT 10SM SCT120 M01/M10 A2989 RMK AO2 SLP160 T10111100
