2015/12/18 11:19
KTPA 181119Z 19006KT 10SM -RA BKN008 BKN047 OVC110 23/22 A2994 RMK AO2 RAB1056 P0001 T02280222 $
