2015/12/18 10:56
KTPH 181056Z AUTO 36010KT 10SM CLR M06/M08 A3019 RMK AO2 SLP238 T10561083
