2011/03/28 12:00
KTPK 281200Z 11011KT 9999 FEW024 26/21 Q1017
