2015/12/18 10:51
KTPL 181051Z AUTO 32004KT 10SM CLR 01/M02 A3032 RMK AO2 SLP285 T00061017 FZRANO $
