2010/02/20 23:00
KTPN 202300Z 09005KT 9999 FEW028 26/21 Q1015
