2015/12/18 10:54
KTQE 181054Z AUTO 22007KT 10SM CLR M06/M09 A3002 RMK AO2 SLP176 T10611094
