2015/12/18 11:15
KTQH 181115Z AUTO 27003KT 10SM CLR M04/M05 A3030 RMK AO2
