2015/12/18 10:53
KTRI 181053Z 27009KT 10SM FEW023 OVC040 05/02 A2990 RMK AO2 SLP114 T00500022
