2015/12/18 10:53
KTRL 181053Z AUTO 01009KT 10SM CLR 01/M02 A3030 RMK AO2 SLP261 T00111017
