2015/12/18 10:52
KTRM 181052Z AUTO 31003KT 10SM CLR 01/M06 A3017 RMK AO2 SLP214 T00111056
