2015/12/18 11:15
KTTA 181115Z AUTO 00000KT 4SM BR OVC007 14/14 A2975 RMK AO2 T01400137
