2015/12/18 11:15
KTTF 181115Z AUTO 23007KT 10SM OVC032 00/M04 A2989 RMK AO2 T00001043
