2015/12/18 10:58
KTTS 181058Z AUTO 22011KT 10SM BKN150 23/22 A2991 RMK AO2 SLP133 T02300215 VISNO RWY15 CHINO RWY15
