2015/12/18 10:53
KTUL 181053Z 25004KT 10SM CLR M03/M05 A3030 RMK AO2 SLP266 T10281050
