2015/12/18 10:53
KTUP 181053Z AUTO 35005KT CLR 00/M02 A3015 RMK AO2 SLP212 T00001022 $ 
