2015/12/18 10:53
KTUS 181053Z 14007KT 10SM CLR 02/M04 A3017 RMK AO2 SLP209 T00171044
