2015/12/18 10:53
KTVC 181053Z 24008G18KT 10SM OVC047 M01/M09 A2975 RMK AO2 SLP081 T10111094
