2015/12/18 11:15
KTVF 181115Z AUTO 31009KT 8SM SCT021 OVC027 M12/M14 A2981 RMK AO1
