2015/12/18 11:15
KTVI 181115Z AUTO 33007KT 10SM SCT016 12/10 A3000 RMK AO2
