2015/12/18 11:10
KTVK 181110Z AUTO 23007KT 10SM CLR M06/M08 A3008 RMK AO2
