2015/12/18 11:29
KTVR 181129Z AUTO 00000KT 3/4SM BR CLR M01/M02 A3021 RMK AO2 T10061017
