2015/12/18 11:15
KTVY 181115Z AUTO 00000KT 10SM BKN065 OVC075 M01/M04 A3015 RMK AO2
