2015/12/18 11:16
KTWF 181116Z AUTO 06006KT 5SM UP BR FEW002 OVC033 M01/M01 A3000 RMK AO2 RAB01E11UPB11FZRAE01 P0001 I1000 T10061006
