2015/12/18 11:13
KTWM 181113Z AUTO 27008G15KT 10SM OVC036 M08/M12 A2971 RMK AO2
