2015/12/18 10:53
KTXK 181053Z AUTO 31005KT 10SM CLR 02/M01 A3027 RMK AO2 SLP250 T00171006
