2015/12/18 10:53
KTYR 181053Z AUTO 36008KT 10SM CLR 03/M01 A3028 RMK AO2 SLP252 T00281006
