2015/12/18 11:22
KTYS 181122Z 33006KT 10SM OVC015 03/M01 A3000 RMK AO2 T00281006
