2015/12/18 11:15
KTZR 181115Z AUTO 27005KT 10SM OVC026 M01/M06 A2996 RMK AO2 T10101060
