2015/12/18 10:58
KU16 181058Z AUTO 35003KT 9SM OVC060 01/M04 A3013 RMK AO2 SNB43E52 SLP825 P0000 T00111044 TSNO $ 
