2015/12/18 11:15
KU42 181115Z AUTO 18008KT 10SM OVC044 00/M06 A3016 RMK AO1 T10011064
