2015/12/18 11:20
KU68 181120Z AUTO 07008KT 10SM SCT085 M11/M15 A2991 RMK AO2
