2012/09/28 00:55
KU78 280055Z 00000KT 20SM BKN080 20/05 A3019 RMK LAST SODA SPRINGS OBSERVATION EVER SLPNO NOSPECI LAST 
