2015/12/18 10:53
KUAO 181053Z AUTO 19009G16KT 10SM -RA BKN060 OVC075 11/10 A2964 RMK AO2 SLP037 P0002 T01060100
