2015/12/18 11:15
KUBE 181115Z AUTO 26010G21KT 10SM OVC030 M09/M14 A2980 RMK AO2
