2015/12/18 10:56
KUCP 181056Z AUTO 24007KT 10SM OVC037 00/M04 A2990 RMK AO2 SLP149 T00001044
