2015/12/18 11:15
KUCY 181115Z AUTO 27003KT 10SM OVC036 M01/M02 A3013 RMK
