2015/12/18 11:15
KUDG 181115Z AUTO 26003KT 10SM SCT034 SCT044 BKN060 16/13 A2979 RMK AO1
