2015/12/18 10:35
KUES 181035Z AUTO 26010KT 10SM CLR M06/M11 A2987 RMK AO2
