2015/12/18 10:55
KUGN 181055Z AUTO 24007KT 10SM CLR M05/M11 A2989 RMK AO2 SLP138 T10501106
