2015/12/18 10:56
KUKI 181056Z AUTO 16007KT 7SM BKN006 OVC025 09/09 A3007 RMK AO2 RAE39 SLP182 P0000 T00940089
