2008/02/13 13:11
KUKL 131311Z AUTO 19007KT 10SM CLR M08/M11 A3001 RMK AO2
