2015/12/18 11:15
KUKT 181115Z AUTO 31006KT 10SM FEW020 OVC055 05/02 A2979 RMK AO1
