2015/12/18 11:14
KULM 181114Z AUTO 22009KT 10SM BKN025 OVC060 M08/M11 A2989 RMK AO2
