2015/12/18 11:15
KUNI 181115Z AUTO 29006KT 10SM OVC022 00/M04 A2997 RMK AO2 T10031039
