2015/12/18 10:53
KUNO 181053Z AUTO 30008KT 10SM OVC033 M01/M08 A3017 RMK AO2 SLP223 T10061083
