2011/08/04 14:34
KUNR 041434Z AUTO 33008KT 20/16 A3002 RMK A01 SLP148 T02000161 
