2015/12/18 11:15
KUNU 181115Z AUTO 26009G14KT 10SM OVC034 M06/M12 A2986 RMK AO2 T10601120
