2015/12/18 10:53
KUNV 181053Z 27008KT 10SM OVC031 01/M03 A2983
