2015/12/18 11:27
KUUU 181127Z AUTO 00000KT 3SM BR SCT070 11/10 A2967 RMK AO2 T01060100
