2015/12/18 11:15
KUVA 181115Z AUTO 36004KT 10SM CLR 01/M03 A3031 RMK AO2 T00071031
