2015/12/18 11:15
KUXL 181115Z AUTO 31006KT 10SM CLR 05/02 A3022 RMK AO2 T00530024
