2015/12/18 11:30
KUZA 181130Z AUTO 27005KT 4SM BR SCT007 BKN013 BKN020 13/12 A2980 RMK AO2 T01280122
