2015/12/18 11:02
KVAD 181102Z AUTO 30010KT 10SM SCT017 15/12 A2993 RMK AO2 $
