2015/12/18 11:15
KVAF 181115Z AUTO 35008G22KT 250V020 9SM CLR 18/05 A3019 RMK A01
