2015/12/18 10:54
KVAY 181054Z AUTO 31008KT 10SM OVC055 10/06 A2975 RMK AO2 SLP074 T01000061
