2015/12/18 03:55
KVBG 180355Z AUTO VRB04KT 10SM CLR 10/09 A3016 RMK AO2 SLP214 T00990085 TSNO
