2015/12/18 11:15
KVBS 181115Z AUTO 01021KT 10SM 11/04 A3020 RMK A01
