2015/12/18 10:53
KVCB 181053Z AUTO 00000KT 8SM OVC027 07/03 A3015 RMK AO2 SLP209 T00720028
