2007/12/10 18:51
KVCP 101851Z AUTO 03007KT 1 1/2SM BR OVC003 13/13 A3011 RMK AO2 RAE00 SLP195 P0000 T01330128 
