2015/12/18 10:51
KVCT 181051Z AUTO 35007KT 10SM CLR 04/01 A3030 RMK AO2 SLP258 T00390011
