2015/12/18 11:15
KVCV 181115Z AUTO 00000KT 10SM M02/M07 A3018 RMK AO2
