2015/12/18 11:35
KVDF 181135Z AUTO 21005KT 7SM DZ SCT070 SCT080 OVC100 23/22 A2994 RMK AO2
