2015/12/18 11:15
KVDI 181115Z AUTO 30008KT 10SM BKN014 BKN060 13/12 A2993 RMK AO2
