2015/12/18 11:15
KVER 181115Z AUTO 00000KT 10SM CLR M02/M08 A3017 RMK AO2 T10251082
