2015/12/18 11:15
KVES 181115Z AUTO 26006KT 10SM OVC030 M01/M04 A2996 RMK AO2
