2015/12/18 10:53
KVGT 181053Z 32004KT 10SM CLR 01/M08 A3023 RMK AO2 SLP261 T00111078
