2015/12/18 10:53
KVIH 181053Z AUTO 27008KT 10SM FEW095 M03/M07 A3013 RMK AO2 SLP215 T10331067
