2015/12/18 10:56
KVIS 181056Z AUTO 16003KT 4SM BR CLR 00/M01 A3019 RMK AO2 SLP232 T00001006 FZRANO
