2015/12/18 11:15
KVJI 181115Z AUTO 31004KT 10SM SCT020 OVC038 05/03 A2988 RMK AO2 T00520025
