2015/10/30 06:20
KVKS 300620Z AUTO 00000KT 10SM CLR 12/11 A3001 RMK A01
