2015/12/18 11:15
KVKY 181115Z AUTO 36024G31KT 10SM CLR 13/05 A3013 RMK A01
