2015/12/18 11:25
KVLD 181125Z AUTO VRB06KT 10SM BKN018 14/13 A2996 RMK AO2 T01440128
