2015/12/18 11:15
KVLL 181115Z AUTO 22007KT 10SM OVC035 01/M06 A2987 RMK AO2 T00101058
