2015/12/18 11:15
KVNC 181115Z AUTO 25009KT 1 1/4SM +RA SCT002 OVC022 23/22 A2997 RMK AO2
