2015/12/18 10:51
KVNY 181051Z VRB03KT 10SM CLR 06/01 A3012 RMK AO2 SLP195 T00610011
