2015/12/18 11:15
KVOA 181115Z AUTO 36016G25KT 10SM BKN022 SCT030 14/05 A3009 RMK A01
