2015/12/18 10:58
KVOK 181058Z AUTO 29012G20KT 10SM FEW023 OVC033 M07/M12 A2985 RMK AO2 SNE44 SLP125 P0000 T10701119
