2015/12/18 10:53
KVPC 181053Z AUTO 00000KT 10SM CLR 03/01 A3001 RMK AO2 SLP158 T00280011
