2015/12/18 10:56
KVPS 181056Z 34007KT 10SM SCT250 07/02 A3007 RMK AO2A SLP184 T00720024 $
