2015/12/18 10:56
KVPZ 181056Z AUTO 26008KT 10SM CLR M04/M07 A2994 RMK AO2 SLP147 T10391072 TSNO
