2015/12/18 10:50
KVQQ 181050Z 19004KT 5SM -RA BR BKN006 OVC013 22/22 A2988 RMK RAE13B35
