2015/12/18 11:15
KVQT 181115Z AUTO 34025KT 10SM CLR 18/04 A3016 RMK A01
