2015/12/18 10:53
KVRB 181053Z AUTO 19008KT 10SM CLR 23/22 A2995 RMK AO2 SLP140 T02280217 TSNO
