2015/12/18 10:54
KVSF 181054Z AUTO 00000KT 10SM FEW044 06/05 A2969 RMK AO2 SLP060 T00560050
