2015/01/28 16:15
KVSH 281615Z AUTO 09005KT 10SM CLR 14/03 A3031 RMK AO1
