2015/12/18 10:54
KVTA 181054Z AUTO 28004KT 10SM OVC025 M01/M06 A2994 RMK AO2 SLP145 T10061061
