2015/12/18 11:15
KVTI 181115Z AUTO 27008KT 10SM CLR M06/M11 A3000 RMK AO2 T10631108
