2015/12/18 10:52
KVTN 181052Z AUTO 24006KT 10SM CLR M18/M21 A2996 RMK AO2 SLP198 T11831211
