2015/12/18 11:14
KVUJ 181114Z AUTO 00000KT 4SM BR BKN004 OVC009 14/14 A2980 RMK AO2
