2015/12/18 10:53
KVUO 181053Z AUTO 20007KT 10SM FEW070 OVC100 12/09 A2960 RMK AO2 RAE39 SLP022 P0002 T01170094
