2015/12/18 11:15
KVVG 181115Z AUTO 19006KT 7SM 23/23 A2982 RMK A01
