2015/12/18 11:13
KVVV 181113Z AUTO 32007KT 10SM -SN OVC019 M08/M11 A2987 RMK AO2
