2015/12/18 11:10
KVWU 181110Z AUTO 27010KT 5SM -SN SCT018 OVC040 M12/M14 A2975 RMK AO2
