2015/12/18 11:15
KVYS 181115Z AUTO 27013KT 10SM OVC031 M03/M06 A2998 RMK AO2 T10271064
