2015/12/18 11:15
KW22 181115Z AUTO 00000KT 10SM OVC007 00/M00 A2989 RMK AO2
