2015/12/18 11:25
KW29 181125Z AUTO 33009KT 10SM 08/03 A2981 RMK AO1
