2015/12/18 11:15
KW31 181115Z AUTO 00000KT 7SM OVC004 11/11 A2977 RMK AO1 T01050105
