2012/04/05 13:35
KW45 051335Z AUTO 01008KT 10SM CLR 10/00 A2988 RMK AO2
