2015/12/18 11:15
KW75 181115Z AUTO 02006KT 10SM BKN033 BKN080 OVC120 11/09 A2975 RMK AO1 T01050092
