2015/12/18 11:15
KW81 181115Z AUTO 00000KT 3SM OVC003 11/11 A2977 RMK AO1 T01080108
