2015/12/18 11:15
KW99 181115Z AUTO 00000KT 10SM CLR M01/M01 A2987 RMK AO2 T10081014
