2015/12/18 11:26
KWAL 181126Z AUTO 36004KT 4SM -RA BR BKN006 BKN032 OVC041 12/12 A2976 RMK AO2 P0007 T01220117 $
