2010/06/19 23:54
KWAT 202354Z AUTO 27006KT 10SM CLR 29/21 A2991 RMK AO2 SLP127 T02940206 10344 20294 53006 TSNO 
