2015/12/18 11:15
KWDR 181115Z AUTO 29010G16KT 10SM CLR 06/01 A2995 RMK AO1
