2015/12/18 03:47
KWHP 180347Z 00000KT 10SM SKC 11/M05 A3016 RMK LAST
