2015/12/18 10:56
KWJF 181056Z AUTO 00000KT 10SM CLR M02/M07 A3020 RMK AO2 SLP241 T10221067
