2015/12/18 10:54
KWLD 181054Z AUTO 21004KT 10SM CLR M07/M09 A3028 RMK AO2 SLP266 I1000 T10721089 $
