2015/12/18 10:56
KWMC 181056Z AUTO 18011KT 10SM CLR 01/M02 A3004 RMK AO2 SLP186 T00061022
