2015/12/18 10:58
KWRB 181058Z AUTO 31007KT 10SM CLR 08/06 A2996 RMK AO2 SLP147 T00830055
