2015/12/18 10:58
KWRI 181058Z AUTO 28008KT 10SM OVC055 10/10 A2972 RMK AO2 SLP064 T01040103
