2015/12/18 10:53
KWRL 181053Z AUTO 12006KT 10SM CLR M18/M20 A2995 RMK AO2 SLP221 T11781200
