2015/12/18 10:53
KWST 181053Z AUTO 24003KT 9SM OVC018 11/10 A2970 RMK AO2 SLP057 T01060100
