2015/12/18 10:53
KWVI 181053Z AUTO 32003KT 10SM CLR 03/02 A3015 RMK AO2 SLP210 T00330022
