2015/12/18 11:26
KWVL 181126Z AUTO 00000KT 1SM BR VV002 03/03 A2959 RMK AO2
