2015/12/18 11:15
KWWD 181115Z AUTO 31006KT 10SM OVC046 11/07 A2978 RMK AO1
