2015/12/18 11:15
KWWR 181115Z AUTO 21006KT 10SM CLR M06/M07 A3026 RMK AO2
