2015/11/14 01:55
KWYS 140155Z AUTO 16003KT 10SM CLR M02/M05 A3020 RMK AO2
