2012/02/13 15:15
KX40 131515Z AUTO 05005KT 10SM CLR 10/M03 A3030 RMK AO2
