2014/11/13 21:50
KXFL 132150Z VRB03KT 7SM CLR 21/18 A2999
