2015/12/18 11:15
KXIH 181115Z AUTO 35013KT 10SM CLR 11/02 A3022 RMK A01
