2015/12/18 11:15
KXLL 181115Z AUTO 29005KT 10SM OVC026 05/02 A2980 RMK AO2
