2015/12/18 10:58
KXMR 181058Z AUTO 19010KT 10SM CLR 23/22 A2991 RMK AO2 SLP132 T02330223
