2015/12/18 10:53
KXNA 181053Z AUTO 30004KT 10SM CLR M03/M06 A3023 RMK AO2 SLP246 T10281061
