2011/08/30 18:55
KXOE 301855Z AUTO 36003KT 10SM CLR 37/15 A2989 RMK AO2 SLP119 T03670150 
