2015/12/18 11:15
KXPY 181115Z AUTO 35008G14KT 10SM CLR 11/05 A3018 RMK A01
