2015/12/18 11:16
KXVG 181116Z AUTO 28003KT 5SM -SN OVC026 M12/M14 A2977 RMK AO2
