2015/12/18 11:15
KY19 181115Z AUTO 32014KT 10SM BKN020 M11/M15 A2991 RMK AO2
