2015/12/18 11:15
KY49 181115Z AUTO 28005KT 10SM OVC027 M12/M15 A2976 RMK AO2 T11211153
