2015/12/18 11:16
KY50 181116Z AUTO 29014KT 5SM -SN FEW001 BKN021 OVC034 M06/M11 A2984 RMK AO2 TSNO BKN V SCT UPE09SNB09 P0000
