2015/12/18 11:15
KY51 181115Z AUTO 27013G19KT 10SM OVC027 M08/M12 A2986 RMK AO1 T10801123
