2015/12/18 11:14
KY63 181114Z AUTO 33007KT 10SM CLR M12/M14 A2985 RMK AO2 T11211144
