2015/12/18 11:13
KY70 181113Z AUTO 26011G19KT 10SM OVC038 M01/M07 A2982 RMK AO2 T10071072
