2015/12/18 10:53
KYIP 181053Z 23009KT 10SM OVC034 02/M06 A2988 RMK AO2 SLP120 T00171056
