2015/12/18 11:01
KYKM 181101Z AUTO 00000KT 10SM UP BKN020 OVC032 M01/M03 A2970 RMK AO2 P0000 T10111033
