2009/07/11 00:56
KYLK 110056Z AUTO 28005KT 10SM TS CLR 32/09 A3010 RMK AO2 TSE05B14 SLP091 T03220089 $ 
