2015/12/18 10:51
KYNG 181051Z 24006KT 10SM OVC031 M01/M06 A2988 RMK AO2 SLP130 T10061056
