2008/11/07 11:20
KYUM 071120Z 0712/0812 01006KT P6SM SKC FM071700 02012KT P6SM SKC FM080100 33005KT P6SM SKC
