2015/12/18 11:35
KZPH 181135Z AUTO 21004KT 10SM BKN007 OVC090 21/21 A2994 RMK AO2 T02050205
