2015/12/18 10:53
KZZV 181053Z AUTO 31006KT 10SM OVC022 01/M06 A2994 RMK AO2 SLP146 T00061056
