2015/12/18 11:20
LATI 181120Z VRB02KT CAVOK 12/M04 Q1027 NOSIG
