2015/12/18 11:30
LBBG 181130Z 24007KT CAVOK 07/M00 Q1027 NOSIG
