2015/12/18 11:30
LBGO 181130Z AUTO VRB02KT 9999 NCD 06/01 Q1027 R99/19//95 NOSIG
