2011/01/17 22:00
LBIA 172200Z 00000MPS 4000 BR SKC 00/00 Q1029
