2011/12/30 09:00
LBPG 300900Z 00000MPS 0800 FG BKN001 M01/M03 Q1014
