2015/12/18 11:30
LBSF 181130Z VRB02KT 2700 BR SCT005 BKN007 M02/M02 Q1027 BECMG 4000 BR SCT020
