2015/12/18 11:30
LBWN 181130Z 26011KT CAVOK 06/M01 Q1026 NOSIG
