2015/12/18 11:20
LCEN 181120Z 13003KT 060V190 8000 FEW010 SCT025 OVC080 14/10 Q1019 NOSIG
