2015/12/18 11:30
LCLK 181130Z 07012KT 9999 FEW016 SCT019TCU 17/12 Q1018 NOSIG
