2015/12/18 10:50
LCRA 181050Z 07014KT 9999 FEW022 FEW030TCU BKN080 17/11 Q1018 NOSIG
