2015/12/18 11:30
LDDU 181130Z 28005KT 240V320 CAVOK 13/M06 Q1027 NOSIG 
