2015/10/24 14:00
LDLO 241400Z 30009KT CAVOK 18/08 Q1020
