2015/12/18 11:30
LDOS 181130Z VRB02KT 4000 BR BKN013 04/01 Q1028
