2015/12/18 11:30
LDPL 181130Z 27006KT 210V320 6000 FEW014 12/08 Q1027 NOSIG 
