2015/10/31 13:00
LDSB 311300Z 18004KT 140V220 CAVOK 17/04 Q1027
