2015/12/18 11:30
LDSP 181130Z VRB02KT CAVOK 14/05 Q1027 NOSIG 
