2015/12/18 11:30
LDZA 181130Z 25003KT 200V300 5000 BR OVC003 00/M01 Q1027 NOSIG 
