2015/12/18 11:30
LDZD 181130Z 29006KT 250V350 CAVOK 13/08 Q1027 NOSIG 
