2015/12/18 11:00
LEAB 181100Z 00000KT 9999 FEW005 10/03 Q1032 NOSIG
