2015/12/18 11:30
LEAM 181130Z VRB02KT CAVOK 17/12 Q1029
