2015/12/18 11:00
LEBA 181100Z 08007KT CAVOK 13/06 Q1031
