2015/12/18 11:00
LEBG 181100Z 19011KT 9999 SCT027 12/06 Q1030
