2015/12/18 11:30
LEBL 181130Z 36003KT 9000 NSC 15/09 Q1028 NOSIG
