2010/07/15 10:00
LEBR 151000Z AUTO 22004KT 150V280 CAVOK 24/09 Q1017
