2015/12/18 11:00
LEBT 181100Z AUTO 11003KT 060V150 9999 // NCD 17/08 Q1029
