2015/12/18 11:00
LEBZ 181100Z VRB02KT CAVOK 12/08 Q1030
