2015/12/18 11:30
LECH 181130Z VRB01KT CAVOK 16/05 Q1028
