2015/12/18 11:30
LECO 181130Z 17012KT 140V200 9999 BKN020 18/16 Q1023 NOSIG
