2015/12/18 11:00
LECV 181100Z VRB02KT 9999 FEW050 12/05 Q1031
