2015/12/13 16:00
LEDA 131600Z 26003KT 0150 R31/0300N FG VV001 03/03 Q1022
