2015/12/18 11:00
LEEC 181100Z 03007KT CAVOK 13/07 Q1030
