2015/12/18 11:30
LEGE 181130Z 00000KT 9000 FEW020 14/11 Q1028
