2015/12/18 11:30
LEGR 181130Z 00000KT CAVOK 10/04 Q1031
