2015/12/18 11:00
LEGT 181100Z VRB02KT 9000 FEW040 10/04 Q1031
