2015/12/18 11:00
LEHC 181100Z 26003KT 200V310 CAVOK 12/05 Q1029
