2015/12/18 11:30
LEIB 181130Z 20003KT CAVOK 19/14 Q1028 NOSIG
