2008/04/05 20:00
LEJO 052000Z 26009KT CAVOK 18/12 Q1011 NOSIG
