2015/12/18 11:00
LELC 181100Z VRB01KT CAVOK 19/09 Q1029 NOSIG
