2015/12/18 11:30
LELL 181130Z 15001KT 9000 NSC 15/08 Q1028
