2015/12/18 11:00
LELO 181100Z 00000KT 8000 FEW050 09/07 Q1029
