2012/11/18 02:00
LEMA 180200Z 12014KT 6000 -RA SCT007 SCT015TCU BKN025 16/16 Q1004 RERA NOSIG
