2015/12/18 11:30
LEMD 181130Z VRB02KT 9000 FEW060 11/05 Q1031 NOSIG
