2015/12/18 11:30
LEMG 181130Z VRB01KT CAVOK 19/08 Q1029 NOSIG
