2015/12/18 11:30
LEMH 181130Z 22008KT 180V250 9999 SCT015 17/13 Q1028
