2014/03/19 14:00
LEMM 191400Z 22005KT 170V260 CAVOK 20/09 Q1020 NOSIG
