2015/12/18 11:00
LEMO 181100Z VRB02KT CAVOK 17/06 Q1030 NOSIG
