2009/08/09 23:00
LENO 092300Z 26004KT 200V280 CAVOK 20/17 Q1014 NOSIG
