2015/12/18 11:00
LEPA 181100Z 19001KT 9999 FEW010 18/15 Q1028 NOSIG
