2015/12/18 11:00
LERI 181100Z 00000KT CAVOK 19/08 Q1029 NOSIG
