2015/12/18 11:30
LERS 181130Z VRB01KT 7000 NSC 16/12 Q1028
