2015/12/18 11:00
LERT 181100Z VRB02KT 9000 NSC 15/10 Q1029 NOSIG
