2015/12/18 11:30
LESA 181130Z 24009KT 200V260 9999 FEW045 15/05 Q1029
