2015/12/18 11:30
LESO 181130Z 00000KT CAVOK 17/10 Q1025
