2015/12/18 11:30
LEST 181130Z 19012KT 160V230 9999 SCT007 BKN010 15/14 Q1024 NOSIG
