2015/12/18 11:30
LESU 181130Z 00000KT CAVOK 09/02 Q1030
