2015/12/18 11:30
LETL 181130Z AUTO 13003KT 060V190 9999 NCD 10/M01 Q1031
