2015/12/18 11:30
LEVC 181130Z 00000KT CAVOK 18/03 Q1028 NOSIG
