2015/12/18 11:30
LEVD 181130Z 18006KT 9999 SCT035 11/05 Q1029
