2015/12/18 11:30
LEVT 181130Z 20011KT 160V230 9999 SCT075 15/07 Q1028
