2015/12/18 11:30
LEVX 181130Z 19010KT 150V230 0400 R19/1500D R01/0350N FG OVC002 15/15 Q1025
