2015/12/18 11:30
LEXJ 181130Z 00000KT CAVOK 18/11 Q1024
