2015/12/18 11:30
LEZG 181130Z 00000KT 1200 R30R/1800U BR BKN001 06/06 Q1029
