2015/12/18 11:30
LEZL 181130Z 02004KT 350V060 CAVOK 16/06 Q1030 NOSIG
