2015/12/18 11:30
LFAQ 181130Z AUTO 19006KT 9999 OVC028 12/09 Q1023
