2015/12/18 11:30
LFAT 181130Z AUTO 21007KT 180V240 9999 OVC032 13/10 Q1022
