2015/12/18 11:30
LFBA 181130Z AUTO 10006KT 9000 NSC 12/10 Q1026
