2015/12/18 11:30
LFBD 181130Z AUTO VRB03KT CAVOK 14/09 Q1025
