2015/12/18 11:30
LFBE 181130Z AUTO 14006KT CAVOK 14/10 Q1026
