2012/04/27 18:30
LFBF 271830Z AUTO 14007KT 100V180 //// // ///////// 16/13 Q1008
