2015/12/18 11:30
LFBG 181130Z AUTO 16005KT CAVOK 13/10 Q1026
