2015/12/18 11:30
LFBH 181130Z AUTO 17008KT 8000 BKN047 OVC068 13/10 Q1025
