2015/12/18 11:30
LFBI 181130Z AUTO 18007KT CAVOK 14/10 Q1025
