2015/12/18 11:30
LFBL 181130Z AUTO 16003KT CAVOK 12/07 Q1026
