2015/12/18 11:30
LFBM 181130Z AUTO VRB02KT CAVOK 17/09 Q1026
