2015/12/18 11:30
LFBO 181130Z AUTO 17006KT CAVOK 16/11 Q1027
