2015/12/18 11:30
LFBP 181130Z AUTO 00000KT CAVOK 19/07 Q1026
