2015/12/18 11:30
LFBT 181130Z AUTO VRB02KT CAVOK 19/04 Q1026
