2015/12/18 11:30
LFBU 181130Z AUTO 16006KT 130V190 CAVOK 13/09 Q1026
