2010/06/15 04:00
LFBV 150400Z VRB01KT 8000 MIFG SCT006 SCT020 12/11 Q1015
