2015/12/18 11:30
LFBY 181130Z AUTO 00000KT 9999 // ////// 14/09 Q1026
