2015/12/18 11:30
LFBZ 181130Z AUTO 00000KT CAVOK 18/11 Q1025
