2012/05/02 04:00
LFCG 020400Z 16005KT 130V190 CAVOK 05/03 Q1016
