2015/12/18 11:30
LFCK 181130Z AUTO VRB02KT CAVOK 15/07 Q1027
