2015/12/18 11:30
LFCR 181130Z AUTO 09003KT 060V120 CAVOK 13/07 Q1027
