2012/05/02 07:00
LFDB 020700Z VRB03KT CAVOK 12/09 Q1017
