2012/09/03 09:00
LFDH 030900Z 24004KT 200V280 6000 BKN013 17/13 Q1024
