2015/12/18 11:30
LFGA 181130Z AUTO 00000KT CAVOK 10/08 Q1026
