2015/12/18 11:30
LFGJ 181130Z AUTO 22009KT CAVOK 12/10 Q1026
