2013/05/01 20:00
LFHP 012000Z AUTO VRB02KT 9999 FEW041 11/06 Q1018
