2015/12/18 11:30
LFJL 181130Z AUTO 20008KT 9999 OVC020 11/08 Q1025
