2015/12/18 11:30
LFJR 181130Z AUTO 18005KT 3900 BR OVC003 13/12 Q1024
