2015/12/18 11:30
LFKB 181130Z 20006KT 160V220 9999 FEW026 BKN260 16/09 Q1028 NOSIG
