2015/12/18 11:00
LFKC 181100Z 18004KT 150V220 9999 SCT036 SCT250 17/11 Q1028 NOSIG
