2015/12/18 11:30
LFKJ 181130Z VRB03KT 9999 BKN033 15/10 Q1029 NOSIG
