2015/12/18 11:30
LFKS 181130Z AUTO 13005KT 090V170 CAVOK 16/11 Q1029
