2015/12/18 11:30
LFLB 181130Z VRB02KT CAVOK 07/06 Q1028 NOSIG
