2015/12/18 11:30
LFLC 181130Z AUTO 15003KT 110V190 CAVOK 12/06 Q1026
