2012/12/31 16:00
LFLD 311600Z 20013KT CAVOK 09/05 Q1014
