2015/12/18 11:30
LFLL 181130Z 15008KT CAVOK 12/08 Q1027 NOSIG
