2013/02/18 04:45
LFLM 180445Z VRB03KT 2500 BR OVC003 M00/M01 Q1017 RMK M3
