2015/12/18 11:30
LFLN 181130Z AUTO VRB03KT CAVOK 12/08 Q1026
