2015/12/18 11:30
LFLP 181130Z AUTO 00000KT CAVOK 09/05 Q1027
