2015/12/18 11:30
LFLU 181130Z AUTO 21003KT 180V250 CAVOK 14/10 Q1027
