2012/08/31 16:00
LFLV 311600Z 33008KT 300V010 9999 SCT030 BKN040 16/06 Q1026
