2015/12/15 07:30
LFLW 150730Z AUTO 09008KT CAVOK 05/02 Q1024
