2015/12/18 11:00
LFLX 181100Z 21003KT 9999 FEW030 BKN063 13/10 Q1026 NOSIG
