2015/12/18 11:00
LFMC 181100Z 00000KT 8000 FEW005 BKN036 11/10 Q1028
