2015/12/18 11:30
LFMD 181130Z AUTO VRB02KT 9999 OVC037 12/08 Q1028
