2015/12/18 11:30
LFMH 181130Z 16005KT CAVOK 14/05 Q1026 NOSIG
