2015/12/18 11:30
LFMI 181130Z AUTO VRB01KT 9999 FEW017 OVC034 15/11 Q1028
