2015/12/18 11:30
LFMK 181130Z AUTO 08011KT CAVOK 15/09 Q1027
