2015/12/18 11:30
LFML 181130Z VRB02KT 9999 FEW016 BKN036 14/12 Q1028 NOSIG
