2015/12/18 11:30
LFMN 181130Z 34006KT 9999 BKN040 13/06 Q1027 NOSIG
