2015/12/18 11:30
LFMO 181130Z AUTO VRB03KT 9000 NSC 14/11 Q1028
