2015/12/18 11:30
LFMP 181130Z AUTO 00000KT 9999 OVC027 15/11 Q1028
