2015/12/18 11:30
LFMT 181130Z VRB01KT 8000 FEW016 OVC029 14/12 Q1028 NOSIG
