2015/12/18 11:30
LFMV 181130Z AUTO VRB02KT 9999 FEW037 14/10 Q1028
