2015/12/18 11:30
LFMY 181130Z AUTO VRB03KT 9999 FEW018 SCT035 17/11 Q1028
