2015/12/18 11:30
LFOA 181130Z AUTO VRB02KT CAVOK 13/08 Q1025
