2015/12/18 11:30
LFOC 181130Z AUTO 20007KT 6000 OVC004 12/12 Q1024
