2015/12/18 11:30
LFOH 181130Z AUTO 18006KT 9999 BKN020 OVC150 12/09 Q1022
