2012/02/05 16:00
LFOI 051600Z 14006KT CAVOK M04/M07 Q1030
