2015/12/18 11:30
LFOJ 181130Z AUTO 21008KT 9999 3000 OVC009 12/11 Q1024
