2015/12/18 11:30
LFOK 181130Z AUTO 19006KT 9999 BKN014 OVC020 11/09 Q1025
