2012/09/24 07:00
LFOR 240700Z 21012G23KT 180V250 8000 -SHRA SCT008 BKN020 16/15 Q0991
