2015/12/18 11:30
LFOT 181130Z AUTO 18003KT 9000 BKN009 BKN017 OVC025 12/11 Q1024
