2015/12/18 11:30
LFOV 181130Z AUTO 21007KT 7000 FEW007 BKN014 BKN031 13/13 Q1023
