2011/08/26 07:00
LFOW 260700Z 15008KT 6000 -TSRA SCT010CB SCT046 16/15 Q1004
