2015/12/18 11:30
LFPC 181130Z AUTO 19006KT 170V230 9999 FEW016 BKN033 14/10 Q1024
