2015/12/18 10:30
LFPG 181030Z 18006KT 8000 SCT007 BKN030 12/10 Q1024 NOSIG
