2015/12/18 11:30
LFPN 181130Z AUTO 16005KT 5000 BR OVC003 11/10 Q1024
