2015/12/18 11:30
LFPV 181130Z AUTO 19004KT 160V220 6000 OVC003 11/11 Q1024
