2015/12/18 11:30
LFQA 181130Z AUTO 22004KT 190V250 9999 SCT007 OVC013 12/10 Q1025
