2015/12/18 11:30
LFQB 181130Z AUTO 14004KT 9999 OVC017 12/09 Q1025
