2015/12/15 07:30
LFQG 150730Z AUTO 13003KT 090V150 CAVOK 06/04 Q1024
