2012/06/29 10:30
LFQI 291030Z AUTO 22009KT //// // ///////// 18/14 Q1009
