2015/12/18 11:30
LFQQ 181130Z AUTO 22007KT 9999 OVC032 13/09 Q1022
