2015/12/18 11:00
LFRB 181100Z 19013KT 9999 SCT008 BKN013 13/11 Q1021 NOSIG
