2015/12/18 11:30
LFRC 181130Z AUTO 19011KT CAVOK 12/10 Q1021
