2015/12/18 11:30
LFRG 181130Z AUTO 22006KT 170V240 9999 BKN017 OVC150 12/09 Q1022
