2015/12/18 11:30
LFRH 181130Z AUTO 20009KT 9999 BKN007 OVC012 14/12 Q1022
