2015/12/18 11:30
LFRI 181130Z AUTO 17006KT 6000 FEW005 OVC033 12/12 Q1025
