2015/12/18 11:30
LFRK 181130Z AUTO 18006KT CAVOK 13/10 Q1022
