2015/12/18 11:30
LFRL 181130Z AUTO 18012KT 9999 BKN011 14/12 Q1020
