2015/12/18 11:30
LFRM 181130Z AUTO 19004KT 150V220 2000 -RADZ BR OVC002 13/12 Q1024
