2015/12/18 11:30
LFRN 181130Z AUTO 21008KT 9999 OVC014 14/13 Q1022
