2015/12/18 11:30
LFRO 181130Z AUTO 19010KT 170V230 9999 FEW016 14/11 Q1021
