2015/12/18 11:30
LFRQ 181130Z AUTO 19006KT 160V220 9999 BKN008 OVC013 13/12 Q1021
