2015/12/18 11:30
LFRS 181130Z 20007KT 9999 SCT020 BKN150 14/14 Q1024 NOSIG
