2015/12/18 11:30
LFRT 181130Z AUTO 21009KT 170V240 9999 FEW012 13/11 Q1021
