2015/12/18 11:30
LFRU 181130Z AUTO 19008KT 150V230 CAVOK 15/10 Q1020
