2015/12/18 11:30
LFRV 181130Z AUTO 19006KT 6000 OVC003/// 13/13 Q1022
