2015/12/18 11:30
LFRZ 181130Z AUTO 20010KT //// R26///// // BKN011 BKN140 OVC160 15/14 Q1023
