2015/12/18 11:30
LFSB 181130Z 17004KT CAVOK 09/07 Q1027 NOSIG
