2009/10/14 13:00
LFSC 141300Z AUTO 01012KT 340V060 //// // ///////// 09/M03 Q1027
