2015/12/18 11:30
LFSD 181130Z AUTO 19004KT CAVOK 11/09 Q1026
