2012/10/26 07:30
LFSF 260730Z AUTO 06008KT 360V090 //// // ///////// 10/08 Q1009
