2015/12/18 11:30
LFSI 181130Z AUTO VRB03KT 9999 OVC019 12/09 Q1025
