2015/12/18 11:30
LFSL 181130Z AUTO 17006KT 130V210 CAVOK 13/07 Q1026
