2015/12/18 11:30
LFSN 181130Z AUTO 18005KT 150V210 9999 OVC031 11/09 Q1026
