2015/12/18 11:30
LFSO 181130Z AUTO 22003KT 9999 OVC027 11/09 Q1025
