2012/04/16 07:00
LFSR 160700Z AUTO 01009KT 340V070 9999 NSC 04/00 Q1022
