2015/12/18 11:30
LFST 181130Z AUTO 19007KT 160V220 CAVOK 14/09 Q1025
