2015/12/18 11:30
LFSX 181130Z AUTO 11005KT CAVOK 11/09 Q1026
