2015/12/18 11:30
LFTH 181130Z AUTO 22006KT 180V240 9999 FEW037 15/12 Q1027
