2015/12/18 11:30
LFTW 181130Z AUTO 00000KT 9999 OVC031 14/11 Q1028
