2015/12/18 11:00
LFVP 181100Z 19010KT 9999 -RASN BKN010 02/01 Q1019
