2012/09/03 15:00
LFXA 031500Z 34014KT 320V030 9999 FEW026 BKN050 22/14 Q1017
