2015/12/18 11:30
LFYR 181130Z AUTO 22005KT 9999 BKN018 OVC033 13/10 Q1025
