2015/12/18 11:20
LGAL 181120Z 06011KT CAVOK 11/M03 Q1026
