2015/12/18 11:20
LGAV 181120Z 02016KT 9999 FEW020 SCT040 12/03 Q1025 NOSIG
