2015/12/18 11:20
LGBL 181120Z 28009KT 9999 FEW030 11/01 Q1027
