2015/12/18 11:20
LGEL 181120Z 33015G25KT 9999 SCT025 13/02 Q1024
