2015/12/18 10:50
LGHI 181050Z 01008KT 320V090 9999 FEW025 12/02 Q1022
