2015/12/18 10:50
LGKF 181050Z 35010KT 9999 FEW020 15/03 Q1025
