2015/12/18 11:20
LGKL 181120Z 00000KT 9999 FEW030 16/01 Q1023
