2015/12/18 11:20
LGKP 181120Z 31014KT 9999 FEW016 SCT080 BKN180 16/09 Q1018
