2015/12/18 11:20
LGKR 181120Z 19002KT CAVOK 16/10 Q1025 NOSIG
