2015/12/18 11:20
LGKV 181120Z 20004KT CAVOK 11/M02 Q1027
