2015/12/18 10:50
LGKZ 181050Z 00000KT CAVOK 06/M03 Q1027
