2015/12/18 11:20
LGMT 181120Z VRB03KT 9999 FEW025 12/03 Q1024
