2015/12/18 10:20
LGPA 181020Z AUTO 36019G29KT 320V020 //// -RA ////// 14/04 Q1022 RE//
