2015/12/18 11:20
LGPZ 181120Z 36004KT CAVOK 13/M02 Q1025
