2015/12/18 11:20
LGRP 181120Z 09005KT 040V170 9999 SCT018 16/10 Q1019 NOSIG
