2015/12/18 11:20
LGSA 181120Z 02011KT 9999 SCT020 OVC030 12/07 Q1021
