2015/12/18 11:20
LGSM 181120Z 05007KT CAVOK 13/06 Q1022
