2015/12/18 10:50
LGSO 181050Z 36019G29KT 9999 SCT018 13/06 Q1022
