2015/12/18 11:20
LGSR 181120Z 01018KT 9999 SCT025 14/06 Q1021
