2015/12/18 11:20
LGTS 181120Z 31013KT CAVOK 10/M01 Q1027 NOSIG
