2015/12/18 10:50
LGZA 181050Z 36012KT 9999 FEW025 15/03 Q1024
