2015/12/18 08:45
LHBC 180845Z 19005KT 8000 FEW016 OVC083 02/01 Q1030
