2015/12/18 11:30
LHBP 181130Z VRB03KT 3200 BR OVC005 03/02 Q1027 NOSIG
