2015/12/18 11:15
LHDC 181115Z 18007KT 4800 BR BKN003 02/01 Q1028 NOSIG
