2015/12/18 11:15
LHKE 181115Z 20006KT 160V240 4000 BR BKN009 OVC050 03/01 Q1027 BECMG 5000 BR RMK GRN
