2015/12/18 11:15
LHPA 181115Z 20004KT 2000 BR OVC003 01/00 Q1027 NOSIG RMK YLO
