2015/12/18 11:15
LHPR 181115Z 30003KT 3500 BR OVC006 02/01 Q1027
