2015/12/18 11:15
LHSM 181115Z 20004KT 5000 BR OVC004 01/00 Q1028 NOSIG
