2015/12/18 11:15
LHSN 181115Z 21006KT 170V230 3000 BR OVC009 03/01 Q1028 NOSIG RMK YLO
