2015/12/18 11:15
LHUD 181115Z 20008KT 8000 BKN015 03/01 Q1028
