2015/12/18 10:50
LIBC 181050Z 35006KT 300V030 CAVOK 12/03 Q1028
