2014/04/27 16:20
LIBE 271620Z 22007KT 0000 -RA FG VV/// 10/09 Q1004 RETS RMK MON INVIS VAL INVIS VIS MIN 0000
