2015/12/18 10:50
LIBF 181050Z 29004KT CAVOK 13/08 Q1028
