2015/12/18 10:50
LIBG 181050Z 02004KT CAVOK 14/01 Q1026
