2015/12/18 10:55
LIBH 181055Z 28004KT CAVOK 13/08 Q1027 RMK SKC QUK 1 QUL 1 SE VIS MAR 20 KM VIS MIN 9999
