2015/12/18 10:50
LIBP 181050Z VRB01KT CAVOK 15/06 Q1028
