2015/12/18 09:55
LIBQ 180955Z 26004KT CAVOK 04/M30 Q1023
