2014/05/14 04:24
LIBT 140424Z 29029G39KT 9999 FEW025 SCT030 13/09 Q1007 RMK BKN QUK 4 QUL 3 NW VIS MAR 20 KM VIS MIN 9999
