2014/05/08 16:21
LIBU 081621Z 23003KT 4000 -RA FEW006 SCT026 SCT030CB 12/10 Q1017 RETS RMK BKN MON CIME INC NC VAL FOSCHIA VIS MIN 4000
