2015/12/18 10:55
LIBV 181055Z 33005KT CAVOK 10/02 Q1027 RMK SKC VIS MIN 9999 WIND THR32 34005KT WIND THR14 34006KT BLU
