2015/12/18 10:50
LICA 181050Z 25008KT 220V280 CAVOK 14/07 Q1029
