2015/12/18 11:20
LICC 181120Z 24007KT 200V270 CAVOK 14/03 Q1028
