2014/01/20 06:02
LICE 200602Z 26017G38KT 0600 -TSRA FG VV002 08/08 Q1003 RMK MON INVIS NC VAL INVIS NC VIS MIN 0600
