2015/12/18 10:55
LICL 181055Z 22003KT CAVOK 17/08 Q1028 RMK SKC QUK 1 QUL 0 VIS MAR 23 KM VIS MIN 9999
