2014/03/09 17:32
LICO 091732Z 06011KT 9999 FEW015 FEW018CB 14/12 Q1017 RETS RMK BKN SCT200 QUK / QUL / VIS MAR 12 KM VIS MIN 9999
