2009/01/11 17:55
LICP 111755Z 10009KT 9999 BKN015 13/11 Q1022 RMK BKN VIS MIN 9999 WHT
