2015/12/18 10:50
LICR 181050Z 33011KT CAVOK 14/04 Q1028
