2015/12/18 10:55
LICT 181055Z 32004KT 9999 SCT040 15/02 Q1029
