2014/01/14 14:14
LICU 141414Z 22014KT 9999 TS FEW011CB BKN013 13/10 Q1012 RMK OVC QUK 2 QUL 1 SW VIS MAR 14 KM VIS MIN 9999
