2015/12/18 10:55
LICZ 181055Z 26002KT CAVOK 16/03 Q1029 RMK SKC VIS MIN 9999 WIND THR28 27003KT A3040 BLU
