2015/12/18 10:55
LIEB 181055Z 22004KT CAVOK 15/11 Q1029 RMK SKC QUK 2 QUL 0 VIS MAR 30 KM MON LIB VIS MIN 9999
