2015/12/18 10:55
LIEC 181055Z 25005KT 9999 FEW018 16/13 Q1029 RMK FEW QUK 1 QUL 0 VIS MAR 15 KM VIS MIN 9999
