2015/12/18 10:55
LIED 181055Z 34001KT 9999 FEW002 14/12 Q1029
