2015/12/18 11:20
LIEE 181120Z 30004KT 270V330 CAVOK 16/12 Q1029
