2015/12/18 11:20
LIEO 181120Z VRB02KT 9999 SCT040 18/10 Q1029
