2015/12/18 10:50
LIMA 181050Z 00000KT 8000 NSC 08/03 Q1028
