2015/12/18 11:20
LIMC 181120Z 28004KT 250V330 9999 SCT060 11/04 Q1028 NOSIG
