2015/12/18 11:20
LIME 181120Z 21005KT 180V240 CAVOK 11/05 Q1027
