2015/12/18 11:20
LIMF 181120Z 22003KT 7000 NSC 08/02 Q1028
