2015/12/18 10:50
LIMG 181050Z 00000KT 9999 SCT060 13/08 Q1027
