2015/12/18 10:55
LIMK 181055Z 00000KT 6000 FEW030 SCT040 07/03 Q1027 RMK BKN VAL FOSCHIA VIS MIN 6000
