2015/12/18 11:20
LIML 181120Z 21005KT 3000 BR SCT035 08/06 Q1028 NOSIG
