2015/12/18 10:50
LIMP 181050Z VRB01KT 6000 NSC 09/05 Q1028
