2015/12/18 10:55
LIMS 181055Z 31002KT 5000 BR SCT050 09/09 Q1027
