2015/12/18 10:55
LIMT 181055Z 19004KT 0050 FG VV/// 05/04 Q1027 RMK MON INVIS VAL INVIS VIS MIN 0050
