2015/12/18 10:55
LIMU 181055Z 22007KT 9999 BKN033 12/10 Q1027 RMK BKN QUK 2 QUL 1 S VIS MAR 30 KM VIS MIN 9999
