2015/12/18 10:50
LIMW 181050Z AUTO VRB01KT CAVOK M00/M02 Q1029
