2015/12/18 10:55
LIMY 181055Z 19002KT CAVOK 08/05 Q1028 RMK BKN SCT070 SCT180 VAL FOSCHIA VIS MIN 9999
