2015/12/18 10:50
LIMZ 181050Z VRB02KT 8000 SCT080 09/04 Q1028
