2015/12/18 10:55
LIPA 181055Z 00000KT CAVOK 10/04 Q1028 RMK BKN BKN200 VIS MIN 9999 WIND THR05 00000KT WIND THR23 00000KT A3036 BLU
