2015/12/18 10:55
LIPC 181055Z 35002KT CAVOK 10/07 Q1028
