2015/12/18 11:20
LIPE 181120Z 28003KT 230V310 6000 NSC 10/06 Q1028
