2015/12/18 10:55
LIPF 181055Z 11002KT 2000 BR NSC 07/07 Q1028
