2015/12/18 11:15
LIPH 181115Z 11002KT 6000 NSC 09/04 Q1028
