2015/12/18 10:50
LIPK 181050Z VRB01KT 7000 NSC 12/07 Q1028
