2015/12/18 10:50
LIPO 181050Z 25004KT 6000 NSC 09/05 Q1028
