2015/12/18 11:15
LIPR 181115Z 05003KT 4000 BR NSC 10/07 Q1029
