2015/12/18 10:55
LIPS 181055Z 00000KT 8000 NSC 09/03 Q1028 RMK FEW FEW200 VIS MIN 8000 WIND THR26 00000KT WIND THR28 00000KT BLU
