2008/02/29 10:55
LIPT 291055Z 00000KT 1800 BR BKN012 09/06 Q1022 LIPT TERRMINA ATTIVITA' OSSERVATIVA SALUTI A TUTTI RMK BKN VIS MIN 1800 YLO
