2015/12/18 11:20
LIPX 181120Z 16003KT 120V210 9999 FEW070 09/04 Q1028
