2015/12/18 10:50
LIPY 181050Z VRB02KT CAVOK 12/05 Q1029
