2015/12/18 11:20
LIPZ 181120Z 16003KT 110V190 4000 BR NSC 07/04 Q1028 BECMG 5000
