2012/10/09 07:55
LIQJ 090755Z 16004KT 9999 SCT015 20/18 Q1012
