2015/12/18 10:50
LIQN 181050Z 00000KT CAVOK 07/02 Q1028
