2015/12/18 09:55
LIQO 180955Z 36003KT CAVOK 13/07 Q1027
