2015/12/18 10:55
LIQW 181055Z 30004KT 7000 SCT030 11/10 Q1029
