2015/12/18 11:20
LIRA 181120Z 33009KT CAVOK 12/02 Q1028
