2015/12/18 11:20
LIRF 181120Z 07004KT 040V120 CAVOK 13/03 Q1029 NOSIG
