2015/12/18 10:55
LIRG 181055Z VRB02KT CAVOK 14/M00 Q1029
