2015/12/18 10:55
LIRH 181055Z 24002KT 4000 BR FEW005 09/01 Q1028
