2015/12/18 10:50
LIRI 181050Z 00000KT CAVOK 14/02 Q1028
