2015/12/18 10:55
LIRK 181055Z AUTO 31005KT 250V340 //// 09/M03 Q1029
