2015/12/18 10:55
LIRL 181055Z 18003KT CAVOK 15/11 Q1028
