2015/12/18 10:55
LIRM 181055Z 06002KT CAVOK 13/09 Q1029
