2015/12/18 11:15
LIRP 181115Z 12004KT 7000 SCT010 BKN050 11/08 Q1029 NOSIG
