2015/12/18 11:20
LIRQ 181120Z VRB01KT 9999 SCT025 BKN030 10/06 Q1029
