2015/12/18 09:55
LIRT 180955Z 12003KT CAVOK 06/M01 Q1027
