2015/12/18 10:50
LIRU 181050Z VRB01KT CAVOK 10/04 Q1029
