2015/12/18 10:55
LIRV 181055Z 05006KT CAVOK 12/08 Q1028
