2015/12/18 10:55
LIRX 181055Z 00000KT 9999 FEW004 12/09 Q1027
