2015/12/18 10:50
LIRZ 181050Z VRB02KT 9000 SCT030 06/03 Q1030
