2015/12/18 09:55
LIVC 180955Z 26023KT CAVOK 07/M03 Q1029
