2015/12/18 10:55
LIVD 181055Z 29004KT CAVOK 02/01 Q1028 RMK SCT FEW070 SCT200 VIS MIN 9999
