2015/12/18 09:55
LIVF 180955Z 00000KT CAVOK 08/01 Q1027
