2015/12/18 09:55
LIVM 180955Z 27002KT CAVOK 08/05 Q1028
