2015/12/18 10:55
LIVO 181055Z 14001KT CAVOK 05/02 Q1025 RMK SCT SCT200 VIS MIN 9999
