2015/12/18 09:55
LIVP 180955Z 02006KT CAVOK 03/M08 Q1026
