2015/12/18 10:55
LIVR 181055Z 33006KT CAVOK 05/M03 Q1026 RMK SKC MON LIB VIS MIN 9999
