2015/12/18 10:55
LIVT 181055Z 00000KT CAVOK 12/07 Q1028 RMK SKC QUK 0 QUL 0 VIS MAR 15 KM VIS MIN 9999
