2015/10/20 13:58
LIYW 201358Z AUTO 21003KT 9999 CLR 17/03 A3001 RMK AO2 SLP167 T01660029
