2015/12/18 11:30
LJCE 181130Z 19001KT 8000 BKN005 02/00 Q1027 RMK YLO
