2015/12/18 11:30
LJLJ 181130Z VRB01KT 0300 R30/0350N FZFG VV001 M00/M00 Q1026 NOSIG
