2015/12/18 11:30
LJMB 181130Z VRB01KT 4000 BR BKN007 03/01 Q1026
