2015/12/18 11:30
LJPZ 181130Z VRB02KT 9999 FEW015 11/08 Q1028
