2015/12/18 11:00
LKCV 181100Z 14005KT 9999 FEW047 BKN070 11/09 Q1023 NOSIG RMK BLU BLU
