2009/07/01 08:00
LKHO 010800Z VRB03KT CAVOK 23/17 Q1019
