2015/12/18 11:00
LKKB 181100Z 21005KT 9999 -RA NSC 09/09 Q1023 NOSIG
