2015/12/18 11:00
LKKU 181100Z 00000KT 5000 BR SCT004 OVC006 03/02 Q1026
