2015/12/18 11:30
LKKV 181130Z 25005KT 190V280 7000 2500NW -RA OVC003 08/08 Q1022
