2015/12/18 11:00
LKLN 181100Z AUTO 22003KT 9999 -RA SCT016 BKN060 09/08 Q1024
