2015/12/18 11:30
LKMT 181130Z 21016KT 8000 BKN008 OVC013 05/03 Q1024 NOSIG
