2015/12/18 11:00
LKNA 181100Z 20004KT 0100 FG VV001 03/03 Q1024 NOSIG RMK RED RED
