2015/12/18 11:00
LKPD 181100Z 11004KT CAVOK 09/07 Q1023 BECMG RA BKN040 OVC070 RMK BLU BLU
