2013/10/01 00:00
LKPO 010000Z 05005KT CAVOK 04/01 Q1013
