2015/12/18 11:30
LKPR 181130Z 22010KT 9999 -RA FEW040 10/08 Q1022 NOSIG
