2015/12/18 11:30
LKTB 181130Z 20004KT 1200 R27/P2000N BR OVC002 03/03 Q1025 NOSIG
