2015/12/18 11:00
LKVO 181100Z VRB01KT 5000 -RA BR NSC 07/07 Q1023
