2015/12/18 11:20
LLBG 181120Z 22006KT 180V260 9999 SCT030 17/12 Q1019 NOSIG RMK BKN070
