2015/12/18 10:50
LLET 181050Z 05004KT CAVOK 21/04 Q1020 RMK FEW060
