2015/12/18 10:50
LLHA 181050Z 13009KT 9999 SCT025 16/11 Q1020 RMK BKN061 RERA
