2010/09/21 17:00
LLLS 211700Z 12006KT 8000 HZ 23/08 Q1015 NOSIG
