2015/12/17 15:50
LLOV 171550Z 30008KT CAVOK 14/04 Q1018 RMK FEW060
