2015/12/18 10:50
LLSD 181050Z 17007KT 140V210 9999 FEW025 BKN040 15/13 Q1018 RMK RERA
