2012/12/22 08:00
LMEO 220800Z 06004KT 6000 09/09 Q1025 NOSIG
