2015/12/18 11:15
LMML 181115Z 36005KT 290V060 9999 FEW045 16/05 Q1028 NOSIG
