2015/12/18 11:00
LOIH 181100Z 00000KT 35KM SCT100AC 07/06 Q1027 RMK BKN
