2015/12/18 11:20
LOWG 181120Z VRB02KT 0350 R17/0400N R35/0450N FG VV002 01/01 Q1026 R17/19//95 BECMG 0600 OVC003
