2015/12/18 11:20
LOWI 181120Z VRB02KT 9999 FEW005 SCT080 BKN120 04/04 Q1028 NOSIG
