2015/12/18 11:20
LOWK 181120Z VRB01KT 0400 R10/0375N R28/0400N FZFG VV002 M01/M01 Q1027 R10L/29//95 TEMPO 0600
