2015/12/18 11:20
LOWL 181120Z 25006KT 0800 R26/P1500U FG VV002 07/07 Q1026 BECMG 1500 BR BKN003
