2015/12/18 11:20
LOWW 181120Z 13004KT 080V160 0400 R16/0650D R29/0600N FG VV001 02/02 Q1026 NOSIG
