2015/12/18 11:00
LOWZ 181100Z 00000KT 40KM 5000N VCFG SCT003ST 02/02 Q1028 RMK OVC
