2015/12/18 11:20
LOXT 181120Z VRB02KT 5000 BR FEW004ST BKN005ST 05/05 Q1026 NOSIG RMK OVC
