2015/12/18 10:50
LOXZ 181050Z VRB01KT 0300 FG VV003 00/00 Q1027
