2015/12/18 10:00
LPAR 181000Z 00000KT FEW010 BKN018 15/13 Q1028
