2015/12/18 11:00
LPBJ 181100Z 14006KT 110V170 7000 SCT006 14/14 Q1029
