2015/12/18 11:30
LPCS 181130Z 15007KT 6000 SCT008 BKN014 17/15 Q1027
