2015/12/18 11:30
LPFL 181130Z 29013G24KT 230V350 9999 SCT016 SCT019CB 14/08 Q1001
