2015/12/18 11:30
LPFR 181130Z 09008KT 9000 FEW009 17/14 Q1029
