2015/12/18 11:30
LPHR 181130Z 25033G43KT 6000 -SHRA BKN015 FEW020CB SCT070 14/12 Q1003
