2015/12/18 11:30
LPMA 181130Z 20020KT 9999 FEW015 22/14 Q1025
