2015/12/18 10:00
LPMR 181000Z 14010KT 9999 FEW015 BKN020 15/11 Q1027
