2015/12/18 10:00
LPMT 181000Z 13007KT 9000 FEW012 BKN018 15/13 Q1028
