2015/12/18 10:00
LPOV 181000Z 19009KT 9999 BKN015 BKN020 17/15 Q1026
