2015/12/18 11:30
LPPD 181130Z 24028G40KT 9999 FEW018 17/10 Q1008
