2015/12/18 11:30
LPPR 181130Z 18012KT 9999 OVC013 17/15 Q1026
