2015/12/18 11:30
LPPS 181130Z 17013KT 9999 FEW012 21/17 Q1025
