2015/12/18 11:30
LPPT 181130Z 15006KT 9000 SCT009 BKN014 15/13 Q1028
