2015/12/18 10:00
LPST 181000Z 15009KT 9999 BKN007 BKN012 17/15 Q1027
