2015/12/18 11:30
LQBK 181130Z VRB02KT 6000 FEW010 04/01 Q1027 NOSIG
