2014/01/26 16:00
LQPP 261600Z 05004KT 1000 R02/0900 DRSA NSC 25/08 Q1014 NOSIG
