2015/12/18 11:30
LQTZ 181130Z VRB02KT 6000 FEW005 01/00 Q1027
