2015/12/18 11:30
LRAR 181130Z 16005KT 130V200 9999 SCT025 OVC035 04/01 Q1028
