2015/12/18 11:30
LRBC 181130Z 15003KT 5000 BR SCT035 02/01 Q1023 R16/19//95
