2015/12/18 11:30
LRBM 181130Z 00000KT 4000 -RASN BR FEW007 BKN014 BKN050 02/02 Q1029 R10/19//95
