2015/12/17 09:00
LRBO 170900Z 22008KT 8000 SKC 02/M03 Q1034 BLU BLU
