2015/12/18 11:30
LRBS 181130Z 26008KT 230V300 9999 BKN015 03/M00 Q1026 BECMG BKN020
