2015/12/18 11:30
LRCK 181130Z 26010KT 9999 SCT014 OVC015 02/02 Q1025 NOSIG
