2015/12/18 11:30
LRCL 181130Z VRB02KT 8000 FEW010 BKN028 01/M01 Q1028 R07/29//95
