2007/05/03 07:30
LRCS 030730Z 16003MPS CAVOK 12/03 Q1016
