2015/12/18 11:00
LRCT 181100Z VRB03KT 3000 BR OVC007 02/M00 Q1028 YLO YLO
