2015/12/18 11:30
LRCV 181130Z 26008KT CAVOK 04/M01 Q1025
