2013/03/09 13:00
LRFT 091300Z 10010KT 8000 SCT070 15/07 Q1004 BLU BLU
