2015/12/18 11:30
LRIA 181130Z 09006KT 6000 OVC029 00/M00 Q1023 R14/19//95
