2008/07/29 23:00
LRMO 292300Z 19007KT CAVOK 23/13 Q1015 NOSIG
