2015/12/18 11:30
LROD 181130Z 18006KT 7000 FEW010 BKN013 BKN021 03/00 Q1028 R01/19//95
