2015/12/18 11:30
LRSB 181130Z VRB01KT 9999 SCT038 02/M03 Q1027
