2015/12/18 11:30
LRSM 181130Z VRB02KT 8000 SCT004 OVC015 02/02 Q1028 R01/29//95
