2015/12/18 11:30
LRTC 181130Z 25018KT CAVOK 03/M01 Q1025
