2015/12/18 11:30
LRTM 181130Z 00000KT 8000 FEW014 BKN036 03/M01 Q1028
