2015/12/18 11:30
LRTR 181130Z 14005KT 080V180 9999 FEW013 BKN033 04/01 Q1028
