2015/12/18 11:20
LSGC 181120Z VRB01KT CAVOK 11/05 Q1027
