2015/12/18 11:20
LSGG 181120Z VRB02KT 2800 BR FEW001 BKN003 BKN100 05/05 Q1028 BECMG 5000 BKN008
