2015/12/18 11:20
LSGS 181120Z 06006KT 360V080 9999 FEW100 BKN150 08/02 Q1028
