2015/12/18 10:50
LSMA 181050Z AUTO VRB02KT 9999NDV BKN100 BKN120 08/05 Q1028 RMK
