2015/12/18 10:50
LSME 181050Z AUTO VRB02KT 9999NDV BKN098 08/06 Q1028 RMK
