2015/12/18 10:50
LSMM 181050Z AUTO 00000KT 9999NDV BKN110 02/02 Q1027 RMK
