2015/12/18 10:50
LSMP 181050Z AUTO 00000KT 0500NDV R05/P2000U R23/1000V1600U FG BKN001 05/05 Q1028 RMK
