2015/12/18 10:50
LSMS 181050Z 10004KT 030V170 9999 FEW100 BKN150 06/01 Q1029
