2015/01/25 12:50
LSMV 251250Z 07004KT 9999 -SN SCT019 M05/M11 Q1019 NOSIG
