2015/12/18 11:20
LSZA 181120Z VRB02KT CAVOK 08/03 Q1028 NOSIG
