2015/12/18 11:20
LSZB 181120Z VRB02KT 9999 SCT060 07/06 Q1027 NOSIG
