2015/12/18 11:20
LSZC 181120Z AUTO 21003KT 170V250 9999 OVC090 09/05 Q1028
