2015/12/18 11:20
LSZG 181120Z 26003KT 0900 FG OVC002 05/05 Q1028 NOSIG
