2015/12/18 11:20
LSZH 181120Z 22005KT 150V280 CAVOK 10/07 Q1027 NOSIG
