2015/12/18 10:50
LSZL 181050Z VRB01KT CAVOK 05/03 Q1029 RMK
