2015/12/18 11:20
LSZR 181120Z 04003KT 360V100 9999 SCT070 BKN100 08/07 Q1028 NOSIG RMK H
