2015/12/13 22:01
LTAB 132201Z 00000KT 6000 NSC M04/M05 Q1023 NOSIG RMK RWY06 00000KT
