2015/12/18 11:20
LTAC 181120Z 02003KT 340V080 9999 SCT030 04/M03 Q1023 NOSIG
