2015/12/16 11:02
LTAD 161102Z VRB02KT 4000 BR OVC011 M00/M02 Q1024 RESG NOSIG RMK RWY29 14005KT 100V170
