2015/12/16 11:06
LTAE 161106Z 26004KT 2200 BCFG OVC005 M02/M02 Q1024 BECMG TL1200 3500 BR BKN008 RMK RWY21 VRB02KT
