2015/12/18 11:20
LTAF 181120Z 03006KT 350V060 9999 FEW040 BKN100 18/02 Q1020 NOSIG
