2015/12/18 11:20
LTAG 181120Z 03003KT 9999 FEW035 BKN200 18/03 Q1020 NOSIG
