2015/12/16 11:10
LTAH 161110Z 12004KT 020V170 1500 R31/P1500N R13/P1500U BR OVC003 M03/M03 Q1025 RMK RWY13 14003KT 050V220
