2015/12/18 10:50
LTAL 181050Z VRB02KT 9999 FEW012 SCT037 01/M02 Q1023
