2014/10/14 17:12
LTAO 141712Z 27005KT 9999 BKN035 BKN090 13/11 Q1018 REPRRA
