2015/12/18 11:20
LTAP 181120Z 16006KT 130V200 9999 SCT035 06/M02 Q1024 NOSIG
