2015/12/18 11:20
LTAT 181120Z 05002KT CAVOK 07/M01 Q1023 NOSIG
