2015/12/03 12:24
LTAV 031224Z 32011KT 8000 BKN027 01/M02 Q1026 RESN RMK RWY11 35009KT
