2015/12/18 10:50
LTAW 181050Z VRB04KT CAVOK 06/M02 Q1025
