2015/12/18 11:20
LTAZ 181120Z 19003KT 150V240 9999 FEW040 BKN180 02/M03 Q1024
