2015/12/18 11:20
LTBA 181120Z 02015KT 350V050 9999 BKN036 09/03 Q1026 NOSIG
