2015/12/18 10:50
LTBD 181050Z 10012KT 8000 NSC 12/M00 Q1021
