2015/12/18 10:50
LTBF 181050Z 02017KT 9999 FEW035 10/00 Q1024 NOSIG
