2015/12/18 10:50
LTBH 181050Z 02012KT 9999 SCT030 BKN100 09/04 Q1026
