2015/12/15 09:19
LTBI 150919Z 09007KT 3200 BR BKN009 M00/M01 Q1027 NOSIG RMK RWY09 12005KT 070V150
