2015/12/18 11:20
LTBJ 181120Z 35016KT CAVOK 11/M01 Q1021 NOSIG
