2015/12/10 05:13
LTBL 100513Z 00000KT 2000 BR NSC 02/01 Q1024 BECMG TL0600 3200 RMK RWY17 35003KT
