2014/09/30 08:23
LTBN 300823Z VRB03KT 3500 BR SCT033 11/09 Q1026
