2015/12/18 10:50
LTBO 181050Z 07009KT CAVOK 09/M03 Q1020
