2015/12/18 10:50
LTBQ 181050Z 12004KT 040V170 8000 SCT025 11/02 Q1026 NOSIG
