2015/12/18 11:20
LTBR 181120Z 07013KT CAVOK 10/00 Q1024 NOSIG
