2015/12/16 05:39
LTBT 160539Z 00000KT 0350 R32/P1500D R14/0400D BCFG NSC M02/M02 Q1024 RMK RWY14 31002KT
