2015/12/18 11:20
LTBU 181120Z 03006KT 350V060 9999 FEW040 10/02 Q1025
