2014/09/17 12:35
LTBV 171235Z 29011KT 9999 FEW020CB SCT035 29/17 Q1010 RETS
