2014/10/22 13:25
LTBX 221325Z 21007KT CAVOK 23/11 Q1008
