2015/12/18 10:50
LTBY 181050Z 09009KT 9999 SCT027 05/M02 Q1023
