2015/12/18 10:50
LTBZ 181050Z 14007KT 9999 SCT025 BKN090 04/M01 Q1022
