2015/12/18 10:50
LTCB 181050Z VRB02KT 9999 SCT030 10/04 Q1026
