2015/12/18 11:20
LTCC 181120Z 10003KT 040V130 CAVOK 10/00 Q1022 NOSIG
