2015/12/18 10:50
LTCD 181050Z VRB02KT CAVOK 03/M08 Q1024 NOSIG
