2015/12/18 11:20
LTCE 181120Z 06007KT 7000 NSC M04/M09 Q1022 NOSIG
