2015/12/18 10:50
LTCF 181050Z 05004KT 020V090 CAVOK M08/M09 Q1024
