2015/12/18 11:20
LTCG 181120Z 08005KT 060V120 CAVOK 10/02 Q1026 NOSIG
