2015/12/18 10:50
LTCI 181050Z VRB02KT 9999 FEW040 04/M04 Q1022 NOSIG
