2015/12/18 11:20
LTCJ 181120Z 00000KT 6000 NSC 09/03 Q1022
