2015/12/18 10:50
LTCK 181050Z 00000KT 1500 R29/1500D R11/1000U BR OVC003 M06/M07 Q1025
