2015/12/18 10:50
LTCL 181050Z 19002KT CAVOK 12/00 Q1022
