2015/12/18 10:50
LTCM 181050Z 12008KT 080V150 9999 SCT025 10/04 Q1025
