2015/12/18 10:50
LTCN 181050Z 00000KT 8000 FEW040 SCT100 BKN200 12/05 Q1022
