2015/12/18 10:50
LTCO 181050Z 28004KT 250V320 2700 BR SCT006 SCT030 OVC070 M08/M09 Q1024
