2015/12/18 10:50
LTCP 181050Z 17004KT 090V230 9999 FEW040 BKN200 12/01 Q1022
