2015/12/18 10:50
LTCR 181050Z 18007KT 9999 FEW035 SCT080 13/03 Q1022
