2015/12/18 11:20
LTCS 181120Z 17004KT 130V190 9999 FEW040 SCT100 10/02 Q1023
