2015/12/18 10:50
LTCT 181050Z 16004KT 9999 SCT035 BKN070 01/M07 Q1027
