2015/12/18 10:50
LTCU 181050Z 19004KT 090V240 CAVOK 07/M04 Q1023
