2015/12/18 10:50
LTCW 181050Z 16002KT 6000 SCT035 M06/M06 Q1023
