2015/12/18 10:50
LTDA 181050Z 11006KT 060V130 7000 SCT030 BKN090 13/08 Q1023
