2015/12/18 05:28
LTFA 180528Z 05010KT 010V080 CAVOK 03/M01 Q1023 RMK RWY17 02016KT
