2015/12/18 11:20
LTFC 181120Z 05008KT 9999 FEW035 BKN100 08/M01 Q1020
