2015/12/18 10:50
LTFD 181050Z 05022KT 9999 SCT035 10/03 Q1024
