2015/12/18 11:20
LTFE 181120Z 31004KT 280V340 9999 FEW035 BKN200 15/06 Q1020 NOSIG
