2015/12/18 11:20
LTFJ 181120Z 02014KT 9999 SCT011 BKN030 09/06 Q1025 NOSIG
