2015/12/18 11:30
LUBL 181130Z 23008KT 6000 OVC018 00/M00 Q1021
