2015/12/16 14:00
LUBM 161400Z 34003KT CAVOK 03/M07 Q1034 R25/CLRD65
