2014/10/10 07:15
LUCH 100715Z 12001KT 8000 NSC 13/11 Q1025
