2015/12/18 11:30
LUKK 181130Z 23007KT 9999 BKN029 02/M03 Q1023 R08/CLRD95 NOSIG
