2009/04/25 09:30
LWOG 250930Z 17007KT 9999 FEW046 SCT090 12/08 Q1020
