2015/12/18 11:30
LWOH 181130Z 15002KT CAVOK 05/M02 Q1026
