2015/12/18 11:30
LWSK 181130Z 00000KT 9999 FEW017 03/M02 Q1029 NOSIG
