2015/12/18 10:50
LXGB 181050Z 28003KT CAVOK 16/08 Q1029 NOSIG
