2015/12/18 11:30
LYBE 181130Z 18003KT 150V220 0800 R12/2000D R30/1300U FZFG SCT002 M00/M01 Q1028 TEMPO 1500 BR
