2015/02/22 09:54
LYBM 220954Z 11012KT 080V150 9999 SCT040 09/02 Q1010
