2015/12/18 11:30
LYBT 181130Z VRB02KT 0200 R12/0175N R30/0300N FZFG BKN002 M01/M01 Q1029 NOSIG
