2015/12/18 11:30
LYKV 181130Z VRB02KT 6000 NSC 04/02 Q1029 NOSIG
