2015/12/18 11:30
LYNI 181130Z 22003KT 140V300 9999 FEW017 04/M01 Q1029 NOSIG
