2015/12/18 11:30
LYPG 181130Z 00000KT CAVOK 10/M04 Q1027 NOSIG
