2015/12/18 11:30
LYTV 181130Z 26003KT 200V360 CAVOK 14/02 Q1026 NOSIG
