2015/12/18 11:30
LYUZ 181130Z 23004KT 190V290 CAVOK 04/M04 Q1026
