2015/12/18 11:30
LYVR 181130Z 17004KT 140V210 9999 SCT040 04/01 Q1029 NOSIG
