2015/12/18 11:30
LZIB 181130Z 09003KT 060V120 5000 BR SCT004 OVC006 03/02 Q1027 NOSIG
