2013/01/01 12:00
LZKC 011200Z 21006KT 150V290 9999 FEW053 04/M07 Q1019
