2015/12/18 11:30
LZKZ 181130Z 19005KT 1500 BR OVC002 00/00 Q1027 NOSIG
