2013/03/14 11:10
LZLU 141110Z AUTO 08009KT //// ////// 02/01 Q0994
