2012/01/04 03:00
LZMC 040300Z 19002KT CAVOK 05/02 Q1015
