2015/12/18 11:30
LZPP 181130Z 16001KT 9000 OVC008 03/01 Q1026
