2012/01/04 03:00
LZPW 040300Z 16020KT 8000 SCT011 SCT033 04/01 Q1015
