2015/12/18 11:30
LZSL 181130Z VRB02KT 8000 SCT004 BKN007 OVC012 02/00 Q1026
