2015/12/18 11:30
LZTT 181130Z VRB02KT 9999 BKN008 BKN016 00/M02 Q1023 NOSIG
