2015/12/18 11:30
LZZI 181130Z 26006KT 4600 BR BKN004 OVC006 02/01 Q1026
