2007/11/21 15:00
M4MG 211500Z 09006KT 9999 FEW021 BKN070 27/22 Q1013 A2992 VP/10006KT
