2010/06/03 20:00
MABZ 032000Z 10005KT 9999 SCT025 BKN280 32/28 A2975 NOSIG
