2008/07/19 01:50
MASF 190150Z 11007KT 29/27 Q1002
