2015/02/06 12:00
MBCH 061200Z 00000KT CAVOK 21/18 Q1012
