2015/12/17 17:00
MBGT 171700Z 09015KT 9999 SCT025 28/22 Q1015
