2010/11/01 15:00
MBPA 011500Z 12010KT 9999 SCT015 30/25 A3008  
