2011/10/28 14:00
MBPB 281400Z 10012KT 9999 SCT010 29/25 A2994  
