2015/12/18 11:00
MBPV 181100Z 09008KT 9999 SCT015 25/23 Q1015
