2014/01/14 01:00
MCMH 140100Z AUTO 05003KT //// ////// 29/25 Q1007
