2014/08/24 18:00
MCNH 241800Z 18006KT 9999 BKN025TCU 32/25 Q1009 TCU/NE/E
