2012/06/28 13:00
MCWR 281300Z 13006KT 100V170 9999 FEW018 BKN280 30/25 Q1017 NOSIG
