2012/02/29 06:00
MD99 290600Z 00000KT 6000 -RA FEW018 SCT070 23/22 Q1020
