2015/12/17 22:00
MDAB 172200Z 09006KT 9999 FEW020 30/26 Q1016
