2015/03/06 13:00
MDBA 061300Z 09004KT 9999 BKN016 24/22 Q1020
