2015/12/17 23:00
MDBH 172300Z 13015KT 9999 FEW018CB SCT020 SCT100 26/23 Q1015 CB/NW METAR MDJB 172300Z 00000KT 8000 -RA FEW014CB BKN016 23/21 Q1015 CB/NE/E/N METAR MDSD 172300Z 09004KT 9999 SCT017 SCT070 BKN300 25/23 Q1014
