2015/05/27 22:05
MDBJ 272205Z 12012KT 8000 VCRA FEW020CB BKN020 SCT300 27/23 Q1014 CB/NE/E/N
