2015/12/18 11:00
MDCY 181100Z 00000KT 9999 SCT016 SCT070 21/21 Q1014
