2007/11/20 09:00
MDDC 200900Z 00000KT 9999 BKN018 OVC080 23/22 Q1011 =N MDSD 200900Z 36006KT 8000 RA FEW018CB FEW018 23/22 Q1012 CB/E/NW 
