2011/12/20 11:00
MDDT 201100Z 00000KT 9999 SCT016 18/17 Q1017
