2015/12/17 21:00
MDJB 172100Z 06006KT 8000 -RA FEW014CB BKN016 BKN300 23/22 Q1014 CB/NE/E/SW/NW/N
