2013/09/06 06:00
MDOO 060600Z 00000KT 9999 FEW014CB BKN016 25/25 Q1012 RERA CB/NE
