2015/12/18 11:00
MDPC 181100Z 00000KT 9999 FEW018 BKN080 24/22 Q1016
