2011/07/29 01:00
MDTS 290100Z 07007KT 8000 -RA FEW016CB BKN017 25/24 Q1016 CB/E/SW/W
