2011/01/13 00:00
MEAR 130000Z METAR FMNM 130000Z 30006KT 9000 TSRA FEW020CB BKN100 23/22 Q1008
