2012/11/29 21:00
MECH 292100Z 01006KT 9999 FEW025 BKN300 34/18 Q1010
