2015/03/25 07:00
MEDA 250700Z 13004KT CAVOK 22/19 Q1013
