2015/11/25 20:00
MEET 252000Z 31018G30KT 9999 SCT023 FEW030CB 34/23 Q1003
