2011/08/27 22:00
MEJG 272200Z 00000KT 8000 FEW018CB SCT019 23/21 Q1010 CB/NE/NW BR
