2009/07/24 09:00
MEJN 240900Z 29014KT CAVOK 41/20 Q1003 NOSIG
