2014/01/23 23:00
MELM 232300Z 07004KT CAVOK 28/21 A2993
