2014/08/28 07:00
MEPC 280700Z 12010KT 9999 FEW017CB BKN018 SCT080 28/25 Q1015 CB/W
