2010/12/16 23:00
MEPP 162300Z VRB02KT 9000 SCT024 BKN070 25/20 Q1015 A2996
