2011/08/28 19:54
METC 281954Z 34018G24KT 10SM FEW038 SCT080 BKN150 BKN250 19/11 A2961 RMK AO2 SLP025 T01890106     
