2012/10/08 15:00
METR 081500Z 00000KT 9999 FEW017 SCT070 BKN200 15/M01 Q1037
