2008/04/10 11:00
METV 101100Z METAR FMMI 101100Z 10006KT 030V150 9999 SCT020CB 26/14 Q1019 NOSIG
