2014/08/31 03:00
METZ 310300Z 08008KT 9999 FEW035 19/12 Q1020
