2015/06/24 21:00
MEWG 242100Z 00000KT 9999 FEW040 SCT100 04/M02 Q0996
