2015/11/19 06:00
MFPC 190600Z 10007KT 9999 FEW016CB FEW018 SCT300 27/24 Q1013 CB/SE/S
