2014/12/30 18:00
MFTF 301800Z 12008KT 9999 FEW017 25/22 Q1007
