2015/02/27 02:00
MFTL 270200Z 00000KT 9999 -RA FEW010 FEW018TCU BKN110 28/26 Q1008
