2012/09/06 17:00
MFTV 061700Z VRB02KT 9999 FEW016 BKN110 21/19 Q1013
