2007/05/17 23:00
MGAJ 172300Z 00000KT 8000 TS FEW025CB SCT100 OVC200 32/24 Q1010 VIS HZ CB/TS N/NNE
