2008/10/30 10:00
MGBP 301000Z 00000KT 9000 -DZ OVC016 20/19 Q1020
