2010/09/17 17:00
MGCH 171700Z 00000KT 9999 SCT025 SCT090 32/26 Q1009
