2008/10/24 22:00
MGGK 242200Z 27010KT 9999 SCT020 BKN090 26/23 Q1014
