2015/12/18 11:00
MGGT 181100Z 02008KT 8000 FEW006 BKN014 18/16 Q1023 A3021 BR FEW080
