2015/12/17 17:00
MGMM 171700Z 00000KT 9999 FEW016 30/23 Q1012 A2988 
