2015/12/18 11:00
MGPB 181100Z 00000KT CAVOK 22/22 Q1012 A2988
