2008/10/07 18:00
MGPT 071800Z 33006KT 9999 FEW018 SCT200 28/24 Q1012 TCU SSE
