2015/12/18 00:00
MGRT 180000Z 22004KT 7000 VC SH OVC016 25/25 Q1010 A2983 PCPN NE/ESE/S VOL. STA. MARIA Y SANTIAGUITO EN ACTIVIDAD
