2008/03/13 16:00
MGSH 131600Z 23003KT 9000 SCT090 29/22 Q1016 HZ
