2015/12/18 00:00
MGSJ 180000Z 00000KT 8000 SCT090 OVC200 28/24 Q1008 A2977 FU
