2008/08/03 02:00
MGSK 030200Z 00000KT 9999 FEW018 SCT200 28/25 Q1012
