2008/04/12 12:00
MGTG 121200Z 18003KT 3000 BR BKN012 BKN080 18/17 Q1022
