2009/04/06 14:00
MGTJ 061400Z 09006KT 9999 BKN010 23/22 Q1014 A2994
