2009/04/23 19:00
MGTM 231900Z 24006KT CAVOK 35/24 Q1007.8 FEW200
