2015/03/26 20:00
MGTT 262000Z 23015KT SCT013CB OVC100 27/24 Q1011 RMK CB3 TO E 
