2011/02/15 19:00
MHGT 151900Z 36014KT 9999 BKN028 23/15 Q1020 A3012 NOSIG
