2013/02/12 18:00
MHLO 121800Z 30004KT 9999 FEW026 29/23 Q1013 A2994 NOSIG
