2011/08/03 00:00
MHR0 030000Z 07015KT 9999 FEW019CB BKN200 30/24 Q1010 A2983 NOSIG
