2015/12/18 02:00
MHRO 180200Z 07010KT 9999 SCT020 27/22 Q1010 A2983 NOSIG
