2015/12/18 10:58
MHSC 181058Z AUTO 35009KT 9999 CLR 21/21 A2995 RMK AO2 SLP102 T02100208 $
