2008/12/07 14:00
MHTK 071400Z 00000KT 9999 FEW006 OVC014 21/20 Q1021
