2007/09/10 16:50
MIAW 101650Z 29012KT 6000 SKC 37/06 Q1002 A2961
