2015/03/03 04:00
MJKP 030400Z 33006KT 9999 FEW022 26/21 Q1017
