2013/01/22 14:00
MKHP 221400Z 36005KT 9999 FEW024 SCT040 27/19 Q1017
