2010/06/09 04:00
MKJ9 090400Z 11002KT 9999 VCTS FEW020CB SCT200 28/21 Q1016 
