2011/04/23 19:00
MKJD 231900Z 08019KT 9999 FEW024 30/18 Q1013
