2012/08/05 19:28
MKJO 051928Z 10020KT 3000 +SHRA FEW010 OVC012CB 25/22 Q1013
