2015/12/18 11:00
MKJP 181100Z 36006KT 9999 FEW022 26/22 Q1013
