2015/12/18 11:00
MKJS 181100Z 11004KT 9999 FEW022 25/22 Q1012
