2009/07/04 04:00
MKKS 040400Z 11004KT 9999 FEW022 BKN240 28/26 Q1016
