2009/05/28 05:00
MKLS 280500Z 12002KT 9999 FEW020CB 25/22 Q1012
