2012/11/24 16:00
MLRM 241600Z 31011KT 9999 FEW030 BKN130 24/18 A3000
