2015/12/18 10:43
MMAA 181043Z 33005KT 7SM SKC 25/23 A2982 RMK HZY
