2008/10/01 16:00
MMAL 011600Z 34007KT 300V030 CAVOK 33/17 Q1010 A2984
