2015/12/18 05:40
MMAN 180540Z 33003KT 7SM BKN100 09/M01 A3023 RMK SLP/// 5//// 9// 8/070
