2015/12/18 00:44
MMBT 180044Z 00000KT 8SM BKN030 27/22 A2986 RMK 8/500 HZY
