2015/12/18 01:45
MMCB 180145Z 00000KT 12SM SCT090 23/10 A2999 RMK 8/070
