2015/12/10 19:43
MMCG 101943Z 01004KT 8SM FEW020 OVC100 25/22 A2997 RMK 8/77/ MSGTX MMMD
