2013/04/04 14:00
MMCH 041400Z 00000KT 5000 FU FEW090 SCT300 29/21 Q1012
