2015/12/18 03:46
MMCN 180346Z 27003KT 10SM SKC 10/M02 A2994 RMK HZY
