2015/12/18 06:40
MMCP 180640Z 04010KT 6SM OVC004 25/24 A2988 RMK 8/6// HZY
