2015/12/18 04:40
MMCS 180440Z 00000KT 10SM SKC 02/M03 A3023 RMK HZY
