2015/12/17 21:44
MMCT 172144Z 18010KT 8SM BKN020 31/23 A2980 RMK 8/400 MSGTX MMMD
