2015/12/18 04:40
MMCU 180440Z 00000KT 10SM SKC 02/M11 A3027
