2015/12/18 10:47
MMCZ 181047Z 00000KT 7SM FEW015 21/21 A2992 RMK 8/500
