2015/12/18 02:41
MMDO 180241Z 34005KT 10SM BKN200 08/M11 A3023 RMK SLP202 52026 943 8/007 BINOVC ISOL AC
