2015/12/18 03:10
MMEP 180310Z 00000KT 7SM SCT090 13/13 A2998 RMK 8/030 BCFG N
