2015/12/18 11:00
MMES 181100Z 00000KT 7SM SKC 12/02 A3003 RMK 
