2012/08/20 22:00
MMFJ 202200Z 06006KT 040V120 5000 HZ SCT018 31/29 Q0998 A2948
