2015/12/18 10:45
MMGL 181045Z 00000KT 10SM SCT300 08/06 A3014 RMK 8/002
