2015/12/18 02:48
MMGM 180248Z 00000KT 5SM SKC 18/00 A2996 RMK HZY
