2015/12/18 07:40
MMHO 180740Z 00000KT 10SM SKC 05/M02 A3005 RMK HZY
