2015/12/18 03:50
MMIA 180350Z 36007KT 6SM SKC 22/18 A2997 RMK RTS
