2015/12/18 10:40
MMIO 181040Z 00000KT 10SM SCT200 05/00 A3034 RMK 8/008
