2015/12/18 11:00
MMIT 181100Z 35018KT 5SM HZ SCT015 BKN070 26/18 A2988 RMK 8/570 HZ 
