2011/08/13 18:00
MMJG 131800Z 00000KT 9999 BKN019 25/21 Q1011
