2011/09/08 19:00
MMJU 081900Z 13004KT 9999 SCT020CB SCT080 26/22 Q1012 RETSRA CB/SE/S/W
