2015/12/18 03:46
MMLM 180346Z 31010KT 10SM BKN220 16/08 A2996 RMK 8/004
