2015/12/18 10:46
MMLO 181046Z 06008KT 8SM SCT200 11/07 A3025 RMK 8/008
