2015/12/18 06:45
MMLP 180645Z 01010KT 10SM BKN220 19/11 A2999 RMK 8/008
