2015/12/18 02:43
MMLT 180243Z 34010KT 8SM SCT200 17/12 A3001 RMK SLP163 8/005
