2015/12/18 02:42
MMMA 180242Z 00000KT 8SM BKN200 13/08 A3012 RMK SLP/// 5//// 9// 8/008
