2015/12/18 10:45
MMMD 181045Z 00000KT 6SM BKN006 25/24 A2993 RMK 8/500 HZY
