2015/12/18 04:45
MMML 180445Z 35006KT 10SM SKC 07/M08 A3020
