2015/12/18 01:44
MMMM 180144Z 00000KT 6SM SKC 17/10 A3012 RMK ISOL CI
