2015/12/17 23:40
MMMV 172340Z 00000KT 12SM SCT200 16/M04 A3000 RMK 8/002
