2015/12/18 11:21
MMMX 181121Z 09005KT 3SM BR SKC 09/07 A3030 TMPO 1BR RMK HZY / TWR VSBY / CI
