2015/12/18 10:40
MMMY 181040Z 26004KT 10SM SKC 08/00 A3027
