2015/12/18 10:43
MMMZ 181043Z 06003KT 6SM FEW220 14/13 A2985 RMK 8/002 HZY
