2015/12/18 04:45
MMOX 180445Z 21005KT 7SM BKN020 OVC080 22/14 A3017 RMK 8/77/
