2015/12/18 03:43
MMPA 180343Z 30008KT 4SM BKN020 OVC030 19/13 A3015 RMK 8/8// BR HZ
