2008/10/29 21:00
MMPC 292100Z 06016KT 4000 DZ FEW014CB BKN016 26/25 Q1011 CBRA/NW TCURA/SW/W/NE
