2015/12/17 14:53
MMPE 171453Z 34007KT 10SM SKC 02/M09 A3021
