2015/12/18 00:40
MMPG 180040Z 00000KT 10SM SKC 15/M01 A3011 RMK
