2015/12/18 00:43
MMPN 180043Z 00000KT 12SM FEW035TCU SCT290 20/16 A3006 RMK 8/201 HZY
