2015/12/18 00:44
MMPQ 180044Z 00000KT 2SM BR BKN015 27/25 A2982 RMK 8/600 MSGTX MMMD
