2015/12/18 10:42
MMPR 181042Z 00000KT 12SM SCT250 18/17 A2984 RMK 8/002
