2015/12/18 00:45
MMPS 180045Z 00000KT 10SM SCT015 BKN070 BKN240 28/24 A2987 RMK 8/461 HZY
