2015/12/18 10:45
MMQT 181045Z 07009KT 7SM SCT100 11/08 A3031 RMK 8/030
