2015/12/18 04:41
MMSD 180441Z 29012KT 12SM BKN250 17/09 A2997 RMK 8/008
