2008/09/15 07:00
MMSJ 150700Z VRB04KT CAVOK 40/13 Q1005
