2015/12/18 10:40
MMSM 181040Z 00000KT 1/2SM FG BKN070 09/09 A3031 RMK /070 
