2015/12/18 10:40
MMSP 181040Z 07006KT 8SM BKN020 09/04 A3029 RMK 8/500
