2010/05/15 07:00
MMST 150700Z 00000KT 9999 SCT014 23/23 Q1018
