2015/12/18 10:40
MMTB 181040Z 33006KT 4SM SCT020 24/20 A3000 RMK 8/500 HZ 
