2015/12/18 03:44
MMTC 180344Z 00000KT 10SM SKC 13/M04 A3022
