2015/12/18 04:45
MMTG 180445Z 32015KT 5SM FEW090 SCT300 24/19 A2993 RMK 8/032 HZY
