2015/12/18 10:40
MMTJ 181040Z 00000KT 6SM SKC 08/01 A3013 RMK HZY
