2015/12/18 10:41
MMTO 181041Z 11004KT 2SM BR HZ SKC 01/M01 A3033 RMK VRB
