2015/12/18 10:44
MMTP 181044Z 00000KT 10SM BKN100 25/24 A2985 RMK 8/060
