2015/12/18 10:46
MMUN 181046Z 00000KT 7SM SCT015 SCT300 23/23 A2993 RMK 8/508 AC
