2015/12/18 11:02
MMVA 181102Z 31005KT 4SM -DZ SCT010 BKN060 26/26 A2995 RMK 8/620 VRBL CONDS
