2015/12/18 04:41
MMVR 180441Z 35015KT 7SM OVC070 24/18 A3000 RMK 8/07/ HZY
