2015/12/18 10:44
MMZC 181044Z 00000KT 8SM SKC 01/M06 A3029
