2015/12/18 02:45
MMZH 180245Z 00000KT 8SM SKC 26/23 A2981 RMK SLP091 52021 922
