2015/12/18 02:40
MMZO 180240Z 02005KT 15SM SKC 26/23 A2976 RMK SLP/// 5//// 9//
