2015/12/18 11:00
MMZP 181100Z 00000KT 7SM SCT200 11/07 A3004 RMK 8/008 HZY 
