2010/07/15 17:00
MNBK 151700Z 00000KT 7000 VCRA BKN017 SCT070 25/25 Q1012 RA NE E SE S
