2015/12/17 23:00
MNCH 172300Z 23004KT 9999 FEW025 SCT300 30/25 Q1006
