2007/06/18 16:00
MNCP 181600Z 09010KT 7000 BKN016 30/26 Q1012 HZ
