2008/06/30 16:00
MNJC 301600Z 09006KT 9999 SCT025 SCT090 28/25 Q1013
