2009/12/24 17:00
MNJF 241700Z 00000KT 9999 SCT019 25/17 Q1013
