2015/11/07 15:00
MNLB 071500Z 02004KT 9999 BKN016 218/26 Q1012
