2015/12/18 11:00
MNMG 181100Z 00000KT 9999 FEW020 24/22 Q1009 A2980 NOSIG
