2007/05/09 12:00
MNML 091200Z 32004KT 7000 VCRA SCT016 SCT070 24/23 Q1012 RA/NE/E/NW
