2010/03/15 22:00
MNNU 152200Z 09004KT 9999 FEW025 SCT300 35/19 Q1009
