2008/01/07 17:00
MNOC 071700Z 04016KT 8000 BKN016 28/24 Q1015 HZ
