2009/03/05 20:00
MNPB 052000Z 06020KT 9999 SCT015 24/15 A3018
