2015/12/17 23:00
MNPC 172300Z 09004KT 7000 VCRA SCT016TCU 28/26 Q1007 TCURA/NE/E
