2007/08/01 20:00
MNPL 012000Z 08008KT 8000 BKN016 SCT100 29/27 Q1008 HZ
