2007/12/21 16:00
MNPS 211600Z 30008KT 8000 BKN016 27/24 Q1013 HZ
