2015/12/17 23:00
MNRS 172300Z 06004KT CAVOK 30/22 Q1006
