2013/10/28 15:00
MNSR 281500Z 00000KT 9000 VCRA FEW018CB BKN018 27/24 Q1011 CBRA/NE/E
