2009/06/13 20:00
MOHO 132000Z 00000KT 7000 RA SCT015TCU OVC050 25/23 Q1013 RWY WET
