2011/03/17 17:00
MP10 171700Z 04012G22KT 9999 SCT018 32/17 Q1013 NOSIG
