2011/12/08 00:00
MP9A 080000Z 34004KT 9999 SCT020 22/19 Q1010
