2010/11/14 19:00
MPBV 141900Z 03006KT 9999 SCT020 SCT060 26/19 A2992  
