2015/05/29 11:00
MPCH 291100Z 24004KT 9999 SCT030 22/22 Q1014
