2015/12/18 00:00
MPEJ 180000Z 02006KT 9000 SCT018 SCT080 28/25 Q1007 RMK HZ ALQDS
