2015/12/18 11:00
MPMG 181100Z 32002KT 9000 FEW018 26/25 Q1008 NOSIG RMK HZ ALQDS
