2009/05/05 19:30
MPMP 051930Z 00000KT 6000 -TSRA FEW010 SCT015CB BKN080 25/23 Q1011 RWY WET
