2015/12/18 11:00
MPPA 181100Z 01005KT 9000 FEW020 24/21 Q1009 RMK HZ ALQDS
