2008/07/19 18:21
MPPV 191821Z 27005KT 9999SCT030 BKN250 25/19 A2994 RMK HZ ARND
