2010/04/10 20:00
MPRV 102000Z 08010G20KT 9999 SCT020 BKN250 27/18 A2997 RMK RN DST NE NOSIG
