2015/07/07 13:00
MPSA 071300Z 00000KT 9000 FEW015 BKN080 26/24 Q1013 
