2015/12/18 11:00
MPTO 181100Z 29003KT 9000 FEW020 25/25 Q1007 NOSIG
