2011/10/14 01:00
MPTT 140100Z 09006KT 8000 TS SCT025CB 27/24 Q1011 A2985 RMK
