2011/08/21 14:00
MR0C 211400Z 00000KT CAVOK 24/18 A3000 RMK BKN250 NOSIG
