2009/02/09 23:00
MR0V 092300Z 06016KT 9999 SCT025 BKN250 22/14 A2996
