2007/11/08 14:54
MRFD 081454Z 20005KT 10SM BKN250 06/M03 A2991 RMK AO2 SLP133 T00561028 50000 
