2011/02/20 22:00
MRKM 202200Z 03003KT 9999 OVC028 29/22 A2986 RMK RA TCU DST S HZ ARND
