2015/12/18 06:00
MRLB 180600Z 04004KT CAVOK 24/22 A2980 NOSIG
