2015/12/17 18:00
MRLM 171800Z 14010KT 9999 SCT030 BKN130 28/23 A2982
