2014/12/04 15:00
MRLN 041500Z 30004KT 9999 BKN020 27/23 A2982
