2007/05/05 20:47
MRLR 052047Z 31006KT 9000 RA FEW020TCU SCT035 BKN250 31/24 A2969
