2008/09/09 14:27
MRLV 091427Z 33003KT CAVOK 24/19 A3001 RMK TRACE CU BKN250 DU 09 HZ LGT ARND CB DST S
