2015/11/05 17:00
MRML 051700Z 09005KT 9999 FEW040 SCT260 30/23 A2987
