2015/12/18 11:00
MROC 181100Z 04008KT CAVOK 20/15 A2994 NOSIG
