2011/05/11 15:00
MRPM 111500Z 11010KT 9999 SCT015 BKN250 26/19 A2997 RMK RA N GUST 16KT NOSIG
