2009/12/17 14:00
MRPP 171400Z 12008KT 8000 FEW024 27/20 Q1016 A3001=3D 
