2015/12/18 00:00
MRPV 180000Z 07010KT 9999 FEW015 SCT100 23/18 A2990 NOSIG
