2008/07/31 01:50
MRWA 310150Z VRB04KT 30/26 Q0996
