2011/08/23 09:00
MSBH 230900Z 00000KT 9999 FEW016CB SCT018 24/22 Q1006 CB/S/SE/
