2015/12/14 03:00
MSCY 140300Z 00000KT 9999 FEW016 23/22 Q1014
