2008/11/16 15:00
MSGJ 161500Z 00000KT CAVOK 29/24 Q1014 FEW200
