2015/12/17 19:50
MSLU 171950Z 14004KT CAVOK 31/24 Q1005 A2968
