2009/04/16 05:00
MSPB 160500Z 00000KT CAVOK 24/23 Q1013 A2991
