2015/12/17 22:50
MSSA 172250Z 08006KT 9999 FEW037 28/19 Q1012 A2990
