2009/03/15 04:00
MSSJ 150400Z 00000KT CAVOK 25/23 Q1014 A2994 FEW080
