2015/12/18 04:50
MSSS 180450Z 09005KT 9999 BKN030 23/22 Q1014 A2994
