2014/01/31 00:00
MTLB 010000Z 07015KT CAVOK 28/14 A2976
