2010/03/13 11:00
MTLC 131100Z 24008KT 7000 RA BKN022 OVC080 26/22 Q1012 A2989 MHLM 131100Z 36008KT 9999 FEW035 BKN070 25/22 Q1012 A2989 NOSIG
