2015/07/06 04:00
MTNN 060400Z 10010KT SCT016 28/23 A3018
