2009/01/08 16:00
MTPB 081600Z 36004KT 9000 SCT018 BKN200 27/23 Q1015 A2997 VIS RED/HZ
