2008/05/22 04:00
MTPG 220400Z 00000KT 9999 TS FEW018 FEW025CB BKN080 27/26 Q1009 CB/TS/LTNG SE/WSW
