2008/03/05 14:00
MTPO 051400Z 00000KT 9000 FEW020 BKN300 27/21 Q1014 HZ ALQDS
