2015/12/18 00:00
MTPP 180000Z 10015G25KT 9000 FEW020 SCT045 27/21 Q1012 A2990
