2014/10/11 10:53
MTRO 111053Z 00000KT 14SM SCT016 BKN120 OVC300 26/25 A2989 
