2008/10/20 19:00
MTRT 201900Z 24006KT 9999 SCT016 SCT020 29/25 Q1014 REDZ PCPN W SANTIGUITO EN ACTIVIDAD
