2008/10/02 06:00
MTTK 020600Z 00000KT 9999 SCT012 BKN090 23/23 Q1015
