2014/09/24 11:54
MUBA 241154Z 00000KT 9999 SCT020 BKN070 26/24 Q1014
