2014/09/24 11:50
MUBY 241150Z VRB04KT 9000 FEW020 24/23 Q1014
