2008/05/18 10:52
MUCA 181052Z 27002KT 9000 FEW020 19/18 Q1017
