2015/12/18 10:50
MUCC 181050Z 12002KT 9000 FEW020 24/23 Q1014
