2015/12/18 10:58
MUCF 181058Z AUTO 09004KT 21/21 Q1015
