2015/12/18 11:05
MUCL 181105Z AUTO 10003KT 25/22 Q1014
