2015/12/18 10:50
MUCM 181050Z 09005KT 060V120 0100 FG VV/// 22/21 Q1016
