2015/12/18 10:52
MUCU 181052Z 35005KT 9000 FEW020 23/21 Q1014
