2007/05/30 20:00
MUEN 302000Z 23002KT 9999 LL LL FEW021 FEW023CB BKN130 23/19 Q1018 LL/ 
