2015/12/18 10:56
MUGM 181056Z 35007KT 9999 FEW030 FEW070 23/21 A2996 RMK SLP147 T02330211
