2015/06/30 08:53
MUGT 300853Z 00000KT 9000 SCT025 25/21 Q1018
