2015/12/18 10:55
MUHA 181055Z VRB02KT 7000 SKC 20/19 Q1015
