2014/09/24 11:53
MUMO 241153Z 25002KT 9000 FEW020 BKN200 25/23 Q1014
