2015/10/09 15:50
MUMZ 091550Z 09005KT 010V180 9000 FEW020 30/24 Q1016
