2015/06/30 09:05
MUNG 300905Z AUTO 16001KT 25/23 Q1018
