2013/09/22 17:00
MUNN 221700Z 16005KT 9999 FEW020TCU BKN200 32/22 A2987
