2014/09/24 11:53
MUPB 241153Z 12002KT 9000 FEW025 23/21 Q1014
