2014/09/24 11:50
MUSA 241150Z 09002KT 9000 SKC 24/21 Q1014
