2015/12/18 10:52
MUSC 181052Z 12004KT 2000 0800E BCFG BR FEW022 22/21 Q1016
