2008/11/08 12:30
MUTD 081230Z 07007KT 8000 OVC020 22/20 Q1010 
