2008/01/08 12:00
MUTR 081200Z METAR FMMI 081200Z 27008KT 200V320 9999 SCT020CB 30/18 Q1013 NOSIG
