2015/12/18 10:58
MUVR 181058Z 17002KT 0700 MIFG NSC 18/17 Q1015
