2014/09/24 11:50
MUVT 241150Z 00000KT 9000 FEW020 25/24 Q1013
