2014/04/08 22:00
MWC4 082200Z 17007KT 120V240 9999 SCT018 29/26 Q1012
