2012/10/11 13:00
MWC6 111300Z 10004KT 9999 FEW016CB SCT100 26/24 Q1015 RESHRA
