2015/12/18 11:00
MWCR 181100Z 09004KT 9999 FEW016 25/25 Q1013 NOSIG
