2008/12/10 04:00
MWWM 100400Z 12009KT 100V160 9999 FEW023TCU BKN053 28/24 Q1007 TEMPO -SHRA VCSH
