2011/05/01 09:00
MXBX 010900Z 11003KT 9999 FEW018 25/23 A2985 NOSIG
