2012/06/14 14:59
MYEG 141459Z AUTO 29009KT 7SM 26/24 A2999 RMK AO2 PWINO TSNO 
