2008/04/05 15:00
MYFH 051500Z 14012KT 9999 FEW025 27/19 A3011
