2010/10/01 09:00
MYNB 010900Z 21005KT 9999 BKN018 BKN045 27/25 A2971
