2015/12/18 11:00
MYNN 181100Z 15009KT 9999 FEW018 25/23 A3000
