2009/05/21 16:00
MYPV 211600Z 12012KT 9000 SCT015 BKN060 28/24 A2996
