2015/12/18 11:00
MZBZ 181100Z 00000KT 9999 FEW003 24/23 A2989 Q1012 NOSIG
