2012/07/02 21:30
MZMB 022130Z 08010KT 5000 TSRA FEW012CB BKN018 BKN280 29/25 A2994 Q1014 NOSIG
