2007/07/24 22:00
NBJG 242200Z 36004KT 9999 BKN018 23/19 Q1010
