2013/07/31 15:00
NCAG 311500Z 12005KT 9999 SCT018 BKN040 20/19 Q1014
