2015/12/18 11:00
NCAI 181100Z AUTO 07005KT //// ///// 25/25 Q1011
