2013/11/16 02:00
NCGR 160200Z 08006KT 9999 SCT018 28/23 Q1011
