2015/11/23 17:00
NCMH 231700Z AUTO 11007KT //// ////// 29/26 Q1007
