2015/12/18 09:00
NCPY 180900Z AUTO 10002KT //// ///// 29/25 Q1007
