2015/12/18 11:00
NCRG 181100Z 07004KT 9999 BKN016 26/25 Q1012 RESHRA
