2011/12/23 18:00
NDAB 231800Z 09006KT E 9999 BKN020 27/24 Q1017
