2013/11/24 06:00
NDPP 240600Z 21510KT 9999 FEW016 23/22 Q1012 METAR MDST 240600Z 00000KT 9999 FEW014 19/18 Q1013 NOSIG METAR MDPC 240600Z 00000KT 9999 FEW018 24/22 Q1012 NOSIG METAR MDSD 240600Z 01004KT 9999 FEW016 22/21 Q1012 NOSIG 
