2010/08/28 18:00
NEJN 281800Z 34004KT CAVOK 33/22 Q1003 NOSIG
