2010/07/16 01:00
NEPA 160100Z 00000KT CAVOK 32/05 Q1000
