2012/02/03 10:25
NFBN 031025Z 34010KT 10KM -RA SCT018 BKN043 OVC100 25/24 Q1007 NOSIG RMK SPECI CONDX CEASED
