2014/01/10 00:00
NFFO 100000Z 28015KT 9999 SCT017 BKN110 29/26 Q1003
