2011/06/10 21:00
NFNE 102100Z 12011KT 40KM BKN025 27/23 Q1013
