2015/04/14 00:00
NFNL 140000Z 27010KT 40KM SCT027 BKN090 31/24 Q1012
