2014/08/19 21:00
NFNM 192100Z 12012KT 40KM SCT025 SCT048 26/22 Q1016
