2015/10/30 20:00
NFNR 302000Z AUTO 16007KT //// 28/23 Q1013
