2013/12/11 18:00
NFTC 111800Z 34009KT 1000 +RA BKN006 OVC090 26/23 Q1006
