2015/12/18 11:00
NFTF 181100Z 00000KT 9999 FEW016 25/23 Q1010
