2015/12/18 11:00
NGFU 181100Z VRB01KT 9999 -SH SCT018CB OVC100 27/26 Q1007
