2007/12/31 23:00
NGRT 312300Z 18006KT 9999 SCT022 30/21 Q1013 TCU DIST E VOL. SANTIAGUITO EN ACTIVIDAD
