2008/11/11 19:00
NGSJ 111900Z 19010KT 9000 SKC 32/24 Q1012 TCU NW VIS RED/HZ 
