2014/01/07 02:00
NGUF 070200Z 26008KT 9999 SCT019TCU BKN110 BKN310 30/25 Q1005
