2010/06/15 15:00
NHLM 151500Z 18006KT 9999 FEW030 BKN250 32/24 Q1013 A2991 NOSIG
