2014/12/29 12:00
NHTG 291200Z 10004KT 9999 FEW008 BKN024 18/18 Q1020 A3012 NOSIG
