2015/12/18 03:00
NIUE 180300Z 05009KT 9999 SCT018 BKN110 29/21 Q1007
