2011/04/21 10:00
NJHS 211000Z 14004KT 9999 FEW024 SCT220 24/18 Q1014
