2007/08/05 21:50
NKCC 052150Z 13008KT CAVOK 23/02 Q1009 A2980 861.1
