2010/07/17 08:00
NKJP 170800Z 36001KT 9999 VCSH VCTS FEW020 SCT024CB BKN056 27/22 Q1012
