2010/09/17 00:37
NLWF 170037Z 07006G12KT 040V090 9999 FEW012 SCT020 30/25 Q1012
