2012/01/25 05:00
NLWW 250500Z AUTO 35004KT 310V030 9999 FEW023/// SCT110/// BKN190/// 29/24 Q1008
