2012/06/18 09:00
NMMG 180900Z 00000KT 8000 SCT020 SCT070 24/23 Q1009 A2982 BR 
