2015/06/08 15:00
NNCH 081500Z 17004KT 9999 BKN025TCU SCT090 26/24 Q1013 TCU/N/NE
