2010/09/05 15:00
NNRS 051500Z 00000KT 9999 FEW012CB SCT090 26/24 Q1011 CB/NE
