2008/03/18 00:30
NNVW 180030Z 09012KT 9999 VCSH SCT018 BKN040 OVC100 27/23 Q1008
