2013/03/22 06:45
NR01 220645Z 10004KT 1500 BR SCT006 09/09 Q1016 M3
