2013/03/31 06:40
NR02 310640Z 22004KT 4000 BR SCT006 BKN200 12/12 Q1017 B3
