2008/08/18 22:00
NRKN 182200Z 02007KT 9999 FEW028 SCT270 29/24 A2980 CB RN S W
