2010/02/27 18:00
NRLB 271800Z 29011KT 9999 SCT035 SCT250 34/21 A2983 MRLM 271800Z 06005KT 9999 SCT030 SCT110 29/24 A2990 RMK HZ ARND
