2009/06/16 13:00
NRLM 161300Z 20005KT CAVOK 26/23 A2988 RMK CB DST NE TRACE CU SCT120 BKN270 HZ ARND
