2011/06/06 16:00
NRPV 061600Z 28004KT 8000 RA VCFG FEW010 BKN020 22/18 A3004 RMK TEMPO 5000 RA BR BKN015
