2015/12/18 11:00
NSFA 181100Z 12004KT 9999 FEW020CB SCT022 BKN140 27/24 Q1009 
