2015/12/18 10:52
NSTU 181052Z 00000KT 10SM FEW018 SCT040 BKN100 27/25 A2978 RMK SHRAB01E49 SLP086 T02690252 403120261
