2009/04/07 05:00
NTCA 070500Z 09014KT 9999 SCT020 26/22 Q1012
