2015/02/22 23:00
NTFL 222300Z 10005KT 9999 SCT010 BKN110 28/24 Q1006
