2015/07/20 05:00
NTGA 200500Z 23008KT 9999 SCT018 BKN300 29/24 Q1009 
