2007/07/04 21:00
NUEN 042100Z 36007KT 6000 SCT018 FEW020CB OVC110 18/18 Q1021
