2007/08/06 00:30
NVAW 060030Z 20008KT 9999 SCT025 26/21 Q1013
