2015/12/17 03:00
NVSC 170300Z 00000KT 9999 BKN018 FEW025CB OVC040 30/25 Q1004 RMK RESH
