2015/12/04 06:00
NVSG 040600Z VRB02KT 9999 SCT020 BKN040 28/25 Q1010 RMK RESH
