2015/12/01 21:00
NVSL 012100Z 11010KT 9999 BKN018 25/23 Q1012 RMK RESH
