2013/11/30 03:30
NVVX 300330Z 30015KT 9999 BKN073 08/05 Q1013 R30/190065 NOSIG 
