2007/09/06 21:00
NWCB 062100Z 00000KT 9999 FEW018 31/26 Q1014
