2009/08/03 11:50
NWCR 031150Z 10006KT 9999 FEW018 29/25 Q1015 NOSIG
