2010/10/01 05:30
NWWD 010530Z AUTO 05009KT 020V080 9999NDV NCD 30/18 Q1014
