2014/06/11 06:00
NWWE 110600Z AUTO 14002KT 9999 SCT036/// BKN110/// BKN150/// 21/18 Q1012
