2010/10/01 08:00
NWWL 010800Z AUTO 12007KT 090V170 9999NDV FEW019/// OVC240/// 25/21 Q1015
