2010/10/01 08:00
NWWM 010800Z AUTO 11013KT 9999NDV NCD 25/22 Q1016
