2010/10/01 08:00
NWWU 010800Z AUTO 12008KT 090V160 9999NDV FEW020/// 26/22 Q1015
