2014/09/17 04:34
NWWV 170434Z AUTO VRB02KT 8000 BKN024/// BKN029/// 25/21 Q1012
