2015/12/18 11:30
NWWW 181130Z AUTO 14008KT 9999 FEW040 OVC150 23/18 Q1009
