2007/07/13 02:00
NYAH 130200Z 00000KT CAVOK 27/11 Q0999 A2952
