2007/07/06 11:50
NYAW 061150Z 28016KT 7000 SKC 45/10 Q0994 A2938
