2009/11/11 12:50
NYCJ 111250Z 00000KT 9999 FEW040 17/02 Q1016 A3001
