2007/11/24 15:00
NYEF 241500Z 10008KT 9999 SCT018 26/17 A3017
