2015/01/05 12:00
NYGF 051200Z 00000KT 9999 FEW018 SCT250 23/22 A3026
