2007/09/21 04:00
NYII 210400Z 28006KT 7000 NSC 22/10 Q1019 A3010 883.7
