2015/12/18 08:55
NZCM 180855Z 32009KT 9999 FEW030 FEW080 BKN200 M02/M07 A2885 RMK SLP772 SN DSNT SE
