2013/11/29 23:34
NZIR 292334Z 31016KT 9999 FEW025 SCT140 BKN200 M03/M07 A2906 RMK ACSL GRID NE GRID12016KT SDG/HDG LAST
