2015/12/17 08:00
NZOH 170800Z 12010KT 35KM FEW020 SCT040 13/07 Q1009 NOSIG
