2015/12/05 09:03
NZPG 050903Z 06006KT 9999 FEW080 SCT120 BKN180 M03/M10 A2912 RMK GRID23006KT SDG/HDG LAST
