2015/12/07 06:55
NZTB 070655Z 15008KT 9999 SCT060 BKN090 00/M17 A2906 RMK BKN VIS MIN 9999NE WIND THR27T 04009KT GRID31008KT SDG/HDG
