2015/12/18 10:55
NZWD 181055Z 31011KT 9999 FEW008 FEW110 BKN200 M04/M06 A2886 RMK SLP773 GRID12011KT SDG/HDG
