2015/12/18 11:30
NZWN 181130Z AUTO 07003KT 9999 NCD 10/08 Q1010 NOSIG
