2015/12/16 19:00
NZWP 161900Z 28003KT 210V340 20KM VCSH SCT025 BKN070 14/11 Q1009 TEMPO 6000 SHRA FEW020TCU
