2008/02/24 15:00
O0SA 241500Z 16003KT CAVOK 23/11 Q1018 NOSIG
