2007/08/03 05:50
OA34 030550Z 32006KT 9999 FEW100 31/M02 Q1014 A2995 NOSIG
