2011/03/19 08:30
OAAW 190830Z 00000KT CAVOK 24/03 Q1013
