2007/05/20 08:50
OABK 200850Z 17010KT 3000 DU SKC 36/15 Q1006 A2972
