2007/08/21 02:50
OABQ 210250Z 00000KT 5000 HZ SKC 30/26 Q1002 A2959
