2007/10/03 11:00
OACZ 031100Z 29010KT CAVOK 29/M02 Q1019 A3011 869.6
