2010/08/24 02:00
OADF 240200Z 15005KT 5000 HZ SKC 29/25 Q0999 NOSIG
