2011/01/05 23:00
OADL 052300Z 00000KT 8000 SKC 17/15 Q1013 NOSIG
