2012/10/14 04:50
OAFZ 140450Z VRB02KT 9999 BKN250 18/00 Q1025 BLU/
