2009/01/23 09:00
OAGG 230900Z 02004KT 9999 SCT015 BKN070 07/05 Q1030 A3042
