2015/12/18 10:55
OAHR 181055Z 30005KT CAVOK 10/M05 Q1023 RMK SKC VIS MIN 9999 BLU
