2015/12/18 10:50
OAKB 181050Z 07006KT CAVOK 09/M10 Q1021 NOSIG RMK BLU BLU
