2008/02/22 13:50
OAKK 221350Z 35006KT CAVOK 10/M14 Q1023 A3024 828.8 NOSIG
