2014/12/16 00:50
OAKN 160050Z 28003KT 210V310 CAVOK M04/M19 Q1024 NOSIG RMK BLU BLU
