2011/04/10 17:00
OAMA 101700Z 23006KT CAVOK 28/M05 Q1011 NOSIG
