2007/06/14 21:50
OAMC 142150Z 07004KT CAVOK 23/02 Q1014 A2994
