2015/12/18 10:50
OAMS 181050Z 29002KT 8000 BKN180 07/02 Q1027 BLU BLU
