2010/03/17 07:00
OANC 170700Z VRB02KT 7000 OVC015 11/09 Q1025
