2009/12/01 10:00
OARK 011000Z 03006KT CAVOK 20/04 Q1022 NOSIG
