2008/01/19 14:00
OARY 191400Z 14006KT 8000 SCT080 BKN200 18/00 Q1019 NOSIG
