2009/08/07 10:50
OASG 071050Z 28020KT 8000 SKC 41/04 Q1006 A2971
