2007/06/10 07:50
OASJ 100750Z 31008KT 9000 SCT045 30/03 Q1022 A3018
