2010/09/04 09:50
OASR 040950Z 04008KT CAVOK 33/M08 Q1015 A2997
