2007/07/14 04:50
OATU 140450Z 10010KT CAVOK 26/13 Q1013 A2992
