2013/10/13 09:50
OAUZ 130950Z 36007KT 9999 FEW150 24/02 Q1016 BLU/
