2009/06/09 04:00
OBBB 090400Z 33004KT CAVOK 33/19 Q1006 NOSIG
