2011/11/10 19:00
OBBC 101900Z 37009KT 9999 FEW030 20/10 Q1018 NOSIG
