2015/12/18 11:00
OBBI 181100Z 11008KT 8000 NSC 20/13 Q1019 NOSIG
