2011/10/24 14:00
OBBN 241400Z 34007KT CAVOK28/17 Q1013 NOSIG
