2012/02/14 00:00
OBLI 140000Z 33007KT 9999 FEW030 BKN140 15/10 Q1018 NOSIG
