2008/01/23 10:00
OBNP 231000Z 20010KT 170V240 9999 SCT025 25/17 Q1013 NOSIG 01
