2011/12/22 06:00
OBWI 220600Z 30007KT 6000 SKC 20/15 Q1023 NOSIG
