2009/07/24 16:00
ODDF 241600Z 35007KT 8000 SKC 39/07 Q0996 NOSIG
