2011/04/21 16:00
ODGS 211600Z 34011KT 2500 DU BKN040 26/18 Q1008
