2011/04/12 09:00
ODMA 120900Z 25008KT CAVOK 29/M08 Q1011 NOSIG
