2011/04/17 16:00
ODRK 171600Z 29005KT 9999 FEW040 BKN080 17/11 Q1020 NOSIG
