2012/09/28 09:00
OEAA 280900Z 30012KT CAVOK 39/12 Q1011 A2985 NOSIG
