2012/09/25 00:00
OEAD 250000Z 24003KT 180V290 CAVOK 31/21 Q1004 A2966
