2015/12/18 11:00
OEAH 181100Z 16004KT CAVOK 23/00 Q1018 NOSIG
