2009/10/17 02:00
OEAL 170200Z 00000KT CAVOK 11/M04 Q1026 NOSIG
