2015/12/18 11:00
OEAO 181100Z 28004KT CAVOK 20/M02 Q1020
