2008/10/31 01:00
OEAS 310100Z 00000KT CAVOK 11/10 Q1023 NOSIG
