2009/11/19 22:00
OEAZ 192200Z 35003KT CAVOK 15/08 Q1026 NOSIG
