2015/12/18 11:00
OEBA 181100Z 22008KT 9999 SCT030 22/15 Q1022 NOSIG
