2011/02/22 07:00
OEBF 220700Z 33007KT 3500 DU SKC 22/03 Q1018 NOSIG
