2010/10/03 05:00
OEBR 030500Z 28005KT 5000 HZ SKCN30/25 Q1010 NOSIG=5 METAR OTBD 030500Z 02006KT 350V060 8000 NSC 33/27 Q1012 NOSIG
