2011/03/07 17:00
OECH 071700Z 32004KT 9000 TSRA FEW028CB BKN030 17/16 Q1018 NOSIG
