2012/04/09 15:00
OEDB 091500Z 09012KT 8000 NSC30/09 Q1008 NOSIG
