2015/12/18 11:00
OEDF 181100Z 15007KT CAVOK 23/06 Q1018 NOSIG
