2014/05/06 22:00
OEDL 062200Z 24005KT CAVOK 24/19 Q1007 NOSIG
