2015/12/18 11:00
OEDM 181100Z 27005KT 9999 SCT040 20/02 Q1019
