2009/09/05 13:00
OEDO 051300Z 36008KT CAVOK 42/00 Q1008
