2015/12/18 11:00
OEDR 181100Z 15006KT CAVOK 22/09 Q1017 NOSIG
