2011/03/09 17:00
OEDW 091700Z 33005KT CAVOK 22/07 Q1016 NOSIG
