2011/05/06 20:00
OEDX 062000Z 17003KT CAVOK 28/08 Q1008 NOSIG
