2012/07/10 19:00
OEFJ 101900Z 01004KT 230V140 7000 NSC 33/29 Q0996 A2942
