2015/12/18 11:00
OEGT 181100Z 03004KT CAVOK 14/05 Q1020 NOSIG
