2009/10/24 03:00
OEHK 240300Z 13004KT 8000 SKC 19/01 Q1016 NOSIG
