2015/12/18 11:00
OEHL 181100Z 19004KT CAVOK 17/01 Q1020 NOSIG
