2009/10/02 16:00
OEID 021600Z 11008KT CAVOK 34/07 Q1011
