2008/02/26 16:50
OEIE 261650Z 02016KT 9999 R11/P2000N R29/P2000N VCSHRA SCT025 FEW035CB BKN080 11/03 Q1016 A3002
