2015/12/18 11:00
OEJN 181100Z 32011KT 9999 FEW040 SCT100 27/13 Q1015 NOSIG
