2009/09/25 22:00
OEJO 252200Z 28003KT CAVOK 28/27 Q1008 NOSIG
