2015/12/18 11:00
OEKJ 181100Z 21012KT CAVOK 26/04 Q1021
