2015/12/18 11:00
OEKK 181100Z 26013KT CAVOK 21/12 Q1018 NOSIG
