2015/12/18 11:00
OEKM 181100Z 21006KT 9999 FEW022 21/09 Q1025 NOSIG
