2011/04/04 01:00
OELK 040100Z 00000KT CAVOK 26/20 Q1008
