2009/10/04 12:00
OELM 041200Z 02008KT CAVOK 33/02 Q1016
