2009/10/13 13:00
OEMC 131300Z 35014KT CAVOK 35/08 Q1011 NOSIG
