2011/06/14 06:00
OEMH 140600Z 29006KT CAVOK 30/15 Q1012
