2015/12/18 11:00
OEMK 181100Z 00000KT 9999 BKN040 28/17 Q1015
