2013/04/27 21:00
OEMM 272100Z 00000KT CAVOK 22/00 Q1013 NOSIG
