2014/10/09 11:00
OEMN 091100Z 27006KT 9000 FEW040 36/22 Q1011
