2010/09/04 23:00
OEMO 042300Z 00000KT CAVOK 32/21 Q1003
