2009/10/02 18:00
OENA 021800Z 36006KT CAVOK 32/12 Q1012
