2009/10/02 18:00
OEND 021800Z 00000KT CAVOK 28/M02 Q1019 NOSIG
