2009/11/02 01:00
OENH 020100Z 00000KT CAVOK 17/00 Q1017 NOSIG
