2013/03/17 13:00
OENI 171300Z 33002KT 8000 NSC 24/07 Q1008 NOSIG
