2009/10/09 17:00
OEOG 091700Z 03010KT 7000 SKC 28/M02 Q1016 NOSIG
