2015/12/18 11:00
OEPA 181100Z 33008KT CAVOK 21/07 Q1017 NOSIG
