2009/10/21 18:00
OEPN 211800Z 33004KT CAVOK 30/25 Q1013 NOSIG
