2009/08/09 23:00
OERC 092300Z 00000KT CAVOK 33/09 Q1003 NOSIG
