2015/12/18 11:00
OERF 181100Z 30015KT CAVOK 16/06 Q1018
