2009/06/18 22:00
OERG 182200Z 00000KT 4000 SKC 28/01 Q1007
