2015/12/18 11:00
OERK 181100Z 26007KT CAVOK 24/05 Q1019 NOSIG
