2015/12/18 11:00
OERR 181100Z 35010KT 3000 BR SCT030 11/11 Q1020 NOSIG
