2009/09/21 14:00
OERV 211400Z 05005KT 5000 DU SKC 37/08 Q1013 NOSIG
