2015/12/18 10:34
OERY 181034Z VRB03KT 4400 HZ FEW170/// SCT210/// 25/05 Q1019
