2007/07/16 19:00
OESJ 161900Z 22006KT CAVOK 34/23 Q0997
