2015/12/18 10:00
OESK 181000Z 32008KT CAVOK 15/04 Q1021 NOSIG
