2015/12/18 11:00
OETB 181100Z 06003KT CAVOK 17/01 Q1019 NOSIG
