2015/12/18 11:00
OETF 181100Z 20013G23KT 9999 FEW030 25/10 Q1021 NOSIG
