2011/03/02 06:00
OETG 020600Z 09006KT CAVOK 15/M04 Q1021 NOSIG
