2015/12/18 11:00
OETR 181100Z 00000KT CAVOK 11/08 Q1020 NOSIG
