2009/09/10 04:00
OEVL 100400Z 34006KT CAVOK 21/11 Q1016 NOSIG
