2009/09/18 04:00
OEVM 180400Z 18002KT CAVOK 19/07 Q1024 NOSIG
