2011/03/31 21:00
OEWB 312100Z 33003KT CAVOK 23/21 Q1011
