2015/12/18 11:00
OEWD 181100Z 13012KT CAVOK 26/12 Q1017 NOSIG
