2012/02/08 12:00
OEWF 081200Z 13011KT CAVOK 22/06 Q1017 NOSIG
