2015/12/18 11:00
OEWJ 181100Z 31011KT 9999 FEW040 24/14 Q1018 NOSIG
