2009/09/05 06:00
OEWP 050600Z 29006KT CAVOK 29/26 Q1009
