2011/06/20 23:00
OEWR 202300Z 33018KT CAVOK 38/16 Q0994 NOSIG
