2009/07/20 21:00
OEYO 202100Z 28008KT CAVOK 32/22 Q1003 NOSIG
