2009/04/27 09:00
OEZA 270900Z 09012KT 7000 NSC 35/M01 Q1012 NOSIG
