2012/01/13 03:00
OEZF 130300Z 28007KT 8000 SCT040 BKN090 17/12 Q1015 NOSIG
