2009/08/28 19:00
OEZK 281900Z 28002KT CAVOK 34/22 Q1010
