2014/02/24 02:00
OEZR 240200Z 10006KT 8000 FEW040 16/13 Q1013 NOSIG
