2011/03/07 00:00
OGDR 070000Z 23006KT CAVOK 14/09 Q1018 NOSIG
