2011/01/01 18:00
OGKJ 011800Z 07008KT CAVOK 13/M01 Q1021
