2008/10/09 06:00
OGSB 090600Z 12010KT 9999 -TSSHRA OVC017CB 14/13 Q1021 NOSIG
