2007/09/26 06:50
OHKE 260650Z 12009KT CAVOK 27/M07 Q1017 A3005
