2007/08/01 07:50
OHQG 010750Z 00000KT CAVOK 42/10 Q1001 A2957
