2009/12/15 06:00
OHQM 150600Z 30006KT 3500 BR NSC 12/11 Q1021 A3015
