2007/09/06 14:50
OHRA 061450Z 25010KT 3500 HZ SKC 34/30 Q0994 A2936
