2007/09/23 15:00
OHWG 231500Z 04004KT 9999 FEW030 23/18 Q1015 A3000
