2007/07/12 19:00
OHYE 121900Z 36008KT 9999 FEW045 SCT110 32/06 Q1005 A2969
