2008/02/26 05:50
OI9W 260550Z 18020KT 2500NE SCT035CB BKN040 20/M00 Q1013 A2992 8LC
