2007/12/01 05:50
OIA9 010550Z 35004KT KAVOK 13/03 Q1020
