2015/12/18 11:00
OIAA 181100Z 08008KT 9999 FEW030TCU SCT035 19/07 Q1018
