2008/12/18 18:00
OIAC 181800Z 00000KT CAVOK 07/01 Q1023
