2015/10/15 08:00
OIAD 150800Z 00000KT 7000 NSC 33/13 Q1014 A2996
