2011/03/12 01:00
OIAE 120100Z 00000KT CAVOK 20/17 Q1012
