2015/12/18 11:00
OIAG 181100Z 14006KT 9999 FEW035CB SCT040 20/09 Q1020
