2015/12/18 11:00
OIAH 181100Z 12006KT CAVOK 18/01 Q1020
