2015/12/18 11:00
OIAI 181100Z 08010KT 9999 SCT040 18/05 Q1017
