2008/11/12 09:50
OIAQ 120950Z 33008KT 8000 SKC 27/04 Q1017
