2008/05/01 10:50
OIAS 011050Z 34006KT 1500 DU VV/// 37/08 Q1007
