2015/12/18 11:00
OIAW 181100Z 08006KT 7000 FEW035CB SCT040 BKN100 19/10 Q1018
