2008/10/08 11:50
OIAY 081150Z 36010KT CAVOK 40/04 Q1008
