2007/10/18 06:50
OIB2 180650Z 00000KT CAVOK 30/19 Q1012 A2991
