2015/12/18 11:00
OIBA 181100Z 32006KT CAVOK 24/10 Q1018
