2015/12/18 11:00
OIBB 181100Z 21010KT CAVOK 23/11 Q1018 A3008
