2008/07/04 13:50
OIBC 041350Z 30008KT CAVOK 35/23 Q0996 A2943
