2008/08/20 03:50
OIBF 200350Z 10004KT 5000 HZ SKC 32/25 Q1001 A2957
