2015/12/18 10:00
OIBJ 181000Z 08006KT 9999 FEW020 18/09 Q1022
