2015/12/18 11:00
OIBK 181100Z 26010KT CAVOK 23/10 Q1018
