2015/12/18 11:00
OIBL 181100Z 00000KT CAVOK 24/06 Q1021
