2008/07/31 03:50
OIBM 310350Z 14006KT 2500 BR NSC 34/32 Q0995 A2940
