2008/09/15 03:50
OIBN 150350Z 00000KT 7000 SKC 30/25 Q1004 A2965
