2008/11/09 06:50
OIBO 090650Z 09008KT CAVOK 29/17 Q1016 A3001
