2015/12/18 11:00
OIBP 181100Z 20004KT CAVOK 25/12 Q1017 A3006
