2015/12/18 11:00
OIBQ 181100Z 12012KT CAVOK 21/15 Q1018
