2008/07/17 07:00
OIBR 170700Z 23006KT =000 HZ SKC 38/26 Q0995 A2939
