2015/12/18 11:00
OIBS 181100Z 03010KT CAVOK 24/11 Q1019
