2015/12/18 10:00
OIBV 181000Z 29010KT 9999 SCT020 22/11 Q1018
