2009/02/28 09:50
OIBZ 280950Z 34014KT 9999 FEW030CB SCT040 OVC090 19/16 Q1008 A2977
