2008/01/18 16:50
OIC3 181650Z 08006KT CAVOK M09/M14 Q1025 A3029 875.7
