2008/10/10 13:50
OICA 101350Z 36004KT CAVOK 38/09 Q1011
