2008/07/20 01:50
OICB 200150Z 00000KT 6000 HZ SKC 31/26 Q0997 A2945
