2015/12/18 11:30
OICC 181130Z 16006KT 9999 FEW035CB SCT040 OVC080 06/02 Q1022 A3018 NOSIG
