2008/09/27 03:50
OICG 270350Z 00000KT CAVOK 15/04 Q1017 A3004 868.4
