2015/12/18 11:30
OICI 181130Z 13006KT 9999 FEW030CB SCT040 BKN080 08/05 Q1021 A3015
