2015/12/18 10:50
OICJ 181050Z 00000KT 3000 SN FEW030CB SCT035 OVC070 01/M04 Q1023
