2015/12/18 11:00
OICK 181100Z 00000KT 7000 RA FEW030CB SCT035 OVC080 04/03 Q1023
