2009/07/24 05:00
OICM 240500Z 00000KT 8000 SKC 31/03 Q1010 A2985 861.8
