2015/12/18 11:00
OICS 181100Z 02002KT 6000 SCT025 SCT030 OVC070 01/M03 Q1023
