2008/10/27 14:50
OICW 271450Z 27006KT 6000 SKC 27/17 Q1010 A2983
