2008/10/07 23:50
OIEW 072350Z 00000KT CAVOK 22/09 Q1008 A2978
