2015/12/18 11:30
OIFM 181130Z 00000KT 6000 NSC 08/M04 Q1021 A3015
