2009/06/30 20:00
OIFO 302000Z 12004KT CAVOK 26/02 Q1015 A2999
