2015/12/18 10:56
OIFS 181056Z 29008KT 9999 FEW035CB FEW040 SCT090 06/M01 Q1022
