2007/09/07 08:00
OIFW 070800Z 02006KT {9 FEW025 31/21 Q1010 A2983
