2008/10/10 14:50
OIGA 101450Z 00000KT CAVOK 34/14 Q1011
