2008/07/27 03:50
OIGC 270350Z 00000KT 9999 FEW045@28/01 Q1009 A2982 861.7
