2015/12/18 11:30
OIGG 181130Z 28006KT 3000 -DZ BKN009 FEW010CB OVC060 08/08 Q1028
