2015/12/18 10:51
OIGK 181051Z 26004KT 9999 FEW020 BKN160 01/M04 Q1023
