2009/06/24 14:00
OIGM 241400Z 06014KT 9999 FEW030CB SCT035 30/07 Q1014 A2995 5LC
