2008/07/27 02:00
OIGS 270200Z 00000KT 9999 FEW045 21/08 Q1009 A2982
