2010/08/11 06:00
OIGX 110600Z 00000KT CAVOK 30/23 Q1011 A2987
