2015/12/18 11:00
OIHH 181100Z 09002KT 2500 BR FEW030CB SCT035 OVC070 M01/M02 Q1022
