2008/07/24 15:00
OIHJ 241500Z 00000KT CAV?K 30/00 Q1013 A2992
