2015/12/18 10:53
OIHM 181053Z 32006KT 4000 -SN BKN040 OVC080 02/00 Q1022
