2015/12/17 11:00
OIHR 171100Z 00000KT 0300 FG VV006 M04/M04 Q1024
