2012/06/12 06:50
OIHS 120650Z 12014KT 5000 SA SKC 26/01 Q1016 A3000
