2009/02/19 02:00
OIHU 190200Z 29014KT 9999 R11/PYx00N R29/P2000N FEW040 SCT10003/M02 Q1016 A3000
