2009/02/07 17:00
OIIA 071700Z 13008KT 9999 FEW040 BKN100 17/14 Q1015
