2015/12/18 11:00
OIIE 181100Z 20006KT 6000 NSC 07/M01 Q1023
