2009/02/05 11:00
OIIG 051100Z VRB04KT 9999 R11/P2000N R29/P2000N FEW030TCU SCT040 08/M05 Q1023 A3021
