2008/08/13 14:50
OIIH 131450Z 13012KT 9999 FEW040 34/M02 Q1009 A2981
