2015/12/18 11:30
OIII 181130Z 24004KT 3000 HZ FEW040 OVC100 06/M01 Q1023 A3022
