2015/12/18 10:52
OIIK 181052Z 14002KT 2500 -SNRA FEW040 OVC090 03/00 Q1024
