2008/06/22 19:50
OIIO 221950Z 29004KT CAVOK 28/06 Q1008 A2977 873.8
