2015/12/18 11:00
OIIP 181100Z 33008KT 4000 HZ SCT035 BKN090 03/M02 Q1023
