2015/12/18 11:00
OIIS 181100Z 14002KT 5000 FEW030 BKN080 BKN200 08/M02 Q1023
