2008/04/26 08:00
OIIU 260800Z 13014KT CAVOK 32/M05 Q1020 A3014
