2008/06/08 03:50
OIIW 080350Z 28008KT 1500 DU SKC 29/09 Q0999 A2952
