2008/12/10 17:50
OIIY 101750Z 00000KT CAVOK 08/01 Q1024 A3024
