2008/05/10 11:50
OIJB 101150Z 32010KT 5000 DU SKC 32/22 Q1005 A2970
