2008/08/07 12:00
OIJH 071200Z 00000KT 9999 SCT045 37/08 Q1009 A2980
