2008/07/11 14:50
OIJK 111450Z 27012KT 4000 HZ NSC 32/28 Q0994 A2937
