2007/09/06 01:50
OIK2 060150Z 00000KT 6000 NSC 28/24 Q0996 A2944
