2015/12/18 11:30
OIKB 181130Z 21006KT CAVOK 25/04 Q1018 A3006
