2008/07/30 18:50
OIKC 301850Z 03006KT 4000 BR SKC 33/29 Q0996 A2942
