2009/02/09 07:00
OIKF 090700Z 12004KT 7000 FEW030 24/16 Q1018 A3008
