2008/10/18 14:00
OIKI 181400Z 25010KT CAVOK 23/M06 Q1018 A3007 882.9
