2008/06/25 19:50
OIKJ 251950Z 15006KT 2500 BR SKC 31/28 Q0998 A2949
