2015/12/18 11:00
OIKK 181100Z 35008KT CAVOK 15/M17 Q1020 A3014
