2015/09/29 20:00
OIKM 292000Z 29012KT CAVOK 24/M04 Q1015 A2998
