2008/12/11 06:00
OIKN 110600Z 14004KT CAVOK 23/07 Q1021 A3016
