2015/12/18 10:50
OIKO 181050Z 21004KT CAVOK 26/04 Q1018
