2007/09/05 13:50
OIKP 051350Z 20014KT CAVOK 36/26 Q0995 A2940
