2015/12/18 11:00
OIKQ 181100Z 30004KT 8000 NSC 25/01 Q1018
