2008/12/16 01:00
OIKW 160100Z 00000KT CAVOK 09/00 Q1015 A3000
