2008/08/16 18:50
OILH 161850Z 12006KT CAVOK 22/M01 Q1016 A3?04
