2015/12/18 11:00
OIMB 181100Z 29004KT CAVOK 12/M08 Q1021
