2015/12/18 10:50
OIMC 181050Z 30008KT CAVOK 08/05 Q1027
