2015/12/18 10:50
OIMD 181050Z 01004KT CAVOK 10/M02 Q1019
