2011/10/07 18:00
OIME 071800Z 16008KT CAVOK 14/M01 Q1021 A3016
