2009/02/23 13:00
OIMG 231300Z 33006KT 9999 FEW035CB FEW040 SCT200 13/05 Q1013 A2992
