2008/12/02 06:30
OIMI 020630Z 27004KT 3500 BR FEW040 OVC100 07/04 Q1021 A3017??886.0
