2015/12/18 11:30
OIMM 181130Z 12006KT 8000 FEW030 BKN100 08/M02 Q1024 A3025
