2015/12/18 11:00
OIMN 181100Z 36002KT 7000 SCT030 BKN100 04/M01 Q1025
