2009/04/29 04:00
OIMO 290400Z 00000KT CAVOK 10/04 Q1023 A3022
