2015/12/18 10:00
OIMQ 181000Z 00000KT CAVOK 10/M03 Q1023
