2015/12/12 16:00
OIMS 121600Z 08006KT CAVOK M01/M04 Q1025
