2015/12/01 07:00
OIMT 010700Z 00000KT CAVOK 17/M06 Q1024
