2008/08/23 07:50
OIMV 230750Z 00000KT CAVOK 35/02 Q1010 A2984
