2015/12/18 10:00
OINE 181000Z 18004KT 7000 NSC 10/05 Q1026
