2015/12/18 11:00
OING 181100Z 06010KT 3000 BR SCT025 BKN080 10/07 Q1028
