2015/12/18 11:00
OINK 181100Z 27004KT 4000 BR FEW030 BKN190 10/07 Q1025
