2008/10/18 06:25
OINM 180625Z 18004KT CAVOK 21/M01 Q1023 A3022
