2015/12/18 11:00
OINN 181100Z 30008KT 4000 RA BR BKN013 FEW020CB OVC070 10/08 Q1027
