2008/08/31 15:50
OINO 311550Z 00000KT CAVOK 28/24 Q1002 A2961
