2015/12/18 11:00
OINR 181100Z 33006KT 6000 -RA SCT010 FEW020CB SCT025 OVC070 10/08 Q1027
