2008/01/09 01:50
OINT 090150Z VRB02KT CAVOK M16/M19 Q1018 A3007
