2015/12/18 11:00
OINZ 181100Z 06004KT 5000 BR BKN040 OVC090 11/09 Q1026
