2008/12/16 00:00
OIOB 160000Z 33006KT 7000 NSC 15/12 Q1011 A2986
