2008/12/03 11:00
OIOE 031100Z 32018KT 9999 FEW025 FEW035TCU SCT200 11/02 Q1021 A3015
