2008/08/31 16:50
OIOI 311650Z 09004KT 9999 FEW040 33/02 Q1013 A2992 878.3
