2008/12/09 10:00
OIOK 091000Z 24006KT CAVOK 14/M04 Q1023 A3022 828.2 NOSIG
