2008/11/18 09:30
OIOM 180930Z 00000KT 5000 HZ NSC 10/M05 Q1019 A30?1
