2008/08/19 04:00
OIOP 190400Z 15006KT 5000 HZ NSC 30/25 Q1000 A2955
