2009/10/25 12:00
OIOW 251200Z 28006KT CAVOK 29/06 Q1013 A2993
