2008/06/27 13:50
OIPA 271350Z 33010KT CAVOK 46/05 Q0997=- 
