2008/11/26 10:00
OIQA 261000Z 30818KT 7000 NSC 24/08 Q1014
