2008/06/21 19:50
OIQW 211950Z 28008KT CAVOK 36/07 Q0999 A2951
