2008/02/17 14:50
OIRB 171450Z 33008KT 4000 DU SKC 16/11 Q1020 A3012
