2008/04/20 10:00
OIRE 201000Z 32030KT 5000 R29/P2000N R11/P2000N SA SCT030CB BKN100 BKN200 21/01 Q1010 A2983
