2008/10/28 23:50
OIRK 282350Z 30012KT 6000 SKC(27/22 Q1008 A2979
