2008/08/04 14:50
OIRL 041450Z 11010KT 4000 HZ SCT030 BKN100 34/28 Q0994 A2937
