2007/08/02 14:00
OIRQ 021400Z 12010KT 9999 FEW045TCU 37/01 Q1007 A2975
