2015/12/18 10:55
OISA 181055Z 00000KT CAVOK 13/M08 Q1022
