2008/09/29 22:50
OISC 292250Z 28008KT CAVOK 15/04 Q1019 A3009 869.8
