2015/12/18 10:50
OISF 181050Z 16006KT CAVOK 15/M06 Q1019
