2012/07/17 23:00
OISJ 172300Z 12007KT CAVOK 34/26 Q0999
