2007/12/04 09:50
OISM 040950Z 07004KT 9999 FEW025 S??????11/03 Q1019 A3092 4LC
