2015/12/18 08:00
OISR 180800Z 00000KT CAVOK 18/09 Q1023
