2015/12/18 11:30
OISS 181130Z 09004KT 030V180 6000 NSC 13/M03 Q1021 A3018
