2009/04/25 09:20
OISW 250920Z 00000KT 7000 SKC 29/M00 Q1021 A?015
