2015/12/18 11:00
OISY 181100Z 16008KT 9999 FEW045 SCT170 12/M04 Q1023
