2007/07/05 09:50
OITB 050950Z 33006KT 9999 FEW035 29/07 Q1012 A2988
