2007/12/22 20:50
OITJ 222050Z 27006KT CAVOK M05/M10 Q1026 A3030
