2015/12/17 11:00
OITK 171100Z 10004KT 6000 FEW035 BKN080 BKN180 00/M04 Q1024
