2015/12/18 11:00
OITL 181100Z VRB04KT 9999 7000SE VCFG SCT005 SCT100 00/M02 Q1023
