2015/12/18 10:00
OITM 181000Z 28004KT 1900 BR OVC017 M00/M03 Q1025
