2008/08/23 12:50
OITN 231250Z 07020KT 9?99 FEW035TCU FEW090 24/14 Q1016 A3001
