2015/12/18 10:00
OITP 181000Z 11006KT 9999 FEW035 08/03 Q1028
