2015/12/18 11:00
OITR 181100Z 03004KT 7000 SCT035 OVC090 01/M04 Q1024 NOSIG
