2008/11/24 11:00
OITS 241100Z 15010KT CAVOK 13/13 Q1021 A3017@ METAR OIAA 241100Z 34010(T 8000 FEW040 SCT100 27/17 Q1017
