2015/12/18 11:30
OITT 181130Z 23004KT 6000 FEW020 SCT030 OVC080 00/M04 Q1025 A3028
