2015/12/18 10:52
OITU 181052Z 12008KT 9999 SCT020 OVC090 M03/M05 Q1025
