2008/06/27 21:50
OITV 272150Z 09012KT 9999 FEW040 24/11 Q1015 A3000
