2008/11/20 09:30
OITW 200930Z 32008KT 2200 VCRA BR SCT015 FEW040CB OVC190 08/07 Q1020 A3014 RERA
