2015/12/18 10:00
OITZ 181000Z 31004KT 6000 SCT015 FEW030CB SCT035 OVC080 M02/M05 Q1022
