2007/09/22 04:50
OIUE 220450Z 00000KT CAVOK 17/09 Q1023 A3023
