2008/08/30 08:50
OIUM 300850Z 24004KT 9999 FEW035TCU 32/08 Q1017 A30?? CHECK TEXT NEW ENDING ADDED OBBIYFYX 
