2008/12/11 02:00
OIUR 110200Z 36006KT CAVOK M00/M08 Q1023 A3021
