2009/03/18 10:50
OIVM 181050Z 13006KT CAVOK 20/M12 Q1014 A2997
