2008/03/11 15:50
OIVY 111550Z 00000KT 9999 FEW100 SCT200 22/M05 Q1016 A3001 NOSIG
