2008/11/09 07:00
OIWG 090700Z 28008KT 2000 -RADZBKN005 OVC050 11/11 Q1031 A3047
