2008/09/13 19:50
OIWS 131950Z 32004KT CAVOK 24/02 Q1015 A2999=? OETAR OIZH 131950Z 02006KT CAVOK 25/03 Q1015 A2998
