2008/09/14 08:20
OIWT 140820Z 11004KT 4000 DU NSC 27/05 Q1017 A3004
