2007/05/19 23:50
OIWY 192350Z 00000KT CAVOK 18/M03 Q1020 A3013 NOSIG
