2008/03/18 11:50
OIYW 181150Z 33004KT 9999 FEW035CB SCT040 OVC100 27/M04 Q1011 A2986
