2015/12/18 11:30
OIYY 181130Z 32006KT 8000 NSC 11/M01 Q1023
