2015/12/18 11:00
OIZB 181100Z 05004KT CAVOK 15/M01 Q1021
