2015/12/15 11:00
OIZC 151100Z 21012KT 7000 FEW035 25/13 Q1014 A2996
