2008/03/17 23:50
OIZF 172350Z 00000KT CAVOK 06/M13 Q1018 A3007
