2009/04/07 03:50
OIZG 070350Z 31006KT 6000 SKC 26/10 Q1011 A2986
