2015/12/18 11:30
OIZH 181130Z 35010KT CAVOK 12/M04 Q1021 A3015
