2015/12/18 11:00
OIZI 181100Z 27006KT CAVOK 23/M06 Q1019
