2015/12/18 10:50
OIZJ 181050Z 23008KT CAVOK 24/11 Q1017
