2009/03/20 21:00
OIZK 202100Z 27008KT CAVOK 27/17 Q1008 A2978
