2008/12/26 10:30
OIZL 261030Z 08008KT CAVOK 20/M02 Q1018 A3007
