2009/02/05 05:00
OIZN 050500Z 01010KT 8000 SKC 20/04 Q1019 A3010
