2008/02/19 14:50
OIZO 191450Z 12018KT 8000 NSC 18/M06 Q1018 A3008
