2010/08/28 18:00
OIZQ 281800Z 00000KT 5000 BR FEW035 28/25 Q1003 A2964
