2007/04/28 06:50
OIZR 280650Z 31006KT CAVOK 28/11 Q1013 A2994
