2007/09/27 04:50
OIZS 270450Z 33004KT CAVOK 23/M13 Q1019?A3011
