2008/10/04 06:50
OIZX 040650Z 00000KT 7000 SKC 31/00 Q1020 A3014
