2015/12/18 11:00
OJAI 181100Z 25011KT 7000 SCT035 14/05 Q1021 NOSIG
