2015/12/18 09:00
OJAM 180900Z 21005KT 5000 HZ SCT030 13/05 Q1021 NOSIG
