2008/12/18 16:00
OKAA 181600Z 00000KT CAVOK 09/M01 Q1022
