2007/05/02 04:50
OKAB 020450Z 14004KT 6000 FEW150 26/04 Q1021
