2011/10/06 09:50
OKAN 060950Z 26007KT 6000 DU SCT120 32/M01 Q1015 RMK A2988 DA5900 RH12
