2007/06/23 09:50
OKBB 230950Z 33010KT CAVOK 35/23 Q0999 A2950
