2012/09/13 18:00
OKBC 131800Z 35010KT CAVOK 37/00 Q1005 NOSIG
