2007/12/06 05:30
OKBF 060530Z 14009KT 6000 FEW030 SCT080 21/17 Q1020 NOSIG
