2015/12/18 11:30
OKBK 181130Z 15016KT 8000 NSC 21/11 Q1017 NOSIG
