2007/08/15 21:00
OKBO 152100Z 33008KT CAVOK 36/03 Q0999 NOSIG
