2015/01/19 05:08
OKBV 190508Z 29005KT CAVOK 07/03 Q7020 NOSIG
