2007/12/08 12:50
OKCC 081250Z 30004KT 9999 FEW045 11/00 Q1019 A3010 870.2
