2007/04/19 09:00
OKFA 190900Z AUTO 33016KT 4100 // ////// 31/13 Q1009
