2008/12/17 07:30
OKFM 170730Z 15006KT 9999 SCT035 00/M07 Q1021 A3015
