2007/08/19 14:00
OKGG 191400Z 25006KT 5000 HZ SCV020CB SCT025 BKN080 26/22 Q1010 A2983 6LC
