2008/10/28 17:00
OKIE 281700Z 29008KT CAVOK 13/06 Q1019 A3010
