2008/04/01 08:30
OKII 010830Z 21010KT 9999 FEW035CB FEW040 BKN200 26/M03 Q1009 A2982 875.3
