2009/03/10 11:00
OKIP 101100Z 00000KT 9999 FEW040 BKN200 20/M02 Q1009
