2008/11/29 02:00
OKKB 290200Z 35004KT 6000 NSC 17/14 Q1019 A3010
