2008/10/13 06:50
OKKK 130650Z 00000KT CAVOK 25/05 Q1029 A3040 833.4 NOSIG
