2014/05/04 10:00
OKLK 041000Z 34020KT 4000 BLDU SKC 36/02 Q1009 NOSIG
