2008/09/28 02:50
OKMM 280250Z 00000KT 9999 FEW040 15/M01 Q1011 A2988
