2012/08/13 02:50
OKMS 130250Z 07006KT 5000 HZ SCT010 FEW020 27/26 Q1000 NOSIG
