2009/03/03 05:00
OKNR 030500Z 00000KT CAVOK 09/06 Q1012 A2989
