2009/06/24 16:00
OKOK 241600Z 35008KT 7000 NSC 42/01 Q1000 NOSIG
