2008/08/19 10:20
OKTT 191020Z 11016KT 9999 FEW035TCU 34/M11 Q1015 A3000
