2011/06/03 12:00
OKWK 031200Z 36017KT 2500 +BLDU NSC 42/02 Q1004 NOSIG
