2009/02/09 20:50
OKYY 092050Z 00000KT CAVOK 09/M03 Q1021 A3016
