2008/11/13 03:50
OKZH 130350Z 00000KT 8000 SKC 04/M11 Q1024 A3024
