2015/12/18 11:00
OLBA 181100Z 23003KT 180V260 8000 BKN080 18/09 Q1020
