2011/12/19 12:00
OLBI 191200Z 31020KT CAVOK 20/13 Q1020 NOSIG
