2008/01/20 01:00
OLFJ 200100Z 31007KT CAVOK 14/10 Q1017 A3004
