2015/12/18 11:00
OMAA 181100Z 33009KT CAVOK 24/10 Q1018 A3007 NOSIG
