2015/12/18 11:00
OMAD 181100Z 35007KT CAVOK 24/10 Q1018 A3008 NOSIG
