2010/07/29 10:00
OMAE 291000Z 22004KT 7000 NSC 43/11 Q0997 A2946
