2008/08/16 13:00
OMAG 161300Z 08014KT 4000 DU FEW050CB BKN120 37/20 Q0998 A2947
