2012/04/17 11:00
OMAI 171100Z 26009KT 240V310 6000 NSC 31/04 Q1009 A2975
