2015/12/18 11:00
OMAL 181100Z 28005KT 190V340 CAVOK 25/07 Q1019 A3010 NOSIG
