2011/02/11 09:00
OMAW 110900Z 09007KT WPYPV130 CAVOK 25/08 Q1008 A2977
