2012/02/06 00:00
OMBB 060000Z 07005KT 030V110 CAVOK 17/08 Q1021 NOSIG
