2014/03/02 19:00
OMBJ 021900Z 29015KT CAVOK 21/11 Q1013 A2991
