2009/01/21 04:50
OMBL 210450Z 01006KT 7000 FEW025TCU 15/10 Q1021 A3015=?? 
