2012/02/29 02:00
OMBW 290200Z 18007KT 5000 HZ NSC 14/14 Q1011 BECMG 1500 BR
