2008/12/13 09:00
OMCC 130900Z 00000KT CAVOK 08/M03 Q1020 A3012 870.7
