2009/03/26 19:00
OMCS 261900Z 00000KT CAVOK 06/M03 Q1014 A2996
