2015/12/18 11:00
OMDB 181100Z 32010KT CAVOK 24/08 Q1019 NOSIG
