2014/01/16 09:30
OMDM 160930Z 27010KT 8000NDV SCT035 22/11 Q1020
