2015/12/18 11:00
OMDW 181100Z 31009KT 280V350 CAVOK 24/08 Q1019 NOSIG
