2008/11/06 18:00
OMDX 061800Z 29006KT 9999 FEW040 28/19 Q1013 NOSIG
