2014/05/07 21:00
OMDZ 072100Z VRB02KT CAVOK 29/19 Q1007 NOSIG
