2008/09/14 07:00
OMEJ 140700Z VRB02KT 8000 SKC 39/14 Q1005
