2007/09/22 21:00
OMFB 222100Z 36005KT CAVOK 32/27 Q1003 NOSIG
