2008/09/10 17:00
OMFD 101700Z 01002KT 7000 SKC 32/26 Q1004 A2965
