2015/12/18 11:00
OMFJ 181100Z 07008KT 030V110 8000 NSC 24/14 Q1018 A3007
