2008/10/03 23:00
OMFK 032300Z 04004KT CAVOK 30/24 Q1009 A2982
