2009/03/07 15:00
OMFM 071500Z 33006KT CAVOK 17/M10 Q1020 A3013
