2011/05/15 16:00
OMFP 151600Z 13002KT 6000 NSC 33/24 Q1006 A2971
