2008/08/23 05:00
OMFR 230500Z 12006KT 5000 HZ BKN015 32/28 Q1004 A2965
