2009/03/15 03:00
OMFS 150300Z 23010KT 9999 FEW040 08/M01 Q1019 A3010 795.2
