2009/01/15 14:00
OMGG 151400Z 36004KT CAVOK 09/06 Q1028 A3038
