2011/10/24 09:00
OMGJ 240900Z 08010KT 040V120 7000 SCT020 30/23 Q1013 A2992
