2014/04/15 05:00
OMHK 150500Z 00000KT CAVOK 34/10 Q1011 A2986
