2015/01/18 08:00
OMIA 180800Z 14004KT 108V190 8000 NSC 23/09 Q1017 A3004 NOSIG
