2008/08/24 04:00
OMIE 240400Z 30006KT CAVOK 25/01 Q1016 A3002
