2009/03/13 08:00
OMII 130800Z 16006KT CAVOK 22/M11 Q1021 A3015 885.3
