2014/06/03 00:00
OMIL 030000Z 70007KT CAVOK 31/12 Q1005 APWOYO BECMG 16010KT
