2008/09/07 05:00
OMJA 070500Z 16011KT 5000 HZ NSC 34/19 Q1003 A2962 BECMG 7000
