2008/09/14 20:00
OMJB 142000Z 33005KT 290V020 CAVOK 32/26 Q1003 NOSIG
