2014/05/19 23:00
OMJJ 192300Z 08003KT CAVOK 25/20 Q1008=9 METAR OOMS 192250Z 00000KT CAVOK 28/23 Q1008 NOSIG
