2009/07/27 22:00
OMKB 272200Z 25004KT 3500 BR SKC 32/29 Q0993 A2933
