2008/08/24 04:00
OMKK 240400Z 11046KT CAVOK 24/04 Q1015 A3000
