2014/05/01 07:00
OMLK 010700Z 26006KT CIVOK 36/13 Q1005 A2980
