2014/05/12 17:00
OMLW 121700Z 23005KT CAVOK 31/17 Q1006 NOSIG
