2008/08/08 17:00
OMMK 081700Z 00000KT CAVOK 35/26 Q0994 A2937
