2009/05/04 10:00
OMMM 041000Z 06004KT 8000 FEW035CB FEW040 BKN190 21/12 Q1017 A3004 3LC
