2014/01/16 09:30
OMMZ 160930Z AUTO 32009KT 300V360 /////NDV //// ///// 20/09 Q1021 A3015
