2007/10/04 11:25
OMNM 041125Z 25004KT CAVOK 25/M01 Q1024 A3024
