2008/07/25 07:50
OMNZ 250750Z 31004KT 9999 FEW025TCU FEW?35 BKN090 29/24 Q1007 A2976=? METAR OITL 250750Z 07008KT CAVOK 26/13 Q1015 A2998
