2011/03/07 01:00
OMPA 070100Z 12009KT CAVOK 12/03 Q1019 NOSIG
