2012/02/02 15:00
OMPK 021500Z 32008KT 2000 DU FEW040 24/18 Q1013 A2994 (SPECI)
