2012/08/14 01:00
OMQJ 140100Z 10004KT 8000 NSC 31/24 Q0998
