2015/12/18 11:00
OMRK 181100Z 36007KT CAVOK 25/06 Q1018 A3008
