2011/10/24 07:00
OMRV 240700Z 09010KT CAVOK 34/18 Q1013 A2991
