2009/02/11 11:50
OMSA 111150Z 19010KT 170V230 9999 SCT025 26/17 Q1013 NOSIG RMK01
