2010/03/04 06:00
OMSM 040600Z 27008KT CAVOK 21/10 Q1016 A30.01
