2014/04/02 07:00
OMSW 020700Z 11004KT 060V160 CAVOK 32/01 Q1010
