2014/01/16 09:30
OMTH 160930Z 27009KT 9999 SCT025 20/10 Q1020
