2009/01/16 14:00
OMTM 161400Z 31004KT CAVOK 01/M08 Q1025 A3027
