2008/09/29 00:50
OMTR 290050Z 25006K METAR OICC 290050Z 28006KT 7000 SKC 14/08 Q1017 A3006 868.8
