2008/08/10 06:50
OMTT 100650Z 10016KT 9999 FEW035 23/10 Q1014 A2996
