2011/03/08 05:00
OMUA 080500Z 06008KT 6000 NSC 18/13 Q1021 A3015 NOSIG
