2008/09/02 08:00
OMUJ 020800Z 15005KT 100V250 CAVOK 38/21 Q1006
