2008/09/28 05:00
OMWA 280500Z 22005KT 8000 SKC 30/25 Q1008 A2979 NOSIG
