2012/04/17 17:00
OMWB 171700Z 25004KT 200V-80 CAVOK 28/11 Q1007 NOSIG
