2014/04/05 12:00
OMWW 051200Z 29021KT 6000 NSC 25/12 Q1015 TEMPO 3000 BLDU
