2011/01/05 04:00
OMXJ 050400Z 29006KT 240V320 6000 FEW030 BKN200 18/13 Q1016 A3002
