2009/03/18 12:50
OMYY 181250Z 30006KT CAVOK 23/M12 Q1014 A2995
