2008/09/15 00:50
OMZH 150050Z 2=004 METAR OIMM 150050Z 00000KT CAVOK 17/07 Q1015 A2998? METAR OIAW 150050Z 33006KT 1200 DU SKC 31/06 Q1004 A2966
