2014/05/01 06:00
OMZW 010600Z 36006KT 310V050 CAVOK 35/13 Q1010 NOSIG
