2008/10/03 11:56
ONJK 031156Z AUTO 25014KT 10SM CLR 27/04 A2972 RMK AO2 SLP079 T02670044 10300 20267 55000 TSNO 
