2010/12/26 14:21
ONLC 261421Z AUTO 26006KT 1/4SM R32Ì1000V1800FT FG VV001 04/04 A3020 šK AO2 TSNO $ 
