2011/03/15 09:50
OO3A 150950Z 18008KT 130V220 9999 FEW025 27/19 Q1013 NOSIG RMK01 RH59
