2012/02/23 03:00
OOAA 230300Z VRB02KT 8000 NSC 13/08 Q1018 A3008 NOSIG
