2012/04/05 22:00
OOAD 052200Z 00000KT CAVOK 26/14 Q1010 A2984
