2008/09/06 17:50
OOBK 061750Z 30006KT 3000 BR SKC 33/29 Q1001 A2956
