2008/07/09 09:50
OOCC 090950Z 06008KT 8000 SKC 34/M02 Q1009 A2981 861.5
