2012/02/08 10:00
OODA 081000Z VRB07KT CAVOK 24/00 Q1020 NOSIG
