2008/03/28 13:50
OOEA 281350Z 19008KT 99FEW025 SCT25027/16 Q1011 NOSIG
