2011/08/14 10:50
OOFA 141050Z 17008KT 6000 HZ FEW007 BKN012 OVC020 27/23 Q1002 NOSIG RH80 RMK05
