2009/03/11 04:00
OOFM 110400Z 31004KT 5000 HZ SKC 05/M05 Q1021 A3016
