2011/02/11 20:00
OOFW 112000Z 31003KT 9999 SCT025 22/16 Q1807 A2975
