2008/10/28 17:00
OOGG 281700Z 25004KT 9999 FEW015CB SCT025 SCT090 14/12 Q1024 A3024
