2008/03/01 05:50
OOIB 010550Z 00000KT CAVOK 22/07 Q1017 RMK QFE 0979 RH 38? 02
