2008/03/21 17:50
OOIR 211750Z AUTO 09006KT 29/10 Q1011
