2011/06/26 00:50
OOJA 260050Z 13006KT 3000 DZ SC005 BKN010 OVC020 26/24 Q1002 RMK53 RH92
