2008/02/08 07:50
OOJP 080750Z 15006KT 080V200 CAVOK 24/06 Q1020 NOSIG RMK00
