2008/10/25 12:50
OOKB 251250Z 23008KT 8000 NSC 34 METAR OIMM 251250Z 18006KT CAVOK 18/02 Q1023 A3022
