2009/04/25 09:00
OOKK 250900Z 25016KT CAVOK 28/M04 Q1022 A3018 827.2 BKN200
