2010/07/23 10:00
OOMA 231000Z 31004KT CAVOK 45/15 Q0996 A2941
