2014/05/11 23:50
OOMD 112350Z 14003KT 8000 NSC 30/25 Q1004 NOSIG
