2008/04/18 08:00
OOME 180800Z 02005KT 340V060 6000 SKC 31/24 Q1008 NOSIG
