2011/12/25 02:50
OOMF 250250Z 22002KT CAVOK 15/08 Q1016 NOSIG
