2008/10/24 22:50
OOMM 242250Z 00000KT CAVOK 08/02 Q1027 A3033
