2012/08/10 20:50
OOMQ 102050Z VRB02KT 8000 NSC 31/25 Q0996 NOSIG
