2015/02/07 13:50
OOMR 071350Z 02006KT CAVOK 24/15 Q1015 NOSIG
