2015/12/18 10:50
OOMS 181050Z 05011KT 9999 FEW025 25/13 Q1017 NOSIG
