2009/01/30 06:00
OOMW 300600Z VRB02KT CaVOK 23/63 Q1019 NOSIG
