2009/07/04 10:00
OOMY 041000Z 03009KT 350V060 8000 FEW025 35/31 Q0994 NOSIG
