2009/01/18 19:00
OONS 181900Z 08005KT CAVOK 18/11 Q1019 NOSIG RMK03
