2008/03/21 17:50
OONZ 211750Z AUTO 26014KT 29/M02 Q1010 RMK QFE095]
