2012/01/26 18:50
OOOS 261850Z VRB02KT CAVOK 19/12 Q1019 NOSIG
