2008/03/21 17:50
OOQH 211750Z AUTO 18004KT 27/M09 Q1016
