2008/03/20 23:50
OOQQ 202350Z AUTO 27007KT 18/M08 Q1021
