2015/12/18 10:50
OOSA 181050Z 14010KT CAVOK 26/10 Q1017 NOSIG
