2008/01/07 22:50
OOSC 072250Z 35015KT 9000 NSC 22/02 Q1016 NOSIG
