2011/01/14 16:50
OOSE 141650Z VRB02KT CAVOK 23/15 Q1015 RMKWPP RH61
