2013/04/27 07:50
OOSQ 270750Z AUTO 21009KT 15/12 Q1027
