2008/03/21 17:50
OOSR 211750Z VRB01KT 8000 SKC 26/11 Q1008 RH40 RMK06
