2011/12/18 01:00
OOSW 180100Z 17003KT 8000 NSC 15/12 Q1017
