2013/04/27 08:50
OOTH 270850Z 15012KT 120V200 9999 SCT025 33/17 Q1015 RH40 RMK01
