2008/10/27 07:50
OOTR 270750Z 36004KT 5000 BR SCT035 OVC080 09/08 Q1020 A3014
