2011/04/25 17:50
OOWA 251750Z 19005KT 160V230 9999 FEW025 28/22 Q1008
