2008/11/19 15:50
OOYY 191550Z 19004KT CAVOK 11/M10 Q1026 A3030
