2009/03/20 22:50
OOZC 202250Z 00000KT CAVOK 22/13 Q1006 A2971
