2008/07/02 01:50
OOZH 020150Z 21006KT CAVOK 28/02 Q1008 A2978
