2008/12/13 10:52
OP69 131052Z AUTO 00000KT 01/01 A2938 RMK AO2 SLP966 T00060006 PWINO FZRANO TSNO 
