2007/07/17 04:50
OP6X 170450Z 00000KT CAVOK 28/02 Q1012 A2988 818.7 NOSIG
