2010/08/12 19:00
OPBK 121900Z 28008KT 6000 SKC 33/30 Q0999 A2952
