2015/12/02 01:25
OPFA 020125Z 00000KT 0500 FG VV/// 10/09 Q1016
