2011/03/01 05:25
OPHA 010525Z 32007KT 3000 FU SCTG040 BKN100 16/11 Q1018
