2015/12/18 11:25
OPKC 181125Z 05008KT 7000 NSC 26/M07 Q1017 NOSIG
