2007/08/28 11:00
OPKO 281100Z 24010KT 8000 FEW020 FEW200 33/25 Q1000 NOSIG5 METAR OPRN 291100Z 13008KTS 4000 HZ SCTT100 32/24 Q1004.5
