2011/11/15 09:30
OPKW 150930Z 18010KT 7000 FEW030 31/16 Q1014 NOSIG
