2015/12/18 11:25
OPLA 181125Z 30004KT 3000 HZ NSC 18/06 Q1018
