2007/04/29 01:00
OPLH 290100Z 13506KT 5000M HZ 25/19 Q1004
