2014/10/13 02:00
OPNI 130200Z 24004KT 7000 SCT040 BKN080 24/12 Q1014 NOSIG
