2015/12/18 11:00
OPPS 181100Z 13004KT 3600 HZ FEW200 18/03 Q1019
