2015/12/18 11:00
OPRN 181100Z 27014KT 4000 HZ FEW200 18/05 Q1019.0/30.09 
