2015/12/18 09:30
OPSK 180930Z 00000KT 4000 HZ NSC 23/06 Q1019 RH34 PC
