2015/12/18 10:00
OPST 181000Z 31010KT 4000 NSC 20/07 Q1018 BECMG 5000 RH44
