2008/03/31 02:30
OQKC 310230Z 25006KT 6000 SCT020 25/22 Q1005 NOSIG
