2011/06/27 23:55
ORAA 272355Z 31005KT 9999 CLR 28/02 A2953 RMK SLP991 WND DATA ESTMD ALSTG/SLP ESTMD 54000
