2015/08/04 01:00
ORAR 040100Z 00000KT CAVOK 33/21 Q1005
