2015/04/27 15:00
ORB1 271500Z 04006KT CAVOK 31/01 Q1013 NOSIG
