2012/06/21 07:00
ORBB 210700Z 04004KT CAVOK 38/13 Q1001 NOSIG
