2013/04/24 14:00
ORBH 241400Z 34010KT CAVOK 27/M03 Q1015 NOSIG
