2015/12/18 11:30
ORBI 181130Z 05005KT 010V080 CAVOK 18/06 Q1020
