2014/06/08 07:00
ORBM 080700Z 33004KT 9000 NSC 36/10 Q1007 NOSIG
