2014/06/04 02:00
ORBN 040200Z 29006KT 8000 NSC 20/11 Q1009 NOSIG
