2011/11/09 04:00
ORBR 090400Z 29006KT 9999 FEW030 06/M01 Q1020 NOSIG
