2012/06/06 04:00
ORBS 060400Z 32004KT 8000 SKC 29/04 Q1004 NOSIG
