2007/04/18 05:50
ORCC 180550Z 17004KT 9999 SCT040 BKN170 15/08 Q1018 A3008 869.5 
