2015/12/18 11:00
ORER 181100Z VRB02KT 9000 SCT040 13/05 Q1023 NOSIG
