2015/07/13 02:00
ORET 130200Z VRB03KT 8000 NSC 28/10 Q1003 NOSIG
