2008/02/22 03:00
ORIE 220300Z 27006KT CAVOK M03/M09 Q1027 A3033
