2013/05/12 06:00
ORIN 120600Z 03012KT 0700 DU VV003 31/10 Q1008 NOSIG
