2011/08/15 06:55
ORKK 150655Z 30010KT 9999 CLR 37/04 A2974 RMK SLP116
