2014/03/06 12:00
ORMI 061200Z 07012KT CAVOK 31/12 Q1013 NOSIG
