2015/12/18 11:00
ORMM 181100Z 08014KT 8000 SCT040 20/10 Q1018 NOSIG
