2012/06/05 08:00
ORN1 050800Z 35017KT CAVOK 42/M01 Q1004 NOSIG
