2015/12/18 11:00
ORNI 181100Z 05008KT 6000 BKN030 18/09 Q1019 NOSIG
