2014/03/06 20:00
ORNM 062000Z 03005KT 8000 SCT040 22/14 Q1015 NOSIG
