2015/11/19 00:00
ORNN 190000Z 25008KT 6000 FEW040 15/11 Q1018 NOSIG
