2014/02/03 11:00
ORNT 031100Z 36009KT 8000 FEW025 OVC060 08/06 Q1013 NOSIG
