2008/05/05 09:50
ORPW 050950Z 03016KT CAVOK 38/05 Q1006 A2Y71
