2015/12/12 12:00
ORRE 121200Z 16005KT CAVOK 17/M04 Q1020 NOSIG
