2011/08/15 06:55
ORSH 150655Z 03006KT 9999 CLR 38/07 A2974 RMK SLP059 Q1007MB
