2008/01/09 04:50
ORSS 090450Z 25004KT CAVOK?M04/M09 Q1017 A3005
