2015/12/18 11:00
ORSU 181100Z 06010KT 8000 BKN040 OVC070 08/02 Q1024
