2011/08/15 06:55
ORTI 150655Z 02012G16KT 9000 HZ CLR 37/11 A2969 RMK SLP051 WND DATA ESTMD ALSTG/SLP ESTMD PA +332 DA +2924
