2011/08/15 06:55
ORTL 150655Z 34009G17KT 9000 BLDU CLR 40/05 A2963 RMK SLP031 PA +296 DA +3272
