2015/08/25 16:00
ORUS 251600Z 27010KT 9999 FEW045 32/02 Q1008 NOSIG
