2008/03/26 18:50
ORYY 261850Z 17004KT 7000 NSC 19/M03 Q1014 A2997 NOSKG
