2007/10/10 18:00
OSAI 101800Z 21013KT CAVOK 24/14 Q1014
