2015/09/02 18:00
OSAP 021800Z 08004KT CAVOK 25/23 Q1011
