2009/06/25 04:00
OSBI 250400Z 27006KT 6000 SKC 34/20 Q1001 NOSIG
