2007/09/09 18:50
OSBK 091850Z 10006KT 5000 HZ SKC 33/24 Q1002 A2961
