2009/11/24 02:54
OSBN 240254Z 00000KT 4SM BR CLR 03/01 A3013 RMK AO2 SLP210 T00280011 51002 
