2015/12/18 11:00
OSDI 181100Z 06006KT 9999 BKN030 OVC100 10/05 Q1021
