2015/02/15 22:00
OSDO 152200Z 20002KT 4000 RA SCT030 BKN100 07/05 Q1015
