2013/04/08 10:00
OSDZ 081000Z 20014KT CAVOK 38/M01 Q1008
