2014/11/06 08:00
OSJK 060800Z 01008KT CAVOK 15/M04 Q1025
