2015/12/18 11:00
OSLK 181100Z 11010KT 9999 FEW030 BKN100 17/06 Q1019
