2009/05/07 08:00
OSMA 070800Z 15006KT 8000 FEW040CB SCT045 37/02 Q1013 TEMPO TS
