2007/05/18 23:50
OSMM 182350Z 20004KT CAVOK 11/01 Q1022 A3019
