2014/11/16 18:00
OSNK 161800Z 07004KT 9999 SCT030 BKN100 16/14 Q1013
