2015/12/18 11:00
OTBD 181100Z 09006KT 060V120 CAVOK 22/11 Q1019 NOSIG
