2009/06/29 06:00
OTBE 290600Z 31011KT 7000 NSC 41/19 Q1000 NOSIG
