2011/05/18 10:00
OTBL 181000Z 05008KT 010V090 CAVOK 38/20 Q1010 NOSIG
