2013/12/04 18:00
OTBW 041800Z 08003KT 020V140 CAVOK 22/15 Q1017 NOSIG
