2010/05/21 06:00
OTDB 210600Z 21011KT 8000 NSC 37/16 Q1005 NOSIG
