2007/06/09 08:00
OTFD 090800Z 10008KT 060V130 CAVOK 34/27 Q1004 NOSIG
