2015/12/18 11:00
OTHH 181100Z 09005KT CAVOK 21/09 Q1019 NOSIG
