2012/01/10 21:00
OTLD 102100Z 01004KT 320V030 3000 BR NSC 20/19 Q1018 NOSIG
