2014/03/27 16:50
OTMS 271650Z 25004KT 8000 SCT025 BKN090 22/18 Q1014 NOSIG
