2012/07/03 20:00
OTNI 032000Z 31009KT 6000 NSC 36/09 Q0998
