2013/08/18 21:59
OTRI 182159Z 00000KT 15SM SCT016 BKN120 BKN300 25/25 A2978 
