2012/02/05 22:50
OTSA 052250Z 03003KT CAVOK 21/01 Q1017 RH26 RMK00
