2011/07/07 08:00
OTSQ 070800Z 20026G46KT 9999 FEW018 SCT200 32/21 Q1005
