2009/12/06 23:00
OTTZ 062300Z 00000KT 8000 FEW015 14/13 Q1014
