2009/12/07 02:00
OTYZ 070200Z 36005KT CAVOK 12/10 Q1013
