2008/08/11 10:00
OXAA 111000Z 33013KT 6000 SKC 40/26 Q0993 A2934 NOSIG
