2008/09/13 19:00
OXFJ 131900Z 36004KT 6000 SKC 32/27 Q1002 A2960
