2008/08/30 07:00
OXSJ 300700Z 17009KT 140V210 CAVOK 41/17 Q1002
