2009/01/09 04:00
OY1B 090400Z 00000KT 4000 BR SKC 07/06 Q1023
