2009/08/10 06:00
OYAB 100600Z VRB02KT 6000 BKN080 23/18 Q1018
