2008/03/29 10:00
OYAD 291000Z 11015KT 8000 FEW020 29/19 Q1010
