2007/07/03 17:50
OYAO 031750Z 30018KT CAVOK 38/05 Q0994 A2937
