2010/02/11 21:00
OYAQ 112100Z 06010KT 9999 FEW018 23/19 Q1018= 
