2013/09/09 07:00
OYAS 090700Z 02006KT 9999 BKN020 32/29 Q1011
