2015/03/26 07:00
OYAT 260700Z 15014KT CAVOK 27/16 Q1021
