2008/09/25 00:50
OYAW 250050Z 00000KT 4000 DU SKC 27/10 Q1005 A2970
