2008/11/28 05:00
OYBK 280500Z 08004KT 4000 HZ NSC 24/20 Q1016 A3002
