2008/03/31 09:50
OYCC 310950Z 18038KT 9999 FEW045 BKN090 16/M05 Q1012 A2990 864.1
