2010/09/16 20:00
OYDA 162000Z 27005KT 8000 NSC 31/21 Q1006
