2009/03/07 03:00
OYDH 070300Z 17011KT 6000 SKC 25/21 Q1010
