2008/10/10 09:25
OYFM 100925Z 24006KT CAVOK 28/M01 Q1022 A3020
