2014/10/17 08:00
OYGD 170800Z 26004KT CAVOK 30/19 Q1013
