2008/11/07 12:00
OYGG 071200Z 34006KT 9999 SCT030 19/14 Q1018 A3008
