2015/03/25 22:00
OYHD 252200Z 15003KT 120V180 8000 NSC 27/24 Q1010
