2015/03/18 06:00
OYIB 180600Z 14008KT CAVOK 22/01 Q1021
