2008/10/12 18:50
OYKB 121850Z 36006KT 6000 SKC 27/25 Q1014 A2995
