2008/04/25 19:50
OYKK 251950Z 00000KT CAVOK 14/M10 Q1024 A3025 829.2 NOSIG
