2015/03/19 04:00
OYMB 190400Z 27002KT 3000 NSC 22/M02 Q1013
