2009/05/22 02:00
OYMM 220200Z 00000KT CAVOK 15/08 Q1021 A3017
