2013/05/28 09:00
OYNS 280900Z 03013G26KT CAVOK 29/M05 Q1023
