2008/08/14 04:50
OYNZ 140450Z 24004KT 9999 FEW030TCU SCT035 27/21 Q1011 A2986
