2009/04/04 07:00
OYQS 040700Z 08012KT 9999 FEW018 SCT100 31/22 Q1009
