2009/01/26 06:00
OYRA 260600Z VRB02KT 7000 FEW018 SCT040 25/21 Q1019
