2008/12/30 20:00
OYRY 302000Z 06065KT 9999 FEW018 SCT030 23/19 Q1018
