2010/03/30 06:00
OYSA 300600Z 00000KT 7000 SCT020 BKN040 29/24 Q1019
