2009/07/24 12:00
OYSF 241200Z 04017G29KT 3000 SA BKC030 29/04 Q1020
