2009/09/14 04:00
OYSG 140400Z 00000KT 9999 BKN025 25/23 Q1012
