2015/03/25 22:00
OYSN 252200Z 33004KT 9999 FEW030 14/11 Q1027 NOSIG
