2009/10/21 09:00
OYSO 210900Z 08009KT CAVOK 22/M08 Q1028
