2015/03/25 11:00
OYSQ 251100Z 05012KT 9999 FEW018 30/22 Q1012
