2008/03/11 08:50
OYSS 110850Z 36004KT CAVOK 22/M05 Q1021 A3017
