2008/10/03 14:00
OYST 031400Z 08005KT CAVOK 34/M05 Q1012
