2015/03/26 07:00
OYSY 260700Z AUTO VRB02KT //// ////// 30/07 Q1018
