2008/11/20 14:00
OYTR 201400Z 36006K METAR OIAA 201400Z 21006KT 8000 FEW040 SCT100 BKN?00 24/02 Q1019
