2009/08/18 20:00
OYTS 182000Z 31006KT CAVOK 20/16 Q1009
