2009/07/31 07:00
OYTT 310700Z 07010KT CAVOK 26/09 Q1013 A2991
