2015/03/20 23:00
OYTZ 202300Z 36005KT CAVOK 17/11 Q1017
