2013/12/17 09:00
OYXX 170900Z 19010KT 9999 SCT025 22/12 Q1050
