2009/10/11 04:00
OYYN 110400Z 23003KT 190V270 CAVOK 13/M03 Q1027
