2008/07/24 06:00
OYYS 240600Z 25007KT 6000 NSC 39/09 Q1003
