2007/07/17 04:50
OYYT 170450Z 32010KT CAVOK 33/M06 Q1008 A2977 NOSIG
