2008/07/28 14:50
OYZH 281450Z 03010KT CAVOK 33/M02 Q1006 A2972
