2010/03/12 18:00
OYZJ 121800Z 15004KT CAVOK 16/M00 Q1023 A3023
