2009/08/25 16:00
OYZT 251600Z 00000KT 9999 SCT030 21/18 Q1010
