2008/03/19 02:00
OZAA 190200Z 00000KT 9999 FEW015 FEW030CB BKN100 24/23 Q1012 SECT CB NW NOSIG
