2010/04/07 15:00
OZJN 071500Z 31004KT CAVOK 31/25 Q1006 NOSIG
