2012/09/11 21:47
PA11 112147Z 11012G18KT 10SM FEW013 BKN022 OVC033 09/08 A2961
