2015/12/18 11:30
PAAD 181130Z AUTO 11006KT 10SM BKN027 OVC032 M01/M03 A2982 RMK AO2
