2015/12/18 11:36
PAAK 181136Z 23026G39KT 7SM FEW010 SCT019 BKN036 04/M02 A2890 RMK AO1
