2015/11/17 19:58
PAAP 171958Z VRB02KT 10SM SCT035 03/M00 A2950 RMK LAST NO SPECI
