2015/12/18 10:53
PAAQ 181053Z AUTO 07004KT 10SM FEW060 BKN080 M06/M08 A2936 RMK AO2 SLP946 T10561083 TSNO
