2015/12/18 11:39
PABA 181139Z AUTO 11017KT 9SM -SN BKN014 OVC026 M16/M18 A2981 RMK AO2 P0000 FZRANO
