2015/12/18 10:53
PABE 181053Z 08013KT 10SM CLR M19/M20 A2933 RMK AO2 PRESFR SLP933 I1000 T11891200
