2015/12/18 10:53
PABI 181053Z AUTO 00000KT 10SM CLR M16/M18 A2943 RMK AO2 SLP011 T11561178 TSNO
