2015/12/03 02:00
PABL 030200Z 11005KT 10SM SCT095 M20/M23 A2965
