2014/10/01 02:46
PABN 010246Z 19009KT 15SM SCT030 BKN060 BKN090 M03/M05 A3014 RMK MAX 3.0 NOSPECI LAST
