2011/03/07 22:56
PABO 072256Z 02009KT 9SM CLR M07/M09 A3019 RMK AWOS VIA PHONE
