2011/01/27 22:07
PABP 272207Z 09029G39KT 9SM -SN SCT014 BKN019 OVC030 03/02 A2876 NOSP
