2015/12/18 11:39
PABR 181139Z 16005KT 1 1/4SM R07/5500VP6000FT BR SCT002 M22/M24 A2976 RMK AO2 T12221239
