2015/12/18 10:53
PABT 181053Z 34003KT 10SM FEW080 OVC110 M17/M20 A2959 RMK AO2 SLP043 OVC IS PR THIN T11721200
