2015/12/18 11:06
PABV 181106Z AUTO 00000KT 10SM OVC065 M06/M07 A2939 RMK AO2 SLP961 T10561067 FZRANO $
