2015/12/18 10:53
PACD 181053Z 16028G37KT 7SM -SN OVC040 02/02 A2915 RMK AO2 PK WND 16037/1000 SLP871 P0003 T00220022 $
