2013/02/09 17:47
PACE 091747Z 00000KT 1/2SM FZFG VV004 M05/M06 A2945 RMK NOSPECI
