2015/12/18 11:25
PACM 181125Z AUTO 10017KT BKN003 OVC008 M17/M19 A2926 RMK AO2 FZRANO TSNO OVC V BKN PK WND 12030/1057 $
