2009/10/19 21:24
PACR 192124Z 02005KT 4SM SCT023 BKN027 OVC039 M08/M13 A3001 RMK VIA PHONE
