2015/12/18 10:53
PACV 181053Z 00000KT 10SM SCT036 BKN047 M01/M01 A2937 RMK AO2 SLP945 T10061011
