2015/12/18 11:34
PACZ 181134Z AUTO 10039G50KT 10SM -SN BKN130 M10/M14 A2910 RMK AO2 SLP866
