2015/12/18 00:55
PADG 180055Z 06006KT 15SM FEW040 M12/M14 A2976
