2015/12/18 11:36
PADK 181136Z 23038G63KT 8SM SCT023 BKN032 BKN045 03/M03 A2885 RMK AO1
