2015/12/18 10:56
PADL 181056Z AUTO 08006KT 10SM OVC019 M09/M12 A2948 RMK AO2 SLP987 T10891117 FZRANO
