2015/12/18 10:56
PADM 181056Z AUTO 08021KT 10SM CLR M13/M17 A2938 RMK AO2 TSNO T11271166 SLP939 $
