2015/12/18 10:53
PADQ 181053Z 31004KT 10SM CLR M01/M03 A2940 RMK AO2 SLP958 T10061028
