2011/07/01 03:49
PADT 010349Z 26005KT 20SM BKN030 BKN060 14/09 A2948 RMK MAX 18 NOSPECI
