2015/12/18 11:20
PADU 181120Z AUTO 22017G23KT 4SM -RA BKN037 OVC045 07/04 A2902 RMK AO2 P0003
