2015/12/18 01:46
PAEC 180146Z 35008KT 15SM FEW060 M07/M10 A2926 RMK NOSPECI
