2015/12/18 10:58
PAED 181058Z AUTO 04003KT 10SM FEW012 OVC060 M07/M09 A2937 RMK AO2 SLP944 T10731086
