2015/12/18 10:53
PAEG 181053Z AUTO 00000KT 4SM -SN OVC050 M16/M19 A2952 RMK AO2 SLP019 P0001 T11611194 TSNO
