2015/12/18 10:55
PAEH 181055Z AUTO 14033G45KT 1 1/2SM -SHSN BR FEW002 BKN120 M04/M05 A2918 RMK AO2 PK WND 15047/1043 SNB1006E1014SHSNB1014 SLP894 P0000 T10361048
