2015/12/18 01:52
PAEL 180152Z 12011KT 7SM -SHRA OVC015 03/00 A2933 RMK NOSPECI LAST
