2015/12/17 11:55
PAEM 171155Z 35011KT 10SM CLR M11/M19 A2981 RMK VIA PHONE
