2015/12/18 10:53
PAEN 181053Z AUTO 06003KT 10SM CLR M10/M12 A2938 RMK AO2 SLP951 T11001117 TSNO $
