2014/06/15 16:56
PAER 151656Z 00000KT 1SM RA VV007 06/05 A2991 RMK EPC
