2013/11/14 19:48
PAEW 141948Z 00000KT 5SM BR BKN008 OVC018 M05/M08 A2982 RMK NOSPECI
