2015/12/18 10:53
PAFA 181053Z 00000KT 10SM BKN050 BKN100 M22/M23 A2950 RMK SLP003 T12171228 VIA AUTODIAL
