2015/12/18 10:58
PAFB 181058Z AUTO 00000KT 10SM OVC047 M21/M23 A2951 RMK AO2 SLP009 T12071228 $
