2010/02/21 18:30
PAFC 211830Z 02005KT 10SM CLR M03/M07 A2996 RMK VIA PHONE
