2015/12/18 11:36
PAFE 181136Z AUTO 10007KT 10SM BKN024 BKN029 01/M01 A2942 RMK AO1
