2014/04/19 20:49
PAFK 192049Z 00000KT 25SM FEW080 SCT200 11/M05 A2957 RMK EST PASS OPEN NOSPECI
