2015/04/05 02:47
PAFL 050247Z 27010G17KT 20SM BKN035 BKN080 04/M03 A2997
