2015/12/12 12:56
PAFM 121256Z AUTO 02006KT 10SM M18/M26 A2957 RMK AO1
