2015/12/18 11:33
PAFR 181133Z AUTO 13004KT 10SM OVC070 M06/M06 A2936 RMK AO1
