2015/12/18 10:56
PAFS 181056Z AUTO 00000KT 7SM -SN CLR M22/M25 A2949 RMK AO2 TSNO T12221250 SNB0959 P0000 SLP003 $
