2015/12/18 10:58
PAGA 181058Z AUTO 00000KT 10SM CLR M24/M26 A2960 RMK AO2 SLP029 T12391261 FZRANO
