2015/12/17 01:15
PAGH 170115Z 09014KT 9SM -SN FEW016 OVC070 M09/M11 A2998 RMK VIA RADIO FROM HAG PILOT
