2015/12/18 11:36
PAGL 181136Z AUTO 06012G17KT 10SM CLR M09/M16 A2947 RMK AO1
