2015/12/18 11:36
PAGM 181136Z AUTO 08024G33KT BKN008 M06/M09 A2917 RMK AO1
