2015/12/18 10:56
PAGN 181056Z AUTO 06006KT 10SM UP FEW031 OVC045 02/00 A2937 RMK AO2 TSNO T00160000 P0000 SLP950 $
