2015/12/18 11:36
PAGS 181136Z AUTO 00000KT 10SM BKN045 BKN060 OVC065 00/M01 A2938 RMK AO1
