2015/12/18 10:53
PAGY 181053Z AUTO 03008G24KT 360V070 10SM BKN075 02/M07 A2946 RMK AO2 SLP976 T00171072 TSNO
