2015/12/18 10:56
PAHC 181056Z AUTO 03006KT 10SM CLR M17/M19 A2946 RMK AO2 TSNO T11661194 SLP981 $
