2007/04/19 17:56
PAHG 191756Z AUTO 00000KT 10SM OVC085 04/M01 A3001 RMK AO2 TSNO 58003 T00381005 10038 20022 SLP452
