2015/12/18 10:54
PAHN 181054Z AUTO 29010KT 10SM FEW110 M03/M04 A2944 RMK AO2 SLP971 T10331044 TSNO
