2015/12/18 10:53
PAHO 181053Z AUTO 03003KT 10SM SCT017 M04/M04 A2939 RMK SLP953 T10391039 TSNO VIA AUTODIAL
