2015/12/18 11:36
PAHP 181136Z AUTO 10028G35KT 10SM CLR M13/M16 A2916 RMK AO1
