2012/06/08 02:55
PAHV 080255Z 00000KT 35SM OVC080 21/14 A2976 RMK EPO MAX23 MIN08 LAST GOODBY
