2015/12/17 10:56
PAHX 171056Z AUTO 03013KT 10SM CLR M11/M12 A2971 RMK AO2 SLP064 T11061117 FZRANO
