2015/12/18 11:36
PAHY 181136Z 00000KT SCT016 BKN046 OVC060 02/M01 A2936 RMK AO1 P0001
