2011/01/27 16:50
PAHZ 271650Z 00000KT 7SM OVC050 M07/M09 A2995 RMK NOSPECI
