2015/12/18 11:06
PAIG 181106Z AUTO 27007KT 10SM CLR M14/M16 A2950 RMK AO2 SLP999 T11441156 FZRANO $
