2015/12/18 08:57
PAII 180857Z AUTO 09007KT 10SM OVC021 M12/M13 A2952 RMK AO2 SLP998 T11171133 58023 FZRANO
