2015/12/18 11:01
PAIK 181101Z AUTO 35007KT 8SM M24/M26 A2965 RMK AO2 SLP089 T12391261 FZRANO
