2015/12/09 22:55
PAIM 092255Z 00000KT 10SM FEW015 M26/M28 A2931 RMK AO2A SLP983 LSR09DN10UP
