2015/12/18 10:57
PAJC 181057Z AUTO 03006KT 10SM CLR 00/M06 A2944 RMK AO2 SLP970 T00001056 FZRANO PNO $
