2015/12/18 10:53
PAJN 181053Z 00000KT 10SM BKN055 OVC075 00/M01 A2941 RMK AO2 SLP958 T00001011
