2015/12/18 10:56
PAJZ 181056Z AUTO 00000KT 10SM CLR M20/M22 A2952 RMK AO2 FZRANO TSNO T12001216 SLP991 $
