2015/12/18 11:32
PAKF 181132Z AUTO 19030G54KT 3SM -RA BR BKN016 OVC024 06/04 A2906 RMK AO2 PK WND 19054/1124 P0010 $
