2015/12/18 10:56
PAKH 181056Z AUTO 29007KT 10SM CLR M02/M07 A2949 RMK AO2 TSNO T10161066 SLP989 $
