2015/12/18 11:37
PAKI 181137Z AUTO 08017KT 1 1/2SM BR M10/M12 A2912 RMK AO2 TSNO BLSNB1057E37 PRESFR $
