2015/12/18 11:38
PAKK 181138Z AUTO 36008KT 10SM CLR M13/M24 A2947 RMK VIA PHONE
