2015/12/18 11:36
PAKN 181136Z 00000KT 10SM SCT001 M21/M23 A2944 RMK AO2 T12061233 PNO
