2015/12/18 11:36
PAKP 181136Z AUTO 03009KT 10SM OVC029 M18/M24 A2952 RMK AO1
