2015/12/18 10:53
PAKT 181053Z AUTO 18003KT 10SM OVC028 02/00 A2943 RMK AO2 RAE0957 SLP967 P0000 T00170000 TSNO
