2015/12/18 03:45
PAKU 180345Z 16004KT 10SM R06/P6000FT BKN080 M15/M19 A2990 RMK LAST
