2015/12/18 10:53
PAKV 181053Z AUTO 23003KT 10SM CLR M27/M30 A2960 RMK AO2 SLP031 T12671300 TSNO
