2015/12/18 10:53
PALH 181053Z 00000KT 10SM FEW016 OVC060 M04/M06 A2938 RMK AO2 SLP950 T10391061
