2015/12/18 01:56
PALJ 180156Z 00000KT 7SM BKN060 M08/M12 A2940 RMK LAST 400111083 EST PASS OPN NOSPECI
