2013/06/21 14:51
PALK 211451Z 00000KT 30SM BKN070 OVC120 08/07 A2998 RMK FIRST ESTIMATE PASS OPEN NOSPECI
