2014/10/08 18:30
PALR 081830Z 02010KT 10SM -SN OVC030 M02/M05 A2992 RMK ***OASIS TEST***DO NOT POST***
