2015/12/18 10:55
PALU 181055Z AUTO 22003KT 10SM BKN120 BKN160 M08/M14 A2964 RMK AO2 SLP038 T10841136
