2012/08/06 16:59
PALV 061659Z 00000KT 30SM FEW100 11/08 A2989 RMK EST PASS OPN NOSPECI
