2015/12/18 10:56
PAMB 181056Z AUTO 04009KT 10SM OVC020 M09/M11 A2941 RMK AO2 TSNO T10881111 SLP964 $
