2015/12/18 10:53
PAMC 181053Z 00000KT 10SM CLR M22/M26 A2951 RMK AO2 SLP004 I1000 T12221256
