2015/12/18 11:36
PAMD 181136Z AUTO 02006KT 10SM BKN070 OVC090 03/01 A2936 RMK AO1
