2015/12/18 11:36
PAMH 181136Z AUTO 00000KT 10SM CLR M16/M19 A2945 RMK AO1
