2014/05/01 02:55
PAML 010255Z 00000KT 10SM SCT080 BKN200 15/02 A3041 RMK 401561022 NOSPECI LAST
