2015/12/18 11:36
PAMM 181136Z AUTO 09014KT 10SM OVC050 03/00 A2943 RMK AO1
