2015/12/18 10:56
PAMO 181056Z AUTO 00000KT 10SM CLR M15/M17 A2932 RMK AO2 TSNO T11501172 SLP818 $
