2015/12/18 10:53
PAMR 181053Z 09004KT 10SM FEW013 BKN060 M07/M09 A2938 RMK AO2 SLP950 T10671094
