2014/09/01 02:59
PAMX 010259Z 19004KT 25SM BKN048 BKN065 11/07 A2968 RMK MAX 16 70005 LAST
