2015/12/18 11:36
PAMY 181136Z AUTO 10028G36KT 1/4SM OVC004 M10/M14 A2904 RMK AO1
