2015/12/18 10:56
PANA 181056Z AUTO 06008KT 10SM CLR M19/M21 A2931 RMK AO2 PRESFR SLP924 T11941211 FZRANO
