2015/12/18 10:53
PANC 181053Z 00000KT 10SM FEW020 BKN045 BKN065 BKN130 M05/M07 A2938 RMK AO2 SLP950 T10501072
