2015/12/18 11:36
PANI 181136Z AUTO 09007KT 10SM CLR M19/M26 A2942 RMK AO1
