2013/07/07 18:45
PANL 071845Z 05003KT 10SM SCT080 BKN200 20/08 A2960 RMK NOSPECI
