2015/12/18 10:53
PANN 181053Z AUTO 00000KT 10SM CLR M23/M27 A2948 RMK AO2 SLP996 T12281267 TSNO
