2015/12/18 10:53
PANT 181053Z 11008KT 10SM -RASN SCT026 BKN055 OVC090 02/00 A2941 RMK AO2 SLP959 P0000 T00170000
