2015/12/18 11:36
PANV 181136Z AUTO 04011G17KT 10SM SCT009 OVC018 M16/M19 A2942 RMK AO1
