2015/12/18 10:56
PANW 181056Z AUTO 03004KT 10SM CLR M16/M17 A2948 RMK AO2 SLP000 T11561172 FZRANO
