2015/12/18 10:56
PAOH 181056Z AUTO 10006KT 10SM UP SCT021 BKN034 BKN049 02/02 A2939 RMK AO2 TSNO T00220022 BKN V SCT UPB52 P0000 SLP954 $
