2015/12/18 10:53
PAOM 181053Z 06011KT 10SM CLR M08/M17 A2944 RMK AO2 SLP970 T10831172
