2015/12/18 10:56
PAOO 181056Z AUTO 09030G36KT CLR M13/M16 A2918 RMK AO2 TSNO T11331155 PK WND 09036/1056 SLP883 $
