2015/12/18 10:53
PAOR 181053Z 11004KT 9SM BKN130 BKN140 M17/M19 A2943 RMK AO2 SNE50 SLP028 T11671194
