2015/12/18 10:53
PAOT 181053Z 07005KT 10SM CLR M19/M22 A2962 RMK AO2 SLP031 T11891217
