2015/12/18 10:56
PAOU 181056Z AUTO 14024KT BKN036 BKN048 01/00 A2927 RMK AO2 PWINO TSNO T00110000 PK WND 13032/1019 SLP917 $
