2010/12/18 23:55
PAP0 182355Z 15033G39KT 3/4SM OVC017 M09/M10 A2977 RMK VIA PHONE
