2015/12/18 11:36
PAPG 181136Z 00000KT 4SM OVC023 01/M02 A2941 RMK AO1 
