2015/12/18 10:57
PAPH 181057Z AUTO 10008KT 10SM CLR M05/M08 A2940 RMK AO2 PRESFR SLP959 T10501078 FZRANO
