2015/12/18 11:01
PAPN 181101Z AUTO 16006KT 10SM SCT025 M07/M08 A2944 RMK AO2 SLP971 T10671078 FZRANO $
