2015/12/18 11:36
PAPO 181136Z AUTO 17004KT 10SM M11/M12 A2961 RMK AO1
