2015/12/18 01:48
PAPT 180148Z 34004KT 10SM SCT080 BKN100 M12/M13 A2927 RMK NO SPECI LAST
