2008/12/05 00:39
PAQI 050039Z 08003KT 10SM CLR M26/M28 A3018
