2015/12/18 10:53
PAQT 181053Z AUTO 14005KT 10SM UP OVC065 M17/M19 A2983 RMK AO2 UPB0956 SLP103 P0000 T11671189 TSNO
