2015/12/18 11:36
PARC 181136Z AUTO 08005KT 10SM CLR M14/M14 A2948 RMK AO1
