2015/12/18 10:56
PARS 181056Z AUTO 05011KT 10SM CLR M15/M18 A2941 RMK AO2 TSNO T11501177 SLP963 $
