2015/12/18 11:36
PASA 181136Z AUTO 09018KT 10SM CLR M07/M09 A2921 RMK AO1
