2015/12/18 10:53
PASC 181053Z 08009KT 10SM OVC065 M16/M18 A2981 RMK AO2 SLP097 T11561183
