2015/12/18 11:36
PASD 181136Z AUTO 17025G29KT 5SM BKN014 OVC029 04/04 A2931 RMK AO1
