2015/12/18 10:53
PASI 181053Z 11005KT 10SM -RA OVC030 03/01 A2934 RMK AO2 SLP935 P0002 T00280011
