2015/12/18 11:36
PASM 181136Z 10022G27KT 10SM CLR M15/M18 A2924 RMK AO1
