2015/12/18 10:53
PASN 181053Z 20015KT 6SM -RA SCT018 BKN027 OVC095 04/03 A2859 RMK AO2 SLP681 P0004 T00440028
