2011/11/01 02:50
PASP 010250Z 00000KT 20SM FEW030 SCT060 M13/M13 A2951 RMK EST PASS OPEN NO SPECI LAST LAST
