2015/12/18 10:55
PASV 181055Z AUTO 00000KT 10SM CLR M18/M20 A2933 RMK AO2 SLP990 T11831199
