2015/12/18 01:50
PASW 180150Z 00000KT 30SM FEW035 BKN080 M07/M09 A2934 RMK MAX M04 LAST NOSPECI
