2015/12/18 11:36
PASX 181136Z AUTO 06003KT 10SM BKN080 M11/M12 A2937 RMK AO1
