2015/12/18 10:56
PASY 181056Z 28041G51KT 4SM BR OVC013 03/M01 A2851 RMK AO2 SLP654 WND DATA ESTMD T00281006 $ 
