2015/12/18 10:52
PATA 181052Z AUTO 35004KT 5SM -SN OVC047 M13/M16 A2957 RMK AO2 SLP021 T11281156 TSNO
