2015/12/18 10:55
PATC 181055Z AUTO 03013KT 10SM CLR M09/M16 A2944 RMK AO2 SLP977 T10921160
