2015/12/18 10:58
PATE 181058Z AUTO 10017KT 10SM CLR M12/M17 A2946 RMK AO2 PK WND 13026/1022 SLP988 T11221172 FZRANO
