2015/12/18 11:36
PATG 181136Z AUTO 01010KT 10SM CLR M15/M17 A2934 RMK AO1
