2015/12/18 10:53
PATK 181053Z AUTO 35006KT 10SM OVC080 M06/M12 A2937 RMK AO2 SLP952 T10611117 TSNO
