2015/12/18 10:55
PATL 181055Z AUTO 10003KT 10SM CLR M16/M18 A2947 RMK AO2 SLP012 T11641176 $
