2015/12/18 11:38
PATO 181138Z AUTO 00000KT 1/2SM FZFG FEW011 BKN027 OVC050 M01/M01 A2937 RMK AO2 T10061006 TSNO
