2015/12/18 11:38
PATQ 181138Z AUTO 12007KT 1/2SM -SN FZFG OVC004 M19/M22 A2974 RMK AO2 TSNO P0000 $
