2011/08/27 18:49
PATW 271849Z 10005KT 10SM SCT040 11/09 A2975 RMK EPO NOSPECI
