2011/11/01 00:53
PAUO 010053Z 01005KT 7SM -SN SCT008 BKN015 OVC030 M05/M07 A2967 RMK NOSPECI LAST
