2015/12/18 11:35
PAUT 181135Z AUTO 20024G36KT 7SM OVC006 06/05 A2900 RMK AO2 T00600053 PWINO
