2015/12/18 10:56
PAVC 181056Z AUTO 23020G34KT 2 1/2SM BR BKN022 04/02 A2926 RMK AO2 PWINO TSNO T00380016 P0013 PK WND 23034/1050 PRESFR SLP909 $
