2015/12/18 11:36
PAVD 181136Z 00000KT 10SM OVC110 M07/M08 A2943 RMK AO1 
