2015/12/18 10:53
PAVL 181053Z AUTO 09009KT 10SM CLR M13/M18 A2961 RMK AO2 SLP029 T11331183 TSNO
