2008/07/17 00:47
PAWB 170047Z 25005KT 10SM FEW034 BKN045 OVC060 15/10 A3021
