2015/12/18 10:53
PAWD 181053Z AUTO 34007KT 10SM OVC050 M01/M03 A2937 RMK AO2 SLP944 T10111033 TSNO
