2015/12/18 11:36
PAWG 181136Z AUTO 07009KT 10SM FEW027 OVC040 02/M02 A2944 RMK AO1
