2015/12/18 10:53
PAWI 181053Z AUTO 11010KT 10SM FEW095 M16/M18 A2972 RMK AO2 SLP064 T11561178 TSNO
