2015/12/18 10:58
PAWM 181058Z AUTO 01008KT 10SM CLR M13/M17 A2947 RMK AO2 SLP992 T11281167 FZRANO
