2012/05/20 05:46
PAWR 200546Z 09003KT 10SM OVC070 09/04 A3004 RMK LAST
