2015/12/18 11:36
PAWS 181136Z 00000KT 10SM OVC060 M03/M11 A2936 RMK AO1
