2010/10/03 04:55
PAXK 030455Z 07006KT 12SM BKN070 03/M01 A2958 RMK NOSPECI LAST
