2015/12/18 10:53
PAYA 181053Z 00000KT 10SM OVC070 00/M01 A2935 RMK AO2 SLP939 T00001011
