2012/06/27 06:00
PCVL 270600Z 11005KT 9999 SCT024 28/21 Q1009 R15/CLRD70 NOSUO MK G/O
