2015/12/18 10:56
PFCL 181056Z AUTO 09013KT 10SM OVC019 M09/M12 A2945 RMK AO2 SLP976 T10891117 FZRANO
