2015/12/18 10:58
PFEL 181058Z AUTO 02014G20KT 10SM CLR M08/M15 A2952 RMK AO2 SLP001 T10831150 FZRANO
