2015/12/04 21:58
PFKT 042158Z AUTO 00000KT 10SM CLR M21/M25 A2974 RMK AO2 SLP071 T12061250 FZRANO
