2015/12/18 10:56
PFKW 181056Z AUTO 05007KT 10SM CLR M21/M23 A2933 RMK AO2 SLP932 T12111233 FZRANO
