2015/12/18 10:58
PFNO 181058Z AUTO 07007KT 9SM CLR M23/M24 A2964 RMK AO2 SNB44E58 SLP040 P0000 T12281244 FZRANO
