2015/12/18 10:58
PFSH 181058Z AUTO 02011KT 10SM CLR M16/M18 A2951 RMK AO2 PRESFR SLP009 T11561178 FZRANO
