2015/12/18 10:56
PFWS 181056Z AUTO 10005KT 10SM CLR M17/M19 A2951 RMK AO2 SLP998 T11721189 FZRANO
