2015/12/18 11:36
PFYU 181136Z 00000KT 3SM CLR M15/M17 A2958 RMK AO1 
