2012/07/19 14:50
PGEG 191450Z 00000KT 5000 SCT016 BKN090 27/25 Q0998 NOSIG
