2015/12/18 09:50
PGRO 180950Z 08009KT 7SM SCT015 26/23 A2993 RMK LAST 
