2015/12/18 10:54
PGSN 181054Z AUTO 06011KT 10SM FEW021 24/23 A2994 RMK AO2 SLP160 T02440233 TSNO
