2015/12/18 11:18
PGUA 181118Z AUTO 06011KT 10SM SCT016 SCT022 26/23 A2995 RMK AO2 $
