2015/12/18 10:54
PGUM 181054Z 07008KT 10SM FEW033 SCT048 27/23 A2994 RMK AO2 SLP129 T02720233 
