2015/12/18 09:50
PGWT 180950Z 06011KT 7SM SCT014 26/23 A2992 RMK LAST 
