2009/06/14 15:56
PHBC 141556Z AUTO 00000KT 10SM CLR 23/17 A3002 RMK AO2 SLP166 T02330167 TSNO 
