2015/12/18 11:38
PHHI 181138Z AUTO 06007KT 8SM -RA FEW014 20/17 A3009 RMK AO2 RAB38 $
