2015/05/15 09:00
PHIK 150900Z 31066G92KT 1/4SM R24L/0500V0700FT +RA FG VV001 25/25 A2875 RMK PK WND 32092 0851Z PRESFR SLP721 P0223 60428 T02530250 58132
