2015/12/18 03:50
PHJH 180350Z 05017G28KT 15SM FEW015 SCT030 23/17 A3004 RMK LAST
