2015/12/18 10:53
PHJR 181053Z AUTO 06006KT 10SM SCT047 BKN065 23/17 A3010 RMK AO2 RAE02B20E30 SLP199 P0000 T02330172 TSNO
