2015/12/18 10:53
PHKO 181053Z AUTO 11004KT 10SM CLR 24/19 A3002 RMK AO2 SLP167 T02440189 TSNO
