2015/12/18 10:53
PHLI 181053Z 04018KT 10SM FEW032 BKN070 24/19 A3014 RMK AO2 SLP201 T02440194
