2015/12/18 10:54
PHMK 181054Z AUTO 05013G27KT CLR 22/17 A3010 RMK AO2 PK WND 05027/1048 RAB0958E11 SLP193 P0000 T02220172 TSNO $
