2015/12/18 10:53
PHNL 181053Z 06013G23KT 10SM FEW025 SCT041 BKN050 24/18 A3009 RMK AO2 PK WND 06026/1003 RAB04E14 SLP187 VCSH E P0000 T02390178
