2010/01/28 21:00
PHPL 282100Z 09008KT 9999 BKN025CB SCT250 28/23 Q1011 CB PCPN SW W TCU TD HZ
