2015/12/18 10:56
PHSF 181056Z AUTO 36003KT 10SM CLR 07/00 A3032 RMK AO2 SLP162 T00721003 $
