2015/12/18 10:53
PHTO 181053Z 25005KT 10SM BKN033 BKN065 21/19 A3011 RMK AO2 SLP194 T02110194
