2008/02/27 14:57
PHVG 271457Z 00000KT 10SM FEW035 18/16 A3007 RMK AO2 SLP176 T01780156 55007 
