2015/08/02 18:00
PICS 021800Z 00000KT 9999 FEW020 25/25 Q1008 
