2015/10/12 04:58
PJMJ 120458Z 27008KT 15SM FEW015 SCT050 BKN120 OVC300 29/25 A2974 
