2012/04/30 18:00
PKJJ 301800Z 07001KT 9999 BKN040 BKN200 16/11 A2981 
