2015/03/27 14:58
PKME 271458Z 07010KT 15SM FEW015 SCT050 BKN120 OVC300 28/24 A2980 RMK SLP093 8/878 T02790242 57024 
