2015/12/18 10:55
PKMJ 181055Z 05007KT 15SM FEW015 SCT050 BKN300 28/24 A2978 
