2015/12/18 10:52
PKMR 181052Z 10004KT 15SM FEW015 SCT050 BKN120 OVC300 28/25 A2978 RMK SLP086 T02800249 
