2009/11/14 15:00
PKTU 141500Z 34002KT 4800 -SN BR FEW005 SCT015 OVC030 01/01 A3011
