2013/12/30 21:00
PKVP 302100Z 00000KT 1800 SN OVC010 M15/M17 Q1028 R14R/CLRD60 NOSIG RMK MT OBSC QFE695
