2013/12/17 03:00
PKVX 170300Z 23004KT 6000 BKN040 M00/M01 Q1035 R30/CLRD70 NOSIG 
