2015/12/18 11:40
PKWA 181140Z AUTO 06013KT 10SM SCT022 27/22 A2980 RMK AO2 T02730221 TSNO
