2007/12/24 22:00
PKYS 242200Z 00000KT CAVOK 18/18 Q1014 NOSIG
