2015/12/18 10:00
PLCH 181000Z 35005KT 9999 FEW017CB BKN040 OVC300 26/25 Q1007
