2015/08/08 06:00
PLMZ 080600Z 24004KT 9999 FEW017 OVC100 30/25 Q1009 RMK A2980
