2013/12/05 09:00
PLXH 050900Z 16012KT 9999 FEW020 27/23 Q1008
