2015/12/18 11:01
PMDY 181101Z AUTO 10006KT 10SM OVC009 22/21 A3019 RMK AO2 SLP225 T02220211 402220222 TSNO
