2007/12/16 18:00
PMMG 161800Z 11006KT 9999 SCT018 SCT300 28/23 Q1012 TCU/PCPN N-NE/SW-W AND NW MPDA 161800Z 24008KT 9999 SCT015 BKN300 30/23 Q1010
