2008/05/09 09:00
POOL 090900Z 19003KT 9999 SCT010 FEW018CB BKN100 28/26 Q1010 NOSIG
