2011/05/26 09:10
PP1Z 260910Z 03018KT 1/4SM FZFG OVC004 M02/M02 A2991 RMK VIA PHONE
