2015/12/18 10:56
PPIT 181056Z AUTO 11013KT 7SM -SN CLR M17/M19 A2931 RMK AO2 SNB15 SLP926 P0000 T11721189 FZRANO
