2015/12/18 10:56
PPIZ 181056Z AUTO 12005KT 10SM CLR M18/M21 A2968 RMK AO2 TSNO T11831211 SLP054 $
