2011/12/13 18:00
PRBI 131800Z 30004KT CAVOK 07/02 Q1024 NOSIG
