2015/12/09 13:00
PRNI 091300Z 27007KT CAVOK 16/M04 Q1024 NOSIG
