2011/06/14 00:50
PRTO 140050Z 00000KT 14SM BKN016CB BKN120 OVC300 27/25 A2988 RMK CB VC ALQDS 
