2015/08/29 05:00
PRVM 290500Z 22010KT 8000 -SHRA SCT018CB BKN090 31/25 Q1009 RMK A2980 CB NW-N E AND OVHD
