2007/11/13 04:55
PTKE 130455Z 27011KT 15SM SCT017TCU OVC110 29/24 A2968 RMK TCU VC ALQDS SLP050 T02920243
