2015/12/18 10:51
PTKK 181051Z 06006KT 15SM FEW014 SCT120 OVC280 28/25 A2981 RMK SLP098 T02820249
