2015/12/18 10:52
PTKR 181052Z 09013KT 11SM -SHRA BKN016CB OVC290 27/25 A2983 RMK SHRAB40 CB ALQDS SLP101 T02720246
