2009/11/08 02:51
PTOR 080251Z 15004KT 15SM FEW017 SCT120 BKN300 30/25 A2979 
