2007/04/12 14:50
PTP0 121450Z 07006KT 15SM SCT016TCU OVC290 26/24 A2986 RMK TCU DSNT ALQDS 
