2015/12/18 09:50
PTPN 180950Z 06005KT 15SM BKN017TCU BKN120 OVC280 27/25 A2977 RMK TCU SE-SW LAST 
