2015/01/01 04:55
PTR0 010455Z 05010KT 15SM SCT015CB BKN120 BKN300 30/25 A2973 RMK CB VC ALQDS 
