2014/09/21 10:51
PTRI 211051Z 24004KT 14SM SCT016CB BKN120 OVC300 25/24 A2983 RMK CB VC ALQDS 
