2008/03/26 01:55
PTRK 260155Z 12008KT 11SM SCT017TCU BKN120 OVC300 29/25 A2980 RMK SHRAE10 TCU VC ALQDS SLP092 T02940249  
