2015/12/18 10:51
PTRO 181051Z 06010G18KT 12SM -SHRA BKN015CB BKN120 OVC300 26/25 A2981 RMK CB VC ALQDS 
