2010/02/06 08:59
PTRP 060859Z 05008KT 15SM FEW010 FEW017 SCT120 BKN300 27/22 A2995 
