2015/12/18 03:50
PTSA 180350Z 03008KT 10SM FEW024 SCT130 BKN300 30/26 A2967 
