2012/04/01 22:50
PTTN 012250Z 09012KT 15SM SCT017TCU BKN120 OVC300 31/25 A2987 RMK TCU SE 
