2015/12/18 10:55
PTTP 181055Z 04007KT 15SM -SHRA BKN017TCU BKN130 OVC300 26/25 A2983 RMK SHRAB08E17B45 TCU ALQDS SLP100 T02640249
