2015/12/18 10:54
PTYA 181054Z 05008KT 12SM FEW016 SCT130 BKN300 26/24 A2986 RMK SLP112 T02630235
