2015/12/18 03:47
PWAK 180347Z AUTO 04013G26KT 4800 -RA FEW021 SCT029 SCT039 BKN070 BKN085 26/21 A2987 RMK AO2 RAB37
