2013/01/24 23:00
QBGL 242300Z 11003KT 9999 FEW020 28/23 Q1009 
