2013/01/27 22:00
QCBA 272200Z AUTO 31023G33KT CAVOK 18/07 Q1010
