2012/03/06 08:00
QCCI 060800Z 30014KT 9999 FEW023 SCT070 07/04 Q0987 NOSIG
