2007/05/14 03:00
QDIP 140300Z VRB03KT 8000 SCT011 BKN020 BKN250 26/26 Q1013 NOSIG
