2007/08/21 10:00
QGPP 211000Z 36018KT CAVOK 23/18 Q1012 NOSIG
