2007/12/31 05:25
QIZH 310525Z 17004KT CAVOK 04/M17 Q1023 A3023
