2008/08/02 03:00
QKBO 020300Z 02003KT 9999 BKN027 BKN120 13/11 A3032 RMK LTNG/NW NOSIG
