2013/03/26 02:00
QRMM 260200Z 26009KT CAVOK  11/04 Q1015 NOSIG
