2010/06/30 19:00
RCIC 301900Z 19004KT 5000 HZ BKN200 13/06 Q1016
