2015/12/18 11:30
RCKH 181130Z 36010KT 300V070 7000 FEW016 SCT048 19/12 Q1024 NOSIG RMK A3024
