2014/03/11 00:30
RCKU 110030Z 05002KT 1600 VCSH BR SCT008 BKN018 BKN050 17/15 Q1022 NOSIG RMK A3020 VCSH W
