2015/12/18 11:30
RCSS 181130Z 09013KT 050V110 9999 FEW020 SCT040 BKN060 16/08 Q1027 NOSIG RMK A3035
