2015/12/18 11:30
RCTP 181130Z 06016KT 9999 FEW030 SCT050 15/09 Q1027 NOSIG RMK A3034
