2014/02/28 15:00
RCYU 281500Z 21003KT 9999 FEW012 BKN060 18/16 Q1017 NOSIG RMK A3005
