2010/04/20 15:00
RDPD 201500Z 14008KT 9999 FEW024 30/21 Q1014
