2015/12/18 11:30
RJAA 181130Z 13003KT 080V150 9999 FEW030 SCT050 02/M00 Q1023 NOSIG RMK 1CU030 3SC050 A3023
