2015/12/18 07:00
RJAF 180700Z 33005KT 9999 FEW030 03/M06 Q1022
