2015/12/18 11:00
RJAH 181100Z 31003KT 9999 FEW030 01/M03 Q1023
