2015/12/16 06:39
RJAK 160639Z 06008KT 6000 FEW030 BKN060 16/11 Q1003 RMK 1CU030 5SC060 A2964
