2015/03/05 03:40
RJAM 050340Z 12014KT 9999 SCT020 25/21 Q1016 RMK 4CU020 A3003
