2015/10/27 04:16
RJAO 270416Z 12014G26KT 4000 -SHRA BR SCT005 BKN008 BKN010 24/24 Q1013 RMK 3ST005 5ST008 7CU010 A2993
