2015/12/17 03:14
RJAT 170314Z 18005KT 9999 -SHRA FEW015 BKN020 07/00 Q1009 RMK 2CU015 6CU020 A2980
