2015/12/18 09:00
RJAW 180900Z 03008KT 9999 FEW020 SCT030 BKN100 22/17 Q1018 RMK 1CU020 3CU030 6AC100 A3009
