2015/12/18 11:00
RJBE 181100Z VRB02KT 9999 FEW030 SCT050 08/M01 Q1028
