2015/12/18 07:43
RJCA 180743Z 18005KT 2000 -SHSN FEW005 SCT010 BKN015 M01/M04 Q1014 RMK 2ST005 4ST010 7CU015 A2994
