2015/12/18 11:30
RJCC 181130Z 35006KT 9999 -SHSN FEW025 BKN035 M01/M03 Q1016 RMK 1CU025 7CU035 A3003
