2015/12/18 11:00
RJCH 181100Z 30012KT 2000 -SHSN FEW005 SCT008 BKN015 M00/M02 Q1018
