2015/12/18 11:00
RJCK 181100Z 28012KT 240V320 9999 FEW030 01/M09 Q1012
