2015/12/18 11:00
RJCM 181100Z 33003KT 270V350 9999 FEW025 BKN060 M04/M06 Q1011
