2015/12/18 08:10
RJCO 180810Z 27005KT 8000 -SHSN FEW015 SCT025 BKN040 M01/M03 Q1017 RMK 1ST015 3CU025 6CU040 A3003
