2015/12/17 06:45
RJCT 170645Z 29010KT 9999 FEW040 BKN120 02/M05 Q1005 RMK 2CU040 5AC120 A2968
