2015/12/18 09:00
RJCW 180900Z 29023KT 9999 -SHSN FEW010 SCT025 BKN040 M02/M08 Q1012
