2015/12/18 11:00
RJDC 181100Z 32005KT 250V030 9999 FEW030 BKN040 08/00 Q1030
