2015/12/17 04:26
RJDM 170426Z 32006G18KT 9999 FEW010 SCT025 06/M03 Q1023 RMK 1CU010 4CU025 A3021
