2015/12/18 07:00
RJEB 180700Z 25005KT 220V290 9999 FEW020 BKN040 01/M06 Q1012
