2015/12/18 11:40
RJEC 181140Z 30011KT 1500 R34/P1800N -SHSN FEW003 SCT007 BKN015 M03/M04 Q1013 RMK 1ST003 4ST007 6ST015 A2993
