2008/09/30 01:22
RJFC 300122Z 17009KT 140V200 9999 FEW006 SCT015 BKN025 28/27 Q1011 RERA RMK 1ST006 3CU015 5CU025 A2987
