2015/12/17 07:32
RJFE 170732Z 32013G24KT 290V350 9999 VCSH FEW020 SCT030 BKN040 05/M03 Q1025 RMK 1CU020 4CU030 5CU040 A3028
