2015/12/18 09:00
RJFG 180900Z 30008KT 9999 FEW035 08/01 Q1028
