2015/12/18 11:00
RJFK 181100Z 34006KT 9999 FEW040 03/M01 Q1029
