2015/12/18 11:00
RJFM 181100Z 25012KT 9999 FEW030 08/M04 Q1029
