2011/10/06 09:25
RJFN 060925Z 01002KT 9999 FEW030 BKN180 BKN210 22/17 Q1012 RMK 1CU030 5AC180 A2991
