2015/12/18 11:00
RJFS 181100Z 33003KT 300V360 9999 FEW030 BKN040 06/02 Q1030
