2015/12/18 11:00
RJFU 181100Z 35005KT 280V030 9999 BKN035 BKN050 08/01 Q1030
