2007/04/26 23:30
RJFW 262330Z 00000KT 2 SM BR OVC015 17/17 A3012 RMK SLP202
