2011/10/05 20:30
RJFZ 052030Z 25007KT 9999 FEW015 SCT045 17/16 Q1011 RMK 2CU015 3SC045 A2987
