2015/12/18 11:30
RJGG 181130Z 32015KT 9999 FEW030 08/00 Q1026 NOSIG
