2015/12/18 10:00
RJKA 181000Z 36013KT 9999 FEW030 SCT040 BKN050 15/07 Q1027
