2008/09/30 09:00
RJKB 300900Z 20018KT 9999 FEW010 BKN/// 29/25 Q1008
