2015/12/17 21:05
RJNG 172105Z 03001KT 9999 SCT050 03/M02 Q1024 RMK 4SC050 A3026
