2011/10/06 06:32
RJNH 060632Z 29015G25KT 9999 FEW020 25/13 Q1004 RMK 1CU020 A2967
