2015/12/18 11:00
RJNS 181100Z 30009KT 9999 FEW025 05/01 Q1023
