2015/12/18 11:00
RJNT 181100Z 14003KT 080V230 9999 FEW030 SCT050 BKN060 05/01 Q1027
