2015/12/18 10:00
RJNW 181000Z 18004KT 150V220 9999 FEW030 BKN060 03/03 Q1025
