2015/12/18 01:20
RJNY 180120Z 02003KT 340V060 9999 FEW025 SCT045 10/M03 Q1023 RMK 1CU025 3SC045 A3021
