2015/12/18 11:00
RJOB 181100Z 27004KT 230V290 9999 FEW030 BKN045 05/M02 Q1027
