2015/12/18 11:00
RJOC 181100Z 29010KT 9999 FEW030 SCT040 07/02 Q1028
