2015/12/18 03:39
RJOE 180339Z 30015G25KT 9999 FEW025 09/M01 Q1025 RMK 2CU025 A3029
