2015/12/18 03:21
RJOF 180321Z VRB02KT 9999 FEW010 SCT030 BKN045 09/01 Q1029 RMK 1ST010 3CU030 5SC045 A3039
