2015/12/18 10:55
RJOI 181055Z 28006KT 9999 FEW030 06/01 A3043 RMK SLP303 T00610006
