2015/12/18 11:00
RJOK 181100Z 34008KT 9999 FEW025 06/M02 Q1028
