2015/12/18 11:00
RJOM 181100Z 29012KT 9999 FEW030 SCT035 BKN045 09/00 Q1030
