2015/12/18 11:00
RJOR 181100Z 15007KT 9999 FEW025 SCT035 BKN060 05/02 Q1027
