2015/12/17 19:04
RJOS 171904Z 29011KT 9999 FEW020 SCT040 BKN050 05/M02 Q1025 RMK 1CU020 4CU040 6SC050 A3029
