2015/12/18 11:00
RJOT 181100Z 22006KT 9999 FEW030 BKN045 05/M01 Q1028
