2015/12/18 10:00
RJOW 181000Z 18008KT 9999 FEW030 BKN045 04/03 Q1029
