2015/12/16 23:01
RJOZ 162301Z 30015G25KT 9999 FEW015 BKN030 05/M03 Q1020 RMK 1CU015 5CU030 A3013
