2015/12/18 11:11
RJSA 181111Z 22014KT 3000 -SHSN FEW004 SCT007 BKN010 M00/M01 Q1019 RMK 1ST004 3ST007 5ST010 A3011
