2015/12/18 07:40
RJSH 180740Z 25015G26KT 9999 FEW030 BKN040 03/M05 Q1019 RMK 1CU030 6CU040 A3010
