2015/12/18 10:00
RJSI 181000Z 28007KT 240V320 9999 -SHSN FEW020 SCT040 BKN050 03/M03 Q1021
