2011/09/30 15:00
RJSM 301500Z 29015KT 9999 SCT035 13/09 Q1006 RMK 3CU035 A2971 MAX WIND 22KT FCST 1521 TEMPO 1521 28015G25KT FEW020CU BKN030CU
