2015/12/18 11:34
RJSO 181134Z 27010G21KT 230V300 4900 -SHSN FEW008 BKN015 OVC035 02/M01 Q1018 RMK 2ST008 5CU015 8CU035 A3007 2000N
