2015/12/18 10:00
RJSR 181000Z 25009KT 210V270 9999 FEW010 SCT040 BKN050 02/00 Q1022
