2011/10/06 15:21
RJST 061521Z 24008KT 8000 -SHRA FEW005 BKN030 17/14 Q1004 RMK 1ST005 7CU030 A2966
