2015/12/18 05:22
RJSU 180522Z 30011KT 9999 FEW015 BKN050 08/M03 Q1021 RMK 1CU015 5CU050 A3017 MAX WIND 20KT
