2015/12/18 11:00
RJSY 181100Z 28013KT 6000 -SHRA FEW010 SCT015 BKN025 04/02 Q1023
