2011/10/25 09:07
RJTA 250907Z 34010KT 300V010 9999 FEW030 SCT120 BKN150 24/16 Q1008 RMK 1CU030 3AC120 6AC150 A2978
