2015/12/18 01:05
RJTE 180105Z 01015G25KT 340V040 9999 FEW020 10/M05 Q1023 RMK 1CU020 A3023
