2015/12/18 07:00
RJTF 180700Z 01005KT 9999 FEW030 10/M04 Q1022
