2013/03/31 08:00
RJTH 310800Z VRB02KT 9999 FEW020 OVC/// 18/11 Q1013
