2015/12/18 07:00
RJTI 180700Z 36005KT 280V080 9999 FEW030 11/M05 Q1022
