2011/10/06 13:34
RJTJ 061334Z VRB01KT 9999 FEW060 BKN080 18/15 Q1007 RMK 1SC060 5AC080 A2976
