2015/12/17 11:40
RJTL 171140Z 10004KT 9999 FEW007 FEW015CB BKN080 07/03 Q1015 RETS RMK 1ST007 1CB015 6AC080 A2997 CB 25KM S MOV SE
