2009/11/06 16:00
RJTN 061600Z 00000KT 9999 SKC 11/10 A3006
