2015/12/18 07:00
RJTO 180700Z 11004KT 9999 FEW040 11/M01 Q1022
