2015/12/17 09:06
RJTR 170906Z 21004KT 7SM BKN034 OVC050 08/02 A2990
