2015/12/17 00:17
RJTU 170017Z 08004KT 9999 FEW030 SCT100 10/M01 Q1009 RMK 1SC030 3AC100 A2981
