2015/12/18 11:00
RKJB 181100Z 03002KT 9999 BKN035 03/03 Q1033 NOSIG
