2015/11/09 00:00
RKJJ 090000Z 30002KT 9000 -DZ FEW008 BKN015 OVC030 14/13 Q1018 NOSIG
