2015/12/18 11:27
RKJK 181127Z AUTO 07004KT 10SM R36/5500FT BKN048 01/01 A3052 RMK AO2
