2014/01/04 21:00
RKJM 042100Z 06002KT 3200 BR NSC M07/M08 Q1023 NOSIG
