2015/02/21 07:40
RKJY 210740Z 24001KT 2500 RA BR SCT010 BKN025 OVC070 07/06 Q1016 NOSIG
