2009/07/23 13:00
RKNF 231300Z 11003KT 3200 BR FEW000 SCT004 BKN020 15/14 A2990
