2009/08/11 02:00
RKNN 110200Z 07002KT 4400 -DZ BR FEW000 BKN005 BKN010 OVC015 23/22 A2984
