2015/12/18 11:00
RKNY 181100Z AUTO 24014KT 3000 NCD 04/M06 Q1030
