2015/12/18 11:00
RKPC 181100Z 35008KT 310V020 9999 BKN035 08/M02 Q1033 NOSIG
