2015/12/18 11:00
RKPK 181100Z 33004KT CAVOK 03/M03 Q1031 NOSIG
