2009/07/24 04:00
RKPM 240400Z 20009KT 9000 BR BKN010 OVC020 25/25 A2954
