2015/01/31 17:00
RKPN 311700Z 07001KT 9999 SKC M06/M12 A3050 RMK SLP331 
