2015/10/18 12:00
RKPS 181200Z 03001KT CAVOK 14/11 Q1019 NOSIG
