2015/02/21 23:00
RKPU 212300Z 05002KT 1600 BR FEW010 SCT020 OVC100 10/10 Q1012 NOSIG
