2008/12/04 18:00
RKRK 041800Z 32010G020KT 9999 SCT050 BKN100 06/M08 A3011 
