2009/06/07 03:00
RKSC 070300Z 09005KT 9000 -RA BR SCT040 OVC100 13/10 A2989
