2009/08/06 18:00
RKSF 061800Z 13002KT 9999 BKN030 BKN100 25/22 A2986
