2015/12/18 10:58
RKSG 181058Z 11003KT 5SM BR FEW020 BKN055 01/M01 A3051 RMK AO2A SLP336 T00091009 $
