2015/12/18 11:30
RKSI 181130Z 06006KT 6000 FEW015 SCT025 BKN110 M00/M05 Q1033 NOSIG
