2009/08/08 00:00
RKSJ 080000Z 11009KT 000 FG VV000 17/16 A3005
