2015/12/18 11:00
RKSM 181100Z 09001KT 9999 FEW020 BKN050 01/M07 A3052 RMK CIG050 SLP336 8/500 9/700
