2015/12/18 11:28
RKSO 181128Z 09003KT 6SM BR SCT014 BKN025 OVC050 01/M04 A3051 RMK AO2A
