2015/11/06 18:17
RKSP 061817Z COR 09009KT 7SM FEW013 OVC038 11/10 A3026 RMK AO2A DZE1758 COR 1928
