2009/08/04 08:00
RKSQ 040800Z 25004KT 9999 BKN200 27/20 A2971
