2015/12/18 11:00
RKSS 181100Z 08003KT 030V090 9000 FEW015 SCT030 BKN110 00/M09 Q1033 NOSIG
