2009/05/10 21:00
RKSU 102100Z 09001KT 6000 -RA BR BKN030 OVC100 16/16 A2993
