2009/08/10 19:00
RKSV 101900Z 02001KT 9999 -RA BKN030 21/19 A2981
