2009/08/11 02:00
RKSW 110200Z 05003KT 8000 RA BR BKN030 OVC060 24/22 A2973
