2009/08/10 21:00
RKTF 102100Z 09003KT 9000 -RA BR BKN060 BKN100 BKN200 24/21 A2978
