2010/11/05 03:18
RKTG 050318Z AUTO 21004KT 4500 HZ CLR 15/04 A3023 RMK AO2 SLP239 $
