2014/05/06 20:00
RKTH 062000Z 15002KT 9999 FEW200 10/02 A3004 RMK SLP172 8/008 9/002
