2009/08/11 01:00
RKTI 110100Z 13005KT 9999 SCT030 BKN070 OVC200 27/21 A2977
