2009/08/06 10:00
RKTM 061000Z 10006KT 9999 BKN030 BKN100 25/21 A2990
