2015/12/18 11:00
RKTN 181100Z 30005KT 9999 FEW050 03/M03 Q1031 NOSIG
