2015/12/18 08:00
RKTP 180800Z 12003KT 9999 BKN027 03/00 A3049
