2009/06/04 21:00
RKTS 042100Z 29001KT 3200 BR FEW000 14/13 A2966
