2015/12/18 11:00
RKTU 181100Z 06003KT 9000 SCT018 BKN025 01/M04 Q1033 NOSIG
