2009/06/05 03:00
RKTW 050300Z 29005KT 8000 BR FEW020 20/17 A2965
