2009/08/11 02:00
RKTY 110200Z 10008KT 9999 FEW015 SCT018 OVC025 26/21 A2976
