2009/03/08 09:00
RLLL 080900Z 11010KT 9999 FEW025 32/24 Q1008 NOSIG RMK A2977
