2013/01/26 12:00
RLLP 261200Z 32005KT 290V010 1999 FEW015 BKN200 08/02 Q1038
