2012/08/15 20:00
RMDB 152000Z 14005KT 080V170 CAVOK 37/21 Q0998 NOSIG
