2012/04/20 16:00
RMLM 201600Z 02007KT 9999 SCT020 SCT130 29/24 A2991
