2015/12/18 11:30
ROAH 181130Z 05006KT 360V110 9999 FEW040 17/07 Q1027 RMK 1SC040 A3033
