2011/12/24 15:00
ROBI 241500Z 000000KT 8000 BKN030 16/11 Q1012 NOSIG
