2015/12/18 10:58
RODN 181058Z AUTO 03009G16KT 10SM CLR 15/08 A3033 RMK AO2 SLP279 T01530079
