2015/12/18 11:00
ROIG 181100Z 01012KT 9999 VCSH SCT016 BKN040 17/15 Q1025
