2009/11/30 10:00
ROKJ 301000Z 36020KT 9999 SCT030 BKN060 20/12 Q1020
