2011/11/16 20:00
ROKK 162000Z 16002KT 9999 FEW025 SCT300 26/26 Q1009 NOSIG RMK A2980
