2012/10/01 11:00
ROLB 011100Z 11002KT 9999 FEW018 BKN080 26/24 Q1011 NOSIG
