2015/07/02 15:00
ROLI 021500Z 09002KT 9999 FEW019 27/25 Q1007 RESH RMK A2974
