2013/04/14 19:00
ROMM 141900Z 29008KT CAVOK 25/08 Q1012 NOSIG
