2015/12/18 11:06
ROMY 181106Z 05009KT 010V080 8000 -SHRA FEW020 SCT032 BKN040 17/14 Q1026 RMK 1CU020 4CU032 6SC040 A3030
