2014/03/11 18:00
ROMZ 111800Z 07002KT 9999 FEW018 SCT350 26/22 Q1012 A2989
