2014/04/19 02:00
RPEM 190200Z 09004KT 9999 FEW015CB SCT016 30/26 Q1011 RMK A2988 CB NE QD
