2014/08/22 01:00
RPFM 220100Z 22007KT 9999 SCT020 BKN300 28/25 Q1011 RMK A2985
