2010/01/16 10:00
RPGC 161000Z 10007KT 070V150 9999 FEW042 BKN300 26/19 Q1015 A2998 NOSIG
