2015/12/18 10:00
RPLI 181000Z 04010KT 9999 FEW019 26/19 Q1013 NOSIG RMK A2991
