2009/01/01 12:00
RPLK 011200Z 02008KT 9999 SCT036 OVC100 24/19 Q1013 A2994 NOSIG RMK NOSIG
