2015/12/18 11:00
RPLL 181100Z 01009KT 330V050 9999 SCT023 OVC100 26/23 Q1013 NOSIG RMK A2991
