2015/03/02 23:00
RPLV 022300Z 34007KT 9999 FEW020 26/22 Q1012 RMK A2988
