2015/12/18 11:00
RPMD 181100Z 36004KT 330V030 9999 SCT016 BKN090 OVC290 26/25 Q1009 RMK A2980
