2011/12/22 06:00
RPMM 220600Z 29004KT 280V030 9999 SCT023 BKN100 30/24 Q1007 NOSIG RMK A2974
