2015/03/09 21:00
RPMX 092100Z 00000KT 9999 FEW017 24/22 Q1013 RMK A2991
