2015/12/18 10:00
RPMZ 181000Z 27006KT 9999 FEW017CB FEW018 28/24 Q1011 RMK A2985 CB SW NW
