2009/09/28 07:00
RPNZ 280700Z 04006KT 9999 FEW018 OVC120 28/25 Q1007
