2010/11/14 13:00
RPPL 141300Z 10006KT 9000 -RA FEW023 OVC100 26/23 Q1014 NOSIG RMK A2995
