2015/01/21 14:00
RPPM 211400Z 25040KT 5000 -TSRA SCT015CB OVC090 24/24 Q1014 A2994 CB ALQDS
