2009/09/12 06:00
RPTC 120600Z VRB02KT 6000 -RA BKN023 OVC080 25/23 Q1008 A2977 NOSIG RMK LGT RA CONTUS
