2009/10/20 08:00
RPVC 200800Z 35005KT 320V030 9999 FEW020 SCT036 BKN270 31/22 Q1009 A2980
