2015/12/18 09:00
RPVD 180900Z 04010KT 9000 BKN015 OVC080 28/27 Q1008 RMK A2977 RESHRA
