2015/10/23 05:00
RPVK 230500Z 04008KT 9000 SCT020 31/26 Q1009 RMK A2980
