2009/03/31 23:00
RPVZ 312300Z 00000KT 9999 FEW018 BKN350 25/24 Q1011
