2009/11/27 16:00
RPWC 271600Z 32004G19KT 300V360 7000 FEW042 BKN100 25/22 Q1012 A2989 NOSIG
