2009/10/27 20:00
RPZC 272000Z 31006KT 290V360 9999 FEW042 BKN270 21/19 Q1012 A2991 NOSIG RMK NOSIG
