2009/05/20 11:00
RQLC 201100Z 31006KT 280V010 8000 TS FEW020CB SCT027 OVC090 26/24 Q1008 A2979 NOSIG RMK OCNL TS N W/ FRQ LTNG N
