2014/11/24 22:00
RRLB 242200Z 00000KT 9999 FEW020 SCT300 25/22 Q1009 NOSIG RMK A2980
