2011/06/22 07:00
RRVM 220700Z 22010KT 9999 SCT020 OVC090 29/26 Q1004 A2965
