2013/07/02 14:00
RRYR 021400Z 19008KT 9999 SCT026 27/12 Q1017 NOSIG
