2010/02/04 16:00
RTAR 041600Z METAR FMSD 041600Z 00000KT 9999 SCT017 BKN033 24/19 Q1012
