2007/06/17 10:00
RUMS 171000Z 17006MPS CAVOK 36/02 Q1008 NOSIG
