2015/12/17 13:05
SAAC 171305Z 02010KT 9999 -TS FEW030 FEW050CB BKN060 25/22 Q1003
