2015/12/14 06:15
SAAG 140615Z 18005KT 9999 SCT020 FEW050CB 20/18 Q1005 RELGHT
