2015/12/12 15:33
SAAJ 121533Z 32006KT 9000 -TSRA FEW015 OVC040 FEW050CB 27/21 Q1006
