2015/12/17 10:08
SAAP 171008Z 18015G29KT 0200 TSRA BKN006 FEW050CB BKN050 21/20 Q1002
