2015/12/18 11:00
SAAR 181100Z 16011KT CAVOK 20/13 Q1010
