2015/11/27 10:45
SAAV 271045Z 25030KT 0500 +TSRA OVC040 FEW050CB 20/20 Q1006
