2015/10/31 22:00
SABC 312200Z 07010KT CAVOK 18/01 Q1014
