2015/12/18 11:00
SABE 181100Z 18016KT CAVOK 21/12 Q1009
