2009/08/25 20:00
SACC 252000Z 05005KT CAVOK 09/06 Q1004
