2015/11/12 14:45
SACE 121445Z 14010KT 9999 BKN015 FEW035TC 25/20 Q1004
