2015/12/18 11:00
SACO 181100Z 20016KT 9999 -RA FEW020 BKN030 14/09 Q1019
