2015/12/18 11:00
SADF 181100Z 18007KT CAVOK 20/13 Q1010
