2014/07/18 14:35
SADM 181435Z 00000KT CAVOK 10/08 Q1026
