2015/12/15 10:28
SADP 151028Z 18011KT 9999 FEW005 SCT200 19/16 Q1017
