2011/09/02 12:00
SAES 021200Z 06015KT CAVOK 11/05 Q1023
