2009/12/26 10:15
SAFV 261015Z 18024KT 1500 +RA OVC006 22/21 Q1005
