2007/08/26 14:00
SAGU 261400Z 21004KT 9999 OVC030 22/16 Q1015 NOSIG
