2009/09/17 02:00
SAGW 170200Z 34023G31KT 9999 FEW030 10/01 Q0993
