2011/11/14 16:00
SAJC 141600Z 09013KT 9999 SCT013 34/23 Q1011
