2015/12/05 11:00
SAKR 051100Z 00000KT 9000 SCT023 BKN120 18/17 A3010 RMK HZ
