2009/08/06 04:00
SAM3 060400Z 00000KT CAVOK 09/02 Q1024
