2015/12/03 00:25
SAMR 030025Z 14004KT 9999 OVC005 15/14 Q1016
