2015/12/18 10:20
SANC 181020Z 20009KT 2000 -DZ BKN009 OVC020 20/20 Q1010
