2015/12/13 00:14
SANE 130014Z 14017G20KT 6000 DU SCT030 SCT040TCU 35/23 Q0998
