2015/11/02 10:40
SANL 021040Z 18004KT 1500 -DZ SCT008 OVC015 12/12 Q1017
