2015/08/09 20:05
SANR 092005Z 18014KT 5000 TSRA BKN015 FEW040CB 13/11 Q1006
