2015/12/18 11:00
SANT 181100Z 18006KT 2000 -RA SCT003 SCT005 OVC040 21/20 Q1012
