2015/11/25 00:25
SANU 250025Z 18026G33KT 2400 SA NSC 27/06 Q1004
