2014/01/14 08:47
SANW 140847Z 07007KT 6000 NSC 20/19 Q1014 RMK BR
