2015/12/18 11:00
SAOC 181100Z 18013KT 9999 BKN030 OVC100 16/11 Q1016
