2015/12/12 16:20
SAOR 121620Z 05008KT 9999 SCT015 FEW035CB 17/16 Q1007
