2015/02/20 21:15
SAOS 202115Z 18006KT 9999 SCT020 SCT060 16/15 Q1016
