2015/12/18 08:50
SAOU 180850Z 11017G25KT CAVOK 15/M02 Q1016
