2008/07/15 00:00
SAQU 150000Z 33006KT 4000S 9999N -RA VCFG FEW005 BKN030 BKN100 14/10 Q1026 NOSIG
