2015/12/18 11:00
SARC 181100Z 27008KT CAVOK 29/23 Q1004
