2015/12/18 11:00
SARE 181100Z 25009KT 210V270 9999 FEW030 BKN060 BKN070 28/22 Q1005
