2015/12/18 11:00
SARF 181100Z 36012KT CAVOK 30/24 Q1005
