2015/12/18 11:00
SARI 181100Z 05004KT CAVOK 25/24 Q1011
