2012/07/11 11:20
SARM 111120Z 23002KT 5000 FG 01/00 Q1018
