2015/12/18 11:00
SARP 181100Z 36008KT CAVOK 27/23 Q1008
