2015/12/18 11:00
SASA 181100Z 36007KT 9999 FEW015 BKN022 23/18 Q1011
