2012/08/19 03:00
SASM 190300Z 29007KT 2500 DZ OVC006 11/10 Q1016
