2009/04/30 10:00
SASO 301000Z 00000KT 5000 RA FEW006 OVC020 20/20 Q1018
