2013/01/01 17:00
SAST 011700Z 18014KT 8000 RA FEW025 BKN030 BKN040 19/19 Q1020
