2015/12/18 11:15
SATR 181115Z 16008KT 2500 TSRABR BKN006 OVC040 FEW050CB 23/22 Q1005
