2012/08/01 10:00
SAUG 011000Z 09004KT 9999 BKN020 FEW022CB BKN300 27/19 Q1017
