2008/08/29 17:20
SAVB 291720Z 36019KT 9999 SCT060 12/05 Q1008
