2015/12/14 18:20
SAVT 141820Z 25005KT 6000 SH SCT035CB 15/06 Q1015
