2015/12/14 14:00
SAVV 141400Z 36010KT 9999 BKN020 FEW035CB 22/09 Q1008
