2015/12/14 12:30
SAVY 141230Z 07010KT 6000 -RA SCT020 OVC050 09/09 Q1013
