2015/12/17 02:18
SAWC 170218Z VRB03KT 9999 VCSH SCT035 BKN080 11/05 Q1012
