2013/01/23 16:00
SAWD 231600Z 18008KT 9999 -RA BKN018 BKN100 14/05 Q1011
