2015/12/18 11:00
SAWE 181100Z 29002KT CAVOK 08/05 Q1010
