2015/12/18 11:00
SAWG 181100Z 26006KT 250V320 CAVOK 09/03 Q1013
