2015/12/07 22:10
SAWJ 072210Z 23030KT 9999 SCT030 SCT035 19/03 Q1002
