2015/08/20 13:49
SAWP 201349Z 34002KT 3000 VCFG SCT007 SCT015 00/M01 Q1010
