2015/12/03 12:25
SAWT 031225Z 20007KT 9999 FEW020 SCT080 BKN200 11/06 Q1004
