2015/12/17 06:25
SAZA 170625Z 05004KT 9999 BKN020 OVC050 16/15 Q1005
