2015/11/10 13:00
SAZG 101300Z 14008KT CAVOK 24/07 Q1018
