2015/12/18 11:00
SAZM 181100Z 32006KT 9999 FEW015 17/14 Q1009
