2015/12/18 11:00
SAZN 181100Z 23006KT CAVOK 13/04 Q1020
