2015/12/16 12:30
SAZR 161230Z 36026G35KT 2500 DU SCT035 BKN100 24/17 Q1009
