2015/12/18 11:00
SAZS 181100Z 00000KT CAVOK 05/M00 Q1021
