2015/12/14 11:25
SAZT 141125Z 11020KT 2000 RA OVC040 15/14 Q1011
