2015/11/05 21:30
SAZY 052130Z 36008KT 9999 FEW035 FEW040 BKN060 15/13 Q1022 RE-RA
