2015/12/17 20:45
SBAA 172045Z 00000KT 5000 HZ NSC 31/23 Q1010
