2015/12/18 11:00
SBAF 181100Z 31002KT CAVOK 29/23 Q1013
