2012/03/07 01:00
SBAL 070100Z 08010KT CAVOK 26/20 Q1018
