2015/12/18 11:00
SBAN 181100Z 23005KT 9999 SCT030 SCT080 21/16 Q1020
