2015/12/17 23:00
SBAU 172300Z 07004KT CAVOK 28/21 Q1011
