2015/12/18 10:00
SBAX 181000Z 15003KT CAVOK 21/19 Q1020
