2015/12/18 11:00
SBBE 181100Z 08010KT 9999 FEW017 28/23 Q1012
