2015/12/17 20:45
SBBG 172045Z 23016KT 7000 TSRA BKN025 BKN030CB 20/20 Q1008
