2015/12/18 11:00
SBBH 181100Z 09009KT CAVOK 25/17 Q1019
