2015/12/18 11:00
SBBI 181100Z 36004KT CAVOK 23/20 Q1017
