2015/12/18 11:00
SBBQ 181100Z 36007KT CAVOK 23/17 Q1022
