2015/12/18 11:00
SBBV 181100Z 07015KT CAVOK 25/19 Q1012
