2015/12/17 20:15
SBBW 172015Z 27010KT 9999 TS SCT020 FEW025CB 32/20 Q1009
