2011/12/24 19:00
SBBZ 241900Z 09018KT CAVOK 27/21 Q1010
