2015/12/18 10:00
SBCA 181000Z 04018KT CAVOK 24/20 Q1014
