2015/12/18 11:00
SBCC 181100Z 07005KT 4000 BR NSC 22/22 Q1014
