2015/12/18 11:00
SBCF 181100Z 03007KT CAVOK 25/17 Q1020
