2015/12/18 11:00
SBCG 181100Z 36007KT CAVOK 26/19 Q1013
