2015/12/18 11:00
SBCJ 181100Z 06003KT 4000 BR FU OVC005 22/20 Q1016
