2013/01/24 05:00
SBCL 240500Z 11004KT 9999 FEW020 23/19 Q1013 
