2015/12/18 10:00
SBCM 181000Z 19003KT 9999 FEW030 26/22 Q1007
