2015/12/18 11:00
SBCO 181100Z 14005KT CAVOK 26/23 Q1006
