2015/12/18 11:00
SBCP 181100Z 02008KT CAVOK 29/24 Q1014
