2015/12/18 11:00
SBCR 181100Z 09005KT CAVOK 28/23 Q1010
