2008/10/27 22:00
SBCV 272200Z 02010KT CAVOK 25/22 Q1012
