2015/12/17 16:00
SBCX 171600Z 03010KT 9999 SCT030 29/21 Q1014
