2015/12/18 11:00
SBCY 181100Z 35007KT CAVOK 27/21 Q1012
