2015/12/18 05:00
SBCZ 180500Z 35002KT CAVOK 24/23 Q1010
