2015/12/18 11:00
SBDN 181100Z 05006KT CAVOK 27/19 Q1014
