2013/01/23 12:00
SBDZ 231200Z 09014KT 9999 SCT020 29/21 Q1013 
