2015/12/18 11:00
SBEK 181100Z 00000KT 5000 BR NSC 26/25 Q1011
