2015/12/18 11:00
SBES 181100Z 05013KT CAVOK 27/22 Q1013
