2015/12/18 11:00
SBFI 181100Z 02012KT CAVOK 28/22 Q1010
