2015/12/18 11:00
SBFL 181100Z 35016KT CAVOK 26/22 Q1010
