2015/12/18 11:00
SBFN 181100Z 11012KT 9999 SCT019 29/25 Q1015
