2015/12/18 11:00
SBFZ 181100Z 10015KT 9999 SCT020 FEW030TCU 29/23 Q1013
