2015/12/18 11:00
SBGL 181100Z 00000KT CAVOK 27/22 Q1012
