2015/12/18 11:00
SBGM 181100Z 11003KT 9999 BKN025 25/24 Q1011
