2015/12/18 11:00
SBGO 181100Z 29003KT 9999 FEW040 24/18 Q1018
