2013/01/25 13:00
SBGP 251300Z 33008KT 9999 BKN030 27/21 Q1014
