2015/07/29 14:00
SBGU 291400Z 10005KT CAVOK 20/12 Q1027
