2015/12/18 11:00
SBGW 181100Z 05002KT CAVOK 26/20 Q1016
