2015/12/18 11:00
SBIC 181100Z 00000KT CAVOK 26/24 Q1011
