2015/12/18 11:00
SBIH 181100Z 11002KT 7000 NSC 27/24 Q1011
