2014/02/14 11:00
SBIT 141100Z 34002KT 9999 SCT010 OVC060 22/21 Q1015
