2015/12/18 11:00
SBJF 181100Z 03009KT CAVOK 23/17 Q1019
