2015/12/18 11:00
SBJP 181100Z 08006KT 030V120 9999 FEW010 BKN020 28/22 Q1015
