2015/12/18 11:00
SBJR 181100Z 04004KT CAVOK 30/23 Q1012
