2015/12/18 11:00
SBJU 181100Z 15005KT 9999 SCT020 30/22 Q1018
