2015/12/18 11:00
SBKG 181100Z 09008KT 060V130 9999 SCT017 SCT023 25/20 Q1017
