2015/12/18 11:00
SBKP 181100Z 36004KT CAVOK 25/18 Q1017
