2015/12/18 11:30
SBLE 181130Z 13006KT 9999 BKN033 25/19 Q1020
