2008/01/11 08:00
SBLN 110800Z 09010KT 5000 -TSRA SCT003 FEW030CB BKN300 22/21 Q1012
