2015/12/18 11:00
SBLO 181100Z 06007KT CAVOK 27/22 Q1015
