2015/12/18 11:00
SBLP 181100Z 10006KT CAVOK 31/17 Q1016
