2015/12/18 11:00
SBMA 181100Z 36003KT 8000 NSC 27/23 Q1013
