2015/12/18 11:00
SBME 181100Z 05011KT CAVOK 31/25 Q1013
