2015/12/18 11:00
SBMK 181100Z 05007KT 350V080 CAVOK 27/16 Q1017
