2015/12/17 23:00
SBML 172300Z 03008KT 9999 VCTS BKN035 FEW040CB 28/18 Q1014
