2015/02/11 19:00
SBMM 111900Z 03017KT CAVOK 27/25 Q1015 W///S4
