2015/12/18 11:00
SBMO 181100Z 07007KT 8000 FEW012 SCT020 BKN080 24/24 Q1016
