2015/12/18 11:00
SBMQ 181100Z 03011KT 9999 SCT016 SCT080 27/26 Q1012
