2015/12/18 11:00
SBMT 181100Z 14003KT CAVOK 26/17 Q1017
