2015/12/18 11:00
SBMY 181100Z 00000KT CAVOK 25/24 Q1011
