2013/06/14 12:30
SBNM 141230Z 24006KT CAVOK 11/07 Q1020
