2015/12/17 20:00
SBOI 172000Z 06009KT 9999 SCT030 30/22 Q1011
