2015/12/18 11:00
SBPA 181100Z 07005KT 050V110 9999 FEW040 BKN100 26/23 Q1006
