2015/12/18 11:00
SBPC 181100Z 11002KT CAVOK 23/18 Q1021
