2015/12/18 09:00
SBPF 180900Z 05010KT CAVOK 20/17 Q1011
