2015/12/18 11:00
SBPL 181100Z 12010KT CAVOK 27/18 Q1017
