2015/11/11 11:15
SBPN 111115Z 30005KT CAVOK 28/24 Q1012
