2015/12/18 11:00
SBPP 181100Z 33016KT CAVOK 26/20 Q1013
