2015/12/18 11:00
SBPR 181100Z 08011KT 9999 FEW015 SCT100 25/19 Q1020
