2015/12/18 11:00
SBPS 181100Z 04008KT 9999 SCT020 28/21 Q1016
