2015/12/18 11:00
SBPV 181100Z 12002KT CAVOK 25/23 Q1010
