2015/12/18 11:00
SBQV 181100Z 07008KT CAVOK 23/14 Q1020
