2015/12/18 11:00
SBRB 181100Z 00000KT CAVOK 24/23 Q1010
