2013/01/23 22:00
SBRD 232200Z 13004KT CAVOK 27/20 Q1012 
