2015/12/18 11:26
SBRF 181126Z 07005KT 4000 -RA BKN010 BKN050 25/24 Q1015
