2015/12/18 11:00
SBRJ 181100Z 33007KT CAVOK 31/24 Q1012
