2015/12/18 11:00
SBRP 181100Z 12004KT CAVOK 26/18 Q1015
