2012/09/19 14:00
SBRV 191400Z 34006KT CAVOK 31/22 Q1015
