2015/12/18 11:00
SBSC 181100Z 04006KT CAVOK 28/21 Q1012
