2015/12/18 11:00
SBSG 181100Z 15008KT 110V190 9999 3000SE SHRA FEW015 SCT023 FEW 027TCU 27/24 Q1014
