2015/12/18 11:00
SBSJ 181100Z 08003KT CAVOK 25/21 Q1017
