2015/12/18 11:00
SBSL 181100Z 07013KT 9999 FEW017 29/22 Q1012
