2015/12/18 10:00
SBSM 181000Z 36012G22KT 340V040 9999 FEW030 BKN100 28/23 Q1003
