2015/12/18 11:00
SBSN 181100Z 08013KT 4000 FU NSC 28/23 Q1012
