2015/12/18 11:00
SBSP 181100Z 01005KT 320V040 CAVOK 25/17 Q1017
