2015/12/18 10:00
SBSR 181000Z 060007KT CAVOK 24/20 Q1016
