2015/12/18 11:00
SBST 181100Z 08003KT CAVOK 27/23 Q1012
