2015/12/18 11:00
SBSV 181100Z 11010KT 9999 SCT017 29/22 Q1016
