2015/12/17 20:42
SBTC 172042Z 09006KT 9999 FEW025 29/24 Q1013
