2015/12/18 11:00
SBTE 181100Z 04004KT CAVOK 28/22 Q1012
