2015/12/18 11:15
SBTF 181115Z 00000KT CAVOK 24/24 Q1010
