2015/12/18 11:15
SBTK 181115Z 07002KT 9999 FEW010 BKN100 24/24 Q1011
