2015/12/18 11:00
SBTU 181100Z 09006KT 8000 FEW001 SCT070 26/24 Q1015
