2015/12/17 21:00
SBUA 172100Z 06003KT 6000 -RA SCT008 OVC090 24/23 Q1007 RETS
