2015/12/18 11:00
SBUF 181100Z 10009KT 9999 BKN019 SCT100 28/21 Q1017
