2015/12/18 11:00
SBUL 181100Z 04009KT CAVOK 24/16 Q1019
