2015/12/18 11:00
SBUR 181100Z 03008KT CAVOK 26/16 Q1018
