2015/03/12 23:00
SBUY 122300Z 00000KT CAVOK 27/26 Q1006
