2015/12/18 11:00
SBVH 181100Z 01007KT CAVOK 23/20 Q1015
