2015/12/18 11:00
SBVT 181100Z 36008KT CAVOK 30/22 Q1016
