2015/12/18 11:00
SBYS 181100Z 00000KT CAVOK 25/19 Q1017
