2013/01/26 20:00
SCAB 262000Z 21013KT CAVOK 25/15 Q1011
