2009/07/02 19:00
SCAC 021900Z 00000KT 9000 VCRA BKN030 29/22 Q1013
