2015/12/17 18:00
SCAP 171800Z 24016G28KT 210V280 9999 BKN040 14/04 Q1022
