2015/12/17 02:00
SCAR 170200Z 00000KT CAVOK 20/15 Q1013
