2011/03/25 07:00
SCAV 250700Z 07005KT CAVOK 18/12 Q1012
