2015/12/17 20:00
SCBA 172000Z 29012KT 260V320 9999 BKN040 14/04 Q1015
