2008/09/14 11:00
SCBQ 141100Z 00000KT 1000 FG FMW008 SCT080 26/25 A2974 RMK APCLO
