2015/12/17 02:00
SCCF 170200Z 24010KT CAVOK 16/M02 Q1025
