2015/12/18 11:00
SCCH 181100Z AUTO 20010KT CAVOK 10/06 Q1017
