2015/12/17 02:00
SCCI 170200Z 03003KT CAVOK 10/05 Q1012 NOSIG
