2013/01/18 22:00
SCDL 182200Z 18013KT 150V210 CAVOK 29/14 Q1011 NOSIG
