2008/05/15 18:00
SCEF 151800Z 10025G36KT 1600 BLSN FEW002 SCT030 BKN200 M10/M11 Q1005 NOSIG
