2011/03/30 15:00
SCER 301500Z 22009KT 190V250 CAVOK 24/14 Q1013
