2015/12/17 23:00
SCFA 172300Z 21015KT 9999 BKN021 19/14 Q1010 NOSIG
