2013/01/26 18:00
SCFP 261800Z 18007KT 110V280 9999 SCT045 18/10 Q1006
