2015/12/17 11:00
SCFT 171100Z AUTO 25004KT 180V320 9999 ///023 06/02 Q1014
