2012/08/11 10:00
SCGL 111000Z 17003KT 110V200 1500 0700N R17L/P2000U R17R/0900V1300U BCFG OVC004 06/05 Q1017 TEMPO 1500 BR
