2015/12/17 01:00
SCGZ 170100Z 06009KT 9000 -RA SCT021 BKN033 04/02 Q1014
