2015/12/16 19:00
SCHR 161900Z 30008KT 9999 SCT020 BKN035 11/06 Q1003
