2015/12/17 11:00
SCIC 171100Z AUTO 18007KT 9999 NCD 13/08 Q1014
