2013/01/27 21:00
SCID 272100Z 36007KT 9999 SCT015 18/13 Q1016
