2015/12/17 02:00
SCIE 170200Z 22009KT CAVOK 14/09 Q1016
