2015/12/16 22:00
SCJO 162200Z 25007KT 170V320 9999 SCT035 17/08 Q1016
