2015/06/19 11:00
SCKL 191100Z 12003KT 9999 FEW017 BKN120 21/20 A2991
