2011/10/31 20:00
SCLL 312000Z 25008KT CAVOK 20/12 Q1012
