2012/08/10 07:00
SCME 100700Z 16002KT 2000 BR BKN023 05/05 Q1020
