2015/12/16 21:00
SCMK 162100Z 24011KT 9999 BKN020 13/04 Q1013
