2015/12/17 11:00
SCON 171100Z AUTO VRB02KT CAVOK 08/06 Q1016
