2011/02/27 22:00
SCPC 272200Z 27005KT CAVOK 28/15 Q1017
