2015/12/17 20:00
SCPQ 172000Z 23010KT 200V270 9999 BKN030 14/06 Q1020
