2015/12/17 02:00
SCQP 170200Z 25003KT 170V290 CAVOK 12/10 Q1018
