2015/12/16 20:00
SCRG 162000Z 16012KT CAVOK 24/10 Q1013
