2015/12/18 11:00
SCSN 181100Z 12003KT CAVOK 13/08 Q1013
