2015/12/17 03:00
SCTE 170300Z 00000KT 9999 SCT050 07/05 Q1018 NOSIG
