2015/12/18 11:00
SCVD 181100Z AUTO 05002KT CAVOK 08/08 Q1022
