2015/06/11 01:00
SCVE 110100Z AUTO VRB03KT 9999 -RA GEW015 BKN029 OVC034 08/07 Q1033
