2008/07/28 22:00
SDGU 282200Z 16005KT 9999 FEW026 SCT260 31/18 Q1008 NOSIG
