2010/04/20 09:00
SDUU 200900Z 18012KT 0300 FG VV/// 17/17 Q1009
