2015/12/18 11:00
SEAM 181100Z 00000KT 9999 1000N BCFG FEW003 BKN023 BKN100 13/12 Q1026
