2008/09/04 10:00
SEAU 041000Z 00000KT 4000N 6000S -DZ VCFG SCT005 OVC020 11/10 Q1027 RMK A3033
