2011/03/24 12:00
SEAZ 241200Z 13004KT CAVOK 14/12 Q1021
