2015/12/18 11:00
SECA 181100Z 23006KT 9999 FEW040 SCT090 20/16 Q1015
