2008/08/09 19:00
SECL 091900Z 13004KT 9000 FEW023 30/18 A2990 RMK HZ
