2015/12/18 11:00
SECO 181100Z 28002KT CAVOK 23/23 Q1011 
