2015/12/18 11:00
SECU 181100Z 15002KT 9999 BKN040 11/09 Q1024
