2008/08/16 18:00
SEGE 161800Z 09004KT 010V150 9999 SCT026 BKN100 27/20 Q1012 NOSIG
