2008/07/27 10:00
SEGT 271000Z 21005KT 9999 BKN020 SCT100 23/19 Q1011 NOSIG
