2015/12/18 11:00
SEGU 181100Z 24006KT 9999 FEW010 BKN030 BKN090 26/22 Q1008 NOSIG RMK A2976
