2008/07/26 03:00
SEGW 260300Z 21010KT 9999 FEW033 BKN100 24/19 Q1013 NOSIG
