2015/12/18 11:00
SEJD 181100Z 20001KT 9999 VCSH BKN100 22/22 Q1013
