2014/03/20 15:20
SEJM 201520Z 00000KT 8000 2000E RA FEW005 BKN023 BKN100 23/23 Q1015 
