2015/12/18 11:30
SELT 181130Z 19006KT 9999 6000N BCFG FEW010 BKN026 11/11 Q1028
