2008/07/18 21:00
SEMV 182100Z 22011KT 9999 FEW023 29/20 Q1007
