2015/12/18 11:00
SENL 181100Z 07002KT CAVOK 23/23 Q1012
