2008/09/11 22:00
SEPU 112200Z 10010KT 9899 SCT040 19/05 Q1026 RMK A3030 NOSIG
