2008/09/13 12:00
SEQE 131200Z 18006KT 9999 FEW300 13/04 Q1026 RMK A3030 NOSIG
