2015/12/18 11:00
SEQM 181100Z 09003KT 5000 BCFG BKN005 OVC026 11/10 Q1023 BECMG AT1130 9999 RMK A3023
