2015/11/16 02:00
SEQU 160200Z 35005KT 6000 FEW003 SCT030 BKN300 14/13 Q1026 
