2015/12/18 11:00
SESA 181100Z 21014KT 9999 BKN012 25/21 Q1008
