2015/12/18 11:00
SESD 181100Z 25003KT 1500 BR OVC005 23/22 Q1009
