2015/12/18 11:00
SESG 181100Z 00000KT 6000 HZ FEW035 BKN190 08/01 Q1025
