2015/12/18 11:00
SESM 181100Z 32004KT 9999 SCT026 OVC100 20/19 Q1015 A 2999
