2013/04/05 21:00
SESV 052100Z 28011KT 9999 SCT020 BKN100 27/23 Q1008
