2015/12/18 11:00
SETN 181100Z 20008KT 9999 FEW006 SCT030 OVC080 25/25 Q1007 A2976
