2015/12/18 11:20
SFAL 181120Z 12010KT 9999 BKN020 06/02 Q1014
