2012/07/15 00:00
SGAJ 150000Z 17005KT CAVOK 21/16 Q1018
