2015/12/18 11:30
SGAS 181130Z 36009KT 320V030 CAVOK 31/24 Q1006
