2012/08/10 13:00
SGBA 101300Z 32012KT 9999 SCT020 BKN030 01/M02 Q1013
