2012/12/21 18:00
SGBN 211800Z 01012KT 9999 SCT033 39/19 Q1007
