2015/06/10 09:00
SGCO 100900Z 07008KT CAVOK 24/18 Q1011
