2015/12/18 11:30
SGEN 181130Z 05015KT 9999 FEW030 BKN080 26/23 Q1007
