2015/12/18 11:30
SGES 181130Z 02010KT CAVOK 28/25 Q1010
