2015/06/10 00:00
SGGR 100000Z 05002KT CAVOK 23/18 Q1012
