2014/04/25 14:00
SGIE 251400Z 05002KT 0400 FG OVC001 10/10 Q1015
