2012/08/10 09:00
SGIP 100900Z 08020KT 9999 SCT020 BKN030 16/13 Q1025 RESHRA NOSIG
