2015/06/10 09:00
SGME 100900Z 03004KT CAVOK 21/19 Q1010
