2015/06/10 00:00
SGPC 100000Z 06005KT CAVOK 25/19 Q1008
