2012/07/15 00:00
SGPG 150000Z 00000KT 9999 BKN027 OVC070 18/11 Q1020
