2015/06/10 09:00
SGPI 100900Z 36005KT CAVOK 23/18 Q1009
