2015/06/10 09:00
SGPJ 100900Z 02008KT CAVOK 19/16 Q1015
