2015/06/10 09:00
SGSJ 100900Z 05002KT CAVOK 22/19 Q1008
