2015/06/10 09:00
SGSP 100900Z 00000KT CAVOK 21/19 Q1011
