2015/06/10 00:00
SGVR 100000Z 36002KT CAVOK 23/17 Q1011
