2008/03/15 00:57
SHNG 150057Z 07010G15KT 10SM SCT025 BKN060 26/19 A3008 RMK AO2 SLP18˜¢Á2560189 
