2010/07/12 18:56
SINS 121856Z 30010KT 10SM SCT150 38/08 A2988 RMK AO2 SLP052 T03780083 $ 
