2015/12/18 11:00
SKAR 181100Z 00000KT 9000 BKN020 18/17 A3000 RMK HZ
