2015/12/11 19:00
SKAS 111900Z 02003KT 9999 SCT030 33/21 A2984
