2014/07/06 03:00
SKAT 060300Z 00000KT 9999 SCT020 SCT090 22/20 A3007
