2015/12/18 11:00
SKBQ 181100Z VRB02KT 40000 BR BKN006 27/26 A2975 AD OPR IMC
