2015/10/26 11:00
SKBU 261100Z 00000KT 7000 DZ BKN020 25/24 A2986
