2007/08/15 06:00
SKCB 150600Z 00000KT 9999 SKC 08/M03 Q1023
