2015/12/18 11:00
SKCC 181100Z 18016KT 9999 FEW020 SCT090 29/18 A2986
