2008/07/11 12:00
SKCD 111200Z 11004KT 8000 MIFG FEW017 SCT090 18/17 A3006
