2008/07/27 19:00
SKCH 271900Z 01004KT 9999 FEW017 BKN080 29/18 A3990
