2015/12/18 11:00
SKCL 181100Z 00000KT 9999 FEW040 BKN300 19/18 A2992
