2015/06/20 17:00
SKCZ 201700Z 12008KT 9999 SCT050 35/22 A2976
