2015/11/25 20:00
SKFL 252000Z 34007KT 9000 VCSH SCT020 SCT120 29/23 A2977 RMK/VCSH/W
