2009/12/06 20:00
SKGG 062000Z 34009KT 9999 FEW017TCU 32/26 A2975
