2015/10/26 11:00
SKGO 261100Z 02005KT 9999 OVC080 19/19 A2999
