2015/10/12 13:00
SKGP 121300Z 00000KT 9999 BKN070 25/24 A2988
