2015/10/26 11:00
SKGY 261100Z 00000KT 8000 VCFG SCT017 BKN030 12/10 A3036
