2015/12/18 11:00
SKLC 181100Z 00000KT 1500 BR SCT003 BKN090 26/26 A2974 RMK AD BLW MNM MET
