2015/12/18 11:00
SKLT 181100Z 00000KT 7000 -DZ BKN009 SCT070 24/23 A2986 RMK AD OPR IMC
