2015/12/17 23:00
SKMD 172300Z 17006KT 9999 SCT033 BKN200 24/16 A2997
