2014/09/23 19:00
SKME 231900Z 00000KT 9999 SCT020 32/24 A2977
