2015/12/18 11:00
SKMR 181100Z 00000KT 2000 BR BKN020 26/25 A2972 RMK AD OPER IMC
