2015/12/16 23:00
SKMZ 162300Z 26005KT 9999 BKN070 20/14 A3017
