2015/12/18 11:00
SKNV 181100Z 00000KT 9999 BKN110 26/19 A2981
