2014/03/27 14:00
SKOC 271400Z 36012KT 9999 BKN020 19/16 A3017 RMK HZ
