2015/12/18 11:00
SKPE 181100Z 10004KT 9999 BKM015 SCT200 19/17 A2998
