2015/11/28 16:00
SKPP 281600Z 20003KT 8000 SCT040 BKN100 24/19 A3012 RMK HZ
