2015/12/17 23:00
SKPS 172300Z 00000KT 9999 FEW028 20/17 A3002
