2015/10/26 11:00
SKQU 261100Z 00000KT 9000 VCSH BKN020 22/22 A2992 RMKMVCSH/NW/NE
