2015/10/05 20:00
SKRA 052000Z 21005KT 9999 SCT027 SCT120 30/18 A2995
