2015/12/18 17:00
SKSA 181700Z 19008KT 8000 4000S/W/N DZ SCT015 OVC040 23/23 A2992 RMK AD OPR IMC
