2012/08/11 13:00
SKSE 111300Z 31001KT 9999 SCT016 OVC022 11/08 Q1021
