2008/07/28 01:00
SKSG 280100Z VRB02KT 9999 FEW015 BKN070 26/25 A2982
