2015/12/18 11:00
SKSM 181100Z 00000KT 9999 FEW020 27/24 A2972
