2015/12/18 11:00
SKSP 181100Z VRB02KT 9999 FEW017 28/26 A2981
