2015/12/01 19:00
SKSV 011900Z 00000KT 9999 BKN100 25/24 A2988
