2015/12/08 22:00
SKTM 082200Z 04007KT 9000 SCT030 29/20 A2982 RMK HZ
