2015/12/18 01:00
SKUC 180100Z 00000KT 9999 SCT023 24/24 A2984
