2015/12/17 23:00
SKUI 172300Z 00000KT 9999 FEW040 BKN200 27/25 A2972
