2015/12/18 11:00
SKVP 181100Z 03009KT 9999 FEW015 SCT090 26/23 A2981
