2015/12/18 11:00
SKVV 181100Z 00000KT 9999 VCSH BKN017 BKN070 22/21 A2990 RMK VCSH/NE/SW
