2015/11/29 23:00
SKYP 292300Z 34006KT 9999 SCT030 SCT060 28/23 A2975
