2015/12/17 19:00
SLAS 171900Z 31010KT 9999 SCT020 33/24 Q1009
