2015/03/07 11:00
SLBU 071100Z 00000KT 9999 BKN080 23/23 Q1012
