2015/12/18 11:00
SLCB 181100Z 00000KT 8000 FEW030 16/10 Q1022
