2015/12/18 11:00
SLCP 181100Z 00000KT 9999 NSC 23/22 Q1013
