2015/08/15 23:00
SLGM 152300Z 00000KT 7000 FEW020 BKN200 30/23 Q1012
