2012/03/06 20:00
SLHO 062000Z 32004KT 7000 VCSH BKN017 29/24 Q1008
