2007/11/14 10:00
SLJ0 141000Z 00000KT 9999 BKN080 22/22 Q1006
