2013/01/16 20:00
SLJD 162000Z 12004KT 9999 FEW017 34/23 Q1008
