2015/02/05 19:00
SLJT 051900Z 20015KT 6000 TSRA SCT033 SCT036CB BKN200 24/21 Q1015
