2015/12/18 11:00
SLLP 181100Z 06004KT 6000 FEW003 FEW017CB BKN200 09/06 Q1036
