2014/07/02 12:00
SLMD 021200Z 00000KT 9999 SCT012 OVC080 18/17 A3013
