2015/12/18 11:00
SLOR 181100Z 36004KT 8000 NSC 07/05 Q1034
