2013/01/18 14:00
SLPR 181400Z 17012KT 9999 FEW010 SCT023 FEW027CB BKN070 27/22 Q1015
