2015/12/18 11:00
SLPS 181100Z 00000KT 9999 NSC 25/21 Q1010
