2010/02/27 11:00
SLQR 271100Z 14002KT 9999 SCT008 BKN017 OVC070 24/23 Q1011
