2015/12/07 11:00
SLRA 071100Z 00000KT 8000 VCSH BKN008 OVC070 21/20 Q1012
