2015/12/18 11:00
SLRB 181100Z 36010KT 9999 NSC 28/22 Q1012
