2015/12/18 11:00
SLRI 181100Z 00000KT 9999 SCT080 25/24 Q1011
