2015/12/18 11:00
SLRQ 181100Z 00000KT 9999 FEW008 SCT017 BKN070 25/25 Q1010
