2015/12/18 11:00
SLRY 181100Z 00000KT 9999 FEW020 SCT080 25/24 Q1011
