2015/12/18 11:00
SLSA 181100Z 36005KT 8000 NSC 25/23 Q1009
