2015/12/11 22:00
SLSM 112200Z 32004KT 9999 NSC 33/25 Q1006
