2015/04/19 10:00
SLSP 191000Z 00000KT 0100 FG VV/// 21/21 Q1013
