2015/12/11 22:00
SLSR 112200Z 35005KT 9999 NSC 34/24 Q1003
