2015/12/18 11:00
SLSU 181100Z 00000KT 9999 NSC 14/11 Q1024
