2015/12/18 11:00
SLTJ 181100Z 00000KT 9999 BKN025 20/18 Q1014
