2014/04/06 00:00
SLUI 060000Z 00000KT 6000 TS BKN015CB 29/26 A2975 CB/S
