2015/12/09 13:00
SLVG 091300Z 35007KT 9999 SCT027 21/14 Q1022
