2015/12/18 11:00
SLYA 181100Z 00000KT 9999 FEW025 BKN200 25/22 Q1004
