2014/07/31 20:00
SMAO 312000Z 18004KT 8000 -SHRA SCT015CB 25/24 Q1012 NOSIG
