2011/04/16 14:00
SMCB 161400Z 35005KT 9999(FEW027 BKN200 19/11 Q1027
