2008/07/16 00:00
SMGU 160000Z 16005KT 9999 FEW023 BKN100 26/20 Q1011 NOSIG
