2015/12/18 11:00
SMJP 181100Z VRB02KT 3000 BR SCT002 23/22 Q1013 BECMG TL1020 9999 NSW SCT010
