2015/12/08 09:00
SMNI 080900Z 09008KT 9999 FEW015 26/24 Q1012 NOSIG
