2015/10/14 19:00
SMOZ 141900Z 05007KT 9999 FEW040 32/22 Q1010 NOSIG
