2015/10/24 21:00
SMZ0 242100Z 08009KT 9999 FEW030 32/23 Q1008 NOSIG
