2015/12/18 11:00
SMZO 181100Z 08006KT 9999 FEW012 26/23 Q1013 NOSIG
