2014/11/16 18:00
SMZZ 161800Z 02004KT 9999 SCT040 34/23 Q1010 NOSIG
