2007/11/01 19:00
SNAT 011900Z 06014KT CAVOK 28/22 Q1009
