2009/08/07 03:52
SNBG 070352Z 15004KT 10SM SCT150 26/22 A3002 Ñ =É SLP166 T02560222 $ 
