2012/08/14 07:50
SNET 140750Z 02002KT CAVOK 22/22 Q1011 A2987
