2014/11/10 21:00
SNNV 102100Z 03003KT 9999 FEW030TCU BKN200 32/20 A2972 RMK TCU/E
