2013/01/03 18:50
SNTU 031850Z 09011KT 12SM SCT017 SCT040 BKM110 28/25 A2976 RMK SLP078 T02780253 
