2015/12/18 11:30
SOCA 181130Z AUTO 08010KT 050V110 9999 FEW033 28/23 Q1013
