2007/11/28 00:51
SP59 280051Z AUTO 03010KT M07/M12 A3032 RMK AO2 SLP282 T1`21117 PWINO FZRANO TSNO 
