2013/03/09 18:25
SPAG 091825Z 27011KT 9999 TS SCT045CB BKN200 28/17 Q1007
