2015/12/08 20:14
SPAY 082014Z 09004KT 6000 BKN020 23/22 Q1015
