2013/07/17 20:00
SPCA 172000Z 09015KT 5000 SHRA FEW016CB BKN016 28/25 Q1014 CB/ALL QDS TEMPO SHRA
