2009/02/28 11:00
SPCI 281100Z 06008KT 1200 DU NSC 28/M05 Q1013
