2012/11/12 15:00
SPEO 121500Z 19013KT CAVOK 23/16 Q1014 RMK BIRD HAZARD RWY 01 PP000
