2015/12/18 11:00
SPHI 181100Z 20005KT CAVOK 21/19 Q1010 RMK BIRD HAZARD RWY 19/01 PP000
