2015/12/18 11:00
SPHO 181100Z VRB02KT 9999 FEW040 OVC070 17/12 Q1026 RMK PP000
