2015/12/18 11:00
SPHY 181100Z 36004KT 5000 BCFG SCT015 OVC070 04/01 Q1034 RMK PP000
