2015/05/18 12:10
SPHZ 181210Z VRB02KT 8000 -RA OVC050 09/09 Q1037
