2015/11/12 00:00
SPIM 120000Z 18006KT 9999 OVC021 20/16 Q1013 NOSIG RMK PP000
