2015/12/18 11:00
SPJC 181100Z 15007KT 9999 BKN016 OVC022 21/18 Q1010 NOSIG RMK PP000
