2015/12/05 22:20
SPJJ 052220Z 32012KT 8000 VCTS SCT035TCU FEW040CB BKN100 13/08 Q1028
