2015/12/18 11:00
SPJL 181100Z 10003KT 9999 SCT015 SCT100 07/04 Q1036 RMK RA EN LA NOCHE PP065
