2015/12/18 11:30
SPJR 181130Z VRB01KT CAVOK 10/07 Q1027
