2015/12/17 21:00
SPLO 172100Z 16010KT 9999 SCT040 24/18 Q1008 RMK TMAX 25.5 PP000
