2015/12/18 03:00
SPME 180300Z 33003KT 9999 FEW017 SCT023 26/22 Q1008 RMK BIRD HAZARD RWY 32/14 PP000
