2015/12/09 17:30
SPMF 091730Z 34004KT 9000 RA SCT030 BKN080 30/19 Q1016
