2015/12/17 23:00
SPMS 172300Z 00000KT 8000 VCSH SCT015 31/24 Q1009 RMK BIRD HAZARD RWY 09/27 PP000
