2015/12/17 13:28
SPNC 171328Z VRB02KT 9000 SCT015 BKN100 19/16 Q1022
