2015/12/18 11:00
SPQT 181100Z 04003KT 360V060 0500 FG OVC002 23/23 Q1010 TEMPO 0200 RMK PP000
