2015/12/18 11:00
SPQU 181100Z 01004KT CAVOK 14/M01 Q1024 RMK PP000
