2015/12/18 11:00
SPRU 181100Z 14004KT 9000 OVC025 20/19 Q1009 RMK BR PP000
