2009/06/28 19:22
SPS0 281922Z 24017KT 2000 DS FEW025 24/14 Q1016
