2015/12/18 11:38
SPSO 181138Z 22008KT 6000 SCT015 OVC023 21/18 Q1010
