2015/12/18 03:00
SPST 180300Z 00000KT 9999 SCT020 24/22 Q1011 RMK BIRD HAZARD RWY 17/35 PP000
