2015/12/18 11:00
SPTU 181100Z 00000KT 9999 BKN025 25/24 Q1009 RMK BIRD HAZARD RWY 01/19 PP000
