2015/12/17 12:10
SPUR 171210Z 15007KT 110V210 7000 -DZ SCT006 SCT009 22/21 Q1011 RMK BIRD HAZARD RWY 19/01 PP000 DZ INICIO 1205Z
