2013/01/10 12:05
SPWT 101205Z 00000KT 9999 FEW005 SCT150 23/22 Q1014 INFORMACION OTORGADA POR LAS MALVINAS
