2015/12/17 21:00
SPYL 172100Z 18017KT CAVOK 29/20 Q1005 RMK TMAX 31.8 BIRD HAZARD RWY 17/35 PP000
