2015/12/17 18:30
SPZA 171830Z VRB07KT CAVOK 34/13 Q1009
