2014/05/17 09:00
SQQU 170900Z 04007KT CAVOK 11/M09 Q1025 RMK PP000
