2013/07/01 12:00
SRAE 011200Z 14001KT 7000 09/08 Q1022
