2013/06/15 09:00
SRAI 150900Z 18008KT CAVOK 12/12 Q1015
