2009/10/25 00:00
SSME 250000Z 00000KT CAVOK 18/M03 Q1012
