2015/04/14 13:00
SSQU 141300Z VRB03KT CAVOK 18/07 Q1028 NOSIG RMK PP000
