2011/03/25 01:00
SSSE 250100Z 32006KT 9999 BKN018 16/13 Q1014 NEFO PLAYA SKC
