2007/07/26 13:00
STAV 261300Z 31006MPS CAVOK 32/07 Q1009
