2011/11/20 17:00
STCJ 201700Z 08004KT 9999 FEW022CB BKN023 32/22 Q1008 CB-SW NW NOSIG
