2014/07/10 11:00
STGO 101100Z 16004KT 8000 RA BKN008 FEW009CB BKN070 23/22 Q1014 CB ESE&S
