2015/12/17 15:00
SUAG 171500Z 36014KT 9999 FEW030 BKN080 30/23 Q1005
