2015/12/17 18:00
SUCA 171800Z 22012KT 9999 BKN026 24/19 Q1002
