2012/07/24 16:00
SUDO 241600Z 18020KT 8000 NSC 17/09 Q1019
