2015/12/18 11:00
SUDU 181100Z 24003KT 3000 -RABR SCT013OVC080 19/19 Q1006
