2009/03/01 00:00
SUGA 010000Z 11003KT CAVOK 25/20 Q1009
