2015/12/18 11:00
SULS 181100Z 01003KT 6000 BKN017 BKN070 19/18 Q1007
