2008/07/26 01:00
SULT 260100Z 17012KT 9999 FEW020 BKN033 13/07 Q1031
