2015/12/14 22:00
SUME 142200Z 00000KT 9999 FEW030 SCT020 BKN080 25/19 Q1005
