2015/12/18 11:00
SUMU 181100Z 00000KT 1000 R19/P2000 R24/P2000 BR BKN001 OVC070 19/19 Q1007 NOSIG
