2014/12/14 01:00
SURV 140100Z 12004KT 9999 FEW033 21/15 Q1010
