2015/11/12 12:00
SUS0 121200Z 06012KT 9999 SCT080 BKN067 24/21 Q1008
