2011/12/22 06:00
SUSL 220600Z 18020KT 3000 TSRA FEW016 FEW040CB OVC070 20/17 Q1009
