2014/07/24 11:00
SUSU 241100Z 22008KT 9999 FEW010 05/03 Q1020
