2007/07/13 11:00
SVAV 131100Z 34005KT 9999 SCT020 SCT080 23/22 Q1016
