2015/12/18 11:00
SVBM 181100Z 09005KT 9999 BKN013 22/20 Q1015
