2015/12/11 12:00
SVBS 111200Z 26002KT 9999 FEW013 24/19 Q1016 
