2014/06/07 20:00
SVCJ 072000Z 072000Z AUTO 09025KT CAVOK 32/21 Q1007
