2015/12/18 09:00
SVCU 180900Z 07011KT CAVOK 24/22 Q1011 
