2015/12/15 11:00
SVFM 151100Z 00000KT 9999 FEW016 25/22 Q1012 
