2008/07/18 19:00
SVII 181900Z 36007KT 9999 DZ BKN016 30/25 Q1011
