2015/12/18 09:00
SVMD 180900Z 05003KT CAVOK 18/15 Q1018 
