2014/02/07 22:00
SVMF 072200Z 25012KT 8000 VCHZ SCT020 SCT100 23/19 Q1019
