2014/05/01 19:00
SVML 011900Z 20007KT 8000 VCBR SCT020 BKN100 23/21 Q1018
