2009/03/31 18:00
SVND 311800Z 25004KT 9000 VCHZ BKN020 23/19 Q1020
