2013/08/14 17:00
SVPF 141700Z 06021KT 9999 FEW013 33/23 Q1010
