2013/03/25 17:00
SVS0 251700Z 00000KT 9999 BKN050 30/25 Q1013
