2008/01/19 11:00
SVSC 191100Z 00000KT 9999 BKN030 22/19 Q1014
