2015/12/18 11:00
SVVA 181100Z 14003KT 9999 FEW016 22/19 Q1014
