2011/09/20 10:00
SYCY 201000Z 00000KT 7000 FEW012CB SCT280 25/24 Q1011 NOSIG
