2014/02/01 13:00
SYGC 011300Z 04006KT 7000 RA FEW009CB BKN010 BKN034 OVC060 23/23 Q1014 CB AQ
