2015/03/16 10:57
SYKM 161057Z 1612/1623 04006KT 9999 BKN018 BKN038 TEMPO 1618/1623 SCT022
