2007/09/27 04:50
SYZC 270450Z 16004KT CAVOK 33/13 Q1007 A2976
