2015/06/25 14:00
SZMO 251400Z 05003KT 9999 BKN025 31/24 Q1017 NOSIG
