2012/02/07 03:00
TBBI 070300Z 06003KT 9959 SCT030 16/12 Q1023 NOSIG
