2014/09/08 11:00
TBBP 081100Z 08018KT 9999 FEW018 BKN280 28/24 Q1015 NOSIG
