2011/10/25 19:00
TBLI 251900Z 14006KT CAVOK 27/21 Q1012 NOSIG
