2014/05/19 06:00
TBOB 190600Z 08014KT 9999 FEW022 26/21 Q1014
