2015/12/18 11:00
TBPB 181100Z 06019KT 9999 SCT018 27/23 Q1015 NOSIG
