2015/01/10 10:00
TBPN 101000Z 06020KT 9999 SCT016 SCT038 26/22 Q1016 NOSIG
