2010/03/08 11:00
TBSP 081100Z 06006KT 9999 BKN025 28/12 Q1021
