2012/05/15 06:00
TBTB 150600Z 06009KT 9999 FEW016 BKN300 26/23 Q1013
