2010/12/25 08:00
TBZI 250800Z 30014KT CAVOK 20/12 Q1017 NOSIG
