2014/04/02 20:19
TCNM 022019Z 10005KT 070V140 8000 -SHRA FEW018CB SCT019 25/22 Q1015 A2999
