2012/05/25 22:00
TDC7 252200Z 09004KT 9999 FEW015 BKN034 27/23 Q1014
