2012/02/13 16:00
TDCP 131600Z 29004KT 9999 FEW017 27/21 Q1015
