2014/06/12 13:00
TDDP 121300Z 11009KT 9999 SCT028 30/23 Q1019
