2015/12/18 11:00
TDPD 181100Z 09013G23KT 9999 BKN015 26/22 Q1017
