2013/05/24 14:00
TDPF 241400Z 11010KT 9999 BKN017 BKN110 28/23 Q1016
