2008/06/19 21:00
TDPP 192100Z 08010KT 999 BKN017 29/23 Q1014
