2010/10/17 20:00
TDPS 172000Z 12005KT 9999 FEW019 29/22 Q1011
