2014/02/22 16:00
TEDF 221600Z 09006KT 8000 NSC 19/06 Q1816 NOSIG
