2009/09/23 09:00
TEDM 230900Z 18010KT CAVOK 38/03 Q1015
