2014/12/17 03:00
TEDR 170300Z 31009KT 3000 BR FEW030 BKN080 18/17 Q1019 NTSIG
