2008/02/19 21:00
TEFF 192100Z 16001KT 4000 FU NSC 25/13 Q1011 BECMG TL2130 6000 NSW
