2009/08/22 08:00
TEGT 220800Z 30010KT CAVOK 33/09 Q1006
