2009/06/18 00:00
TEJN 180000Z 33005KT CAVOK 28/19 Q1003 NOSIG
