2012/03/05 21:00
TELR 052100Z 32007KT CAVOK 15/10 Q1019 NOSIG
