2009/09/05 10:00
TEMH 051000Z 29002KT CAVOK 37/16 Q1014
