2009/07/20 04:00
TERY 200400Z 36004KT CAVOK 33/03 Q1008 NOSIG
