2011/03/10 14:00
TETK 101400Z 13010KT 9999 FEW030CB FEW035 OVC100 15/03 Q1015
