2011/09/06 06:00
TEZR 060600Z 31009KT CAVOK 38/11 Q1000 NOSIG
