2015/12/18 11:30
TFFF 181130Z AUTO 06009KT 9999 SCT025 SCT030 26/22 Q1016
