2015/12/18 11:30
TFFR 181130Z AUTO 00000KT 9999 NSC 25/21 Q1017
