2007/08/03 18:00
TFPD 031800Z 09011KT 9999 BKN018 BKN260 30/25 Q1014
