2013/06/17 05:00
TGPT 170500Z 10012KT 9999 BKN017 27/24 Q1014 JP-E METAR TGPY 170600Z 09011KT 9999 SCT017 27/24 Q1014 JP-NE METAR TGPY 170700Z 10010KT 9999 SCT018 27/23 Q1014 METAR TGPY 170400Z 09010KT 9999 SCT017 27/24 Q1014
