2015/12/18 11:00
TGPY 181100Z 07013KT 5000 SHRA FEW014CB BKN016 25/24 Q1014 NOSIG CB-S TCU-NE N W
