2009/05/15 10:00
TGYP 151000Z 09010KT 9999 FEW016 SCT036 BKN280 26/22 Q1012 JP-NE
