2012/11/23 16:00
THMM 231600Z 02001MPS 9999 SCT033 BKN066 M11/M11 Q1004 RMK QFE738
