2015/12/18 10:53
TIST 181053Z 08010KT 10SM FEW031 SCT080 24/22 A3002 RMK AO2 RAB0954E09 SLP166 P0001 T02390217 $
