2015/12/18 10:53
TISX 181053Z 05007KT 10SM FEW028 23/21 A3002 RMK AO2 RAE0957 SLP165 P0000 T02330211
