2015/12/18 10:50
TJBQ 181050Z 11005KT 10SM SKC 21/19 A3003 RMK RWY08 - ATIS W
