2015/12/18 10:45
TJIG 181045Z 00000KT 10SM SCT040 25/21 A3005 RMK RWY09 IN USE ATIS A
