2015/12/16 19:50
TJMZ 161950Z 08007KT 10SM BKN040 29/21 A2992
