2015/12/18 10:50
TJPS 181050Z 05005KT 10SM FEW030 SCT060 23/19 A3000
