2015/12/18 10:56
TJSJ 181056Z 00000KT 10SM FEW023 SCT060 SCT090 23/21 A3003 RMK AO2 SLP168 VCSH SE T02330206
