2014/05/09 10:00
TKBK 091000Z 01012KT ?000 -HZ FEW04 BKN080 41/11 Q1009 NOSIG
