2009/09/30 17:00
TKNN 301700Z 10013KT 9999 FEW019 SCT260 33/25 Q1014
