2014/06/22 17:00
TKNP 221700Z 08011KT 9999 FEW17TCU 31/23 Q1017
