2010/02/22 10:00
TKPB 221000Z 17003KT 9999 FEW021 24/21 Q1013
