2015/12/18 11:00
TKPK 181100Z 08013KT 9999 FEW021 26/21 Q1017
