2015/12/18 11:00
TKPN 181100Z 11015KT 9999 SCT024 27/20 Q1016
