2014/10/25 18:00
TLCP 251800Z 11010KT 9999 FEW021CB 31/23 Q1011 NOSIG
