2010/10/20 21:00
TLP2 202100Z 10008KT 9999 FEW026 BKN280 29/23 Q1011 
