2012/01/15 17:00
TMAA 151700Z 31010KT CAVOK 19/10 Q1017 A3004 NOSIG
