2012/03/28 04:00
TMAD 280400Z 14017KT 6000 NSC 28/08 Q1011 A2986
