2011/11/24 03:00
TMAL 240300Z 02005KT 7000 NSC 18/16 Q1017 A3005
