2013/03/19 20:00
TMCB 192000Z 08015KT 040V110 9999 SCT020 29/22 Q1017 NOSIG
