2010/08/11 03:00
TMDJ 110300Z 09003KT CAVOK 30/17 Q1001
