2011/11/14 09:00
TMHK 140900Z 32007KT CAVOK 30/17 Q1014 =-2994
