2011/06/28 13:00
TMID 281300Z 33013KT CAVOK 37/20 Q0995 A2938
