2010/07/13 21:00
TMLW 132100Z 14012KT CAVOK 36/15 Q0996 NOSIG
