2010/03/01 07:00
TMPP 010700Z 00000KT 7000 SCT016 OVC050 25/22 Q1013 A2993
