2008/06/29 00:00
TNC8 290000Z 10014KT 9999 FEW018 28/24 Q1014
