2015/12/18 11:00
TNCB 181100Z AUTO 09016KT 060V120 //// ////// 27/24 Q1011 NOSIG
