2015/12/18 11:00
TNCM 181100Z 11010KT 070v130 9999 SCT018 27/22 Q1017 A3004 NOSIG
