2011/12/30 06:00
TNCS 300600Z 09014KT 9999 SCT016 27/23 Q1013 A2993
