2014/09/16 09:00
TNMC 160900Z 08004KT 9999 FEW019 27/23 Q1015 A2997
