2014/09/29 10:00
TNVA 291000Z 10013KT 9999 SCT017 28/25 Q1010 A2983 NOSIG
