2014/03/28 23:50
TOMS 282350Z 24004KT CAVOK 21/18 Q1013 NTSIG
