2010/12/06 07:00
TOOS 060700Z 02005KT 330V070 CAVOK 26/14 Q1015 NTSIG
