2014/07/01 09:00
TOSP 010900Z 18002KT CAVOK 29/21 Q1011
