2012/03/24 16:00
TOSS 241600Z 34012KT 250V010 CAVOK 24/17 Q1011
