2015/10/26 16:00
TPDD 261600Z 10006KT 9999 BKN017 FEW///CB 32/26 Q1015
