2012/06/21 20:00
TPDP 212000Z 12008KT 9999 BKN017 30/23 Q1014
