2010/01/07 09:00
TPGY 070900Z 11014KT 9999 SCT020 26/22 Q1013
