2014/08/07 13:00
TPKN 071300Z 09016KT 9999 SCT020 30/23 Q1016
