2014/09/20 21:00
TPKP 202100Z 08012KT 9999 FEW019 30/25 Q1014
