2012/11/25 05:59
TPKR 250559Z 09010KT 15SM SCT017CB BKN130 OVC300 30/25 A2979 RMK CB S-SE SLP087 60004 8/371 T02970248 10317 20278 57005
