2015/07/26 17:00
TPLC 261700Z 08009KT 9999 FEW026 31/22 Q1016 NOSIG
