2009/12/31 16:00
TPPC 311600Z 12009G19KT 9999 BKN024 29/23 Q1017
