2015/11/14 02:50
TPRO 140250Z 05010G15KT 14SM BKN015TCU BKN120 BKN300 30/26 A2982 RMK TCU VC ALQDS 
