2013/01/19 14:00
TPTP 191400Z 10013KT 9999 FEW018 SCT290 30/21 Q1016 NOSIG
