2011/06/18 15:00
TRPK 181500Z 07015KT 9999 FEW019 SCT280 31/25 Q1018
