2011/02/27 20:00
TT00 272000Z 06013KT 9999 SCT015 SCT038 BKN080 27/22 Q1011 NOSIG
