2014/05/01 07:00
TTBL 010700Z 06010KT 030V100 2000 DU NSC 33/77 Q1010 NOSIG
