2013/04/10 07:00
TTC0 100700Z 09010KT 9999 FEW015 BKN280 25/21 Q1013 NOSIG
