2013/03/06 07:00
TTCO 060700Z 00000KT 9999 FEW018 BKN038 24/21 Q1014 NOSIG
