2007/04/16 10:00
TTPO 161000Z 00000KT 9999 FEW018 SCT100 BKN300 26/23 Q1014 NOSIG
