2015/12/18 11:15
TTPP 181115Z 10008KT 6000 -SHRA VCSH BKN014 24/23 Q1014 NOSIG RMK SHWR-ALL QUADS XCPT S
