2009/12/29 06:00
TTTA 290600Z 34004KT CAVOK 17/07 Q1011
