2015/12/18 11:00
TUPJ 181100Z 11011KT 9999 SCT019 26/22 Q1017 RMK A3004 
