2007/09/29 14:00
TUTA 291400Z 11002MPS CAVOK 21/04 Q1023 NOSIG
