2011/12/12 10:00
TVAV 121000Z 09007KT 9999 FEW018 25/23 Q1011
