2014/10/23 16:00
TVSB 231600Z 13009KT 9999 BKN014 BKN030 29/23 Q1013
