2015/12/17 21:00
TVSC 172100Z 08013KT 9999 FEW019 28/23 Q1013
