2015/12/18 11:00
TVSV 181100Z 10014KT 9999 SCT018 27/24 Q1015
