2009/01/29 19:00
TVSZ 291900Z 10013KT 9999 SCT016 BKN060 28/21 Q1014 VCSH
