2009/12/17 11:00
TYSN 171100Z 31007KT 280V340 9999 SCT030 24/01 Q1024
