2007/07/31 05:00
TZAR 310500Z FMMT 310500Z 24012KT 3000 -RA SCT017 BKN033 21/21 Q1018
