2015/12/18 11:30
UAAA 181130Z 06002MPS 4200 FU BKN100 01/M06 Q1022 R88/CLRD65 NOSIG
