2015/12/18 11:00
UAAH 181100Z 21009MPS 5000 BR OVC006 M01/M01 Q1017 R23/491540 NOSIG RMK QBB180 QFE724/0966
