2015/12/18 11:30
UACC 181130Z 16010MPS 1200 R22/1200U SN BLSN BKN013 OVC030 M05/M06 Q1001 R22/4/0550 TEMPO 18013G18MPS 0700 SN BLSN RMK QFE720/0960
