2015/12/18 11:30
UACK 181130Z 15006MPS CAVOK M07/M09 Q1001 R20/410354 NOSIG RMK QFE727/0970
