2015/12/18 11:30
UADD 181130Z 22003MPS 180V250 9000 NSC 03/M06 Q1021 NOSIG RMK QFE709/0945
