2013/03/30 23:30
UAFM 302330Z 11005MPS CAVOK 12/02 Q1012 08CLRD70 NOSIG
