2013/03/31 08:30
UAFO 310830Z 28006MPS 9999 FEW040 BKN100 18/06 Q1017 R12/CLRD70 TEMPO 27009MPS 
