2015/12/18 11:30
UAII 181130Z 22003G08MPS 3000 BR BKN050CB OVC100 03/M00 Q1025 R28/0///70 NOSIG RMK QFE731/0975
