2015/12/18 11:30
UAKD 181130Z 23015G20MPS 0200 +SN BLSN VV002 M09/M10 Q1007 R22/99//45 NOSIG RMK QBB060 QFE723/0963
