2015/12/18 11:30
UAKK 181130Z 18012MPS 0800 R23/0800V1300N +SN BLSN OVC029 M05/M07 Q1006 R23/950550 NOSIG RMK QFE708/0944
