2015/12/18 11:30
UAOO 181130Z 27009MPS 9999 SCT033CB BKN130 M03/M11 Q1022 R23/590040 NOSIG RMK QFE754/1006
