2015/12/18 11:30
UARR 181130Z 28004MPS CAVOK M11/M14 Q1021 R22/750240 NOSIG RMK QFE762/1016
