2015/12/18 11:30
UASK 181130Z 14005MPS 9999 -SHSN BKN040CB OVC074 M02/M05 Q1023 R12/590245 NOSIG RMK QFE742/0989
