2015/12/18 11:30
UASP 181130Z 17007MPS 9999 SCT040CB OVC130 M05/M11 Q1014 R21/0///60 NOSIG RMK QFE749/0999
