2015/12/18 10:30
UASS 181030Z 20008MPS CAVOK M01/M05 Q1021 R26/72//50 NOSIG RMK QFE747/0996
