2015/12/18 11:30
UATG 181130Z 27005MPS 5000 BR BKN130 M06/M07 Q1026 R32/42//62 NOSIG RMK QFE771/1029
