2008/05/12 20:00
UATK 122000Z 03004MPS 6000 SCT200 17/11 Q1013 NOSIG
