2015/12/18 11:30
UATT 181130Z 28008MPS 9999 DRSN SCT008 BKN016 M14/M16 Q1014 R31/450545 NOSIG RMK QFE741/0988
