2007/07/16 11:00
UATV 161100Z 28005MPS CAVOK 37/12 Q1002
