2015/12/18 11:30
UAUU 181130Z 35008MPS 6000 -SHSN BLSN OVC016CB M12/M15 Q1001 R33/450055 TEMPO 34012MPS 1000 SHSN BLSN BKN004CB RMK QFE735/0980
