2013/04/15 03:30
UBBD 150330Z 00000KT CAVOK 12/10 Q7021 88CLRD70 NOSIG
