2015/12/18 11:00
UBBL 181100Z 03006KT 9000 BKN100 08/03 Q1029 R33/CLRD// RMK MT OBSC 
