2013/12/22 21:00
UBBM 222100Z 29004KT 2800 BR OVC014 M12/M14 Q1036 R14R/CLRD60 NOSIG RMK MT OBSC QFE701
