2015/12/18 11:30
UBBN 181130Z VRB02KT 7000 OVC036 02/M03 Q1026 R14R/CLRD// NOSIG RMK MT OBSC QFE694
