2011/11/28 08:00
UBBO 280800Z 08008KT 9999 SCT100 03/00 Q1024 R12L/CLRD70 NOSIG 
