2015/12/18 11:00
UBBQ 181100Z 28006KT 9999 SCT025 06/00 Q1027 R34/CLRD// NOSIG RMK MT OBSC
