2013/02/18 08:30
UBBX 180830Z 33008KT 9999 BKN067 09/M01 Q1016 R30R/CLRD70 NOSIG 
