2015/12/18 11:00
UBBY 181100Z 25004KT 9999 BKN055 02/M01 Q1031 R33/////// NOSIG RMK MT OP
