2012/01/31 01:00
UBBZ 310100Z VRB04KT 9999 OVC020 M02/M04 Q1027 R33/CLRD70 NOSIG RMK G/Z
