2008/05/31 21:00
UBCB 312100Z 19002KT CAVOK 17/17 Q1016 NOSIG RMK R88CLRD70
