2015/12/18 11:00
UBEE 181100Z 35004KT 9999 SCT023 07/02 Q1029 R30/CLRD// NOSIG
