2014/02/19 07:00
UBOY 190700Z 29005KT 9999 SCT044CB BKN053 09/05 Q1022 R33/////// NOSIG RMK MT OP
