2013/12/15 09:00
UBVP 150900Z 28004KT 4000 BR OVC010 M06/M07 Q1023 R14R/CLRD60 NOSIG RMK MT OBSC QFE692
