2013/12/28 06:30
UBVX 280630Z 36003KT 9999 FEW100 03/M05 Q1033 R30/CLRD70 NOSIG 
