2014/03/12 00:00
UBZN 120000Z 10004KT 9999 FEW050 SCT100 02/M01 Q1008 -R14R/CLRD60 NOSIG RMK MT OP QFE681
