2013/09/06 20:00
UBZQ 062000Z 13003KT BOOOO NSC 17/09 Q1014 RJERXCLRD70 NOSIG RMK MT PT OBSC
