2015/12/18 11:30
UCFM 181130Z 25004MPS 7000 NSC M01/M06 Q1023 R26/CLRD70 NOSIG
