2015/12/18 11:30
UCFO 181130Z 27002MPS 2400 BR FU BKN080 M00/M04 Q1026 R12/CLRD70 TEMPO 1000 BR FU
