2008/01/30 04:00
UCTA 300400Z 00000MPS CAVOK 00/M05 Q1014 NOSIG
