2014/06/04 10:00
UDBQ 041000Z 33010KT 290V020 9999 SCT150 26/14 Q1016 R34/CLRD70 NOSIG RMK MT OBSC
