2015/12/18 11:30
UDSG 181130Z VRB01MPS 8000 SCT020 OVC083 M05/M10 Q1024 R02/CLRD70 NOSIG
