2015/12/18 11:30
UDYZ 181130Z 00000MPS 6000 BKN043 02/M05 Q1027 R09/010070 NOSIG
