2015/12/18 11:30
UEEE 181130Z 32001MPS 9999 -SN NSC M32/M35 Q1015 R23L/490245 NOSIG RMK QFE753
