2013/07/19 07:30
UELL 190730Z 20004G07MPS 9999 BKN022CB OVC200 17/15 Q1004 NOSIG RMK QFE679 08290250
