2015/12/18 11:30
UERP 181130Z 34001MPS CAVOK M36/M40 Q1013 R35/490534 NOSIG RMK QFE715
