2015/12/18 11:30
UERR 181130Z VRB01MPS 9999 -SHSN SCT015CB M21/M23 Q1013 R25/390330 NOSIG RMK QFE729
