2013/07/19 07:30
UESO 190730Z VRB02MPS 9999 BKN017 15/12 Q1008 RMK QFE754 SC050
