2013/07/19 07:30
UEST 190730Z 03004MPS 9999 BKN024 OVC130 15/11 Q1013 NOSIG RMK QFE759 21010060
