2007/05/25 11:00
UGBT 251100Z 11012G20KT 9999 SCT020 SCT070 31/12 Q1011 GORI ATK
