2011/02/17 04:00
UGCB 170400Z 13016KT P5000 FEW023 00/M04 Q1023 NOSIG
