2008/03/14 03:30
UGDT 140330Z 23003KT 4000 -SHRA BR OVC018CB 09/06 Q1002 NOSIG RMK 31CLRD80 
