2009/07/26 12:00
UGGB 261200Z 28006KT 9999 FEW020CB SCT070 27/23 Q1009 NOSIG
