2008/03/08 05:00
UGGG 080500Z 26003KT 9999 FEW100 05/01 Q1027 NOSIG RMK 31CLRD80
