2007/05/26 10:00
UGJO 261000Z 09019KT 9999 SCT100 36/13 Q1011 NOSIG
