2013/03/07 13:30
UGK0 071330Z 07034G44KT CAVOK 11/M05 Q1024 R08/09//70 NOSIG
