2011/04/17 11:00
UGKJ 171100Z 27016KT 9999 SCT017CB OVC100 13/11 Q1023 NOSIG
