2015/12/18 11:30
UGKO 181130Z 10006KT 050V110 CAVOK 11/M03 Q1026 R07/09//70 NOSIG
