2007/06/14 06:00
UGOK 140600Z 09004KT 9999 FEW133 24/18 Q1015 NOSIG
