2007/08/11 01:30
UGSA 110130Z 09008KT 9999 SCT050CB SCT100 23/13 Q1019 TEMPO TSRA 
