2015/12/18 11:30
UGSB 181130Z 01005KT 340V040 CAVOK 11/02 Q1028 R13/CLRD70 NOSIG
