2008/06/01 07:00
UGSP 010700Z 03014KT 9999 CAVOK 22/10 Q1011 NOSIG
