2015/12/18 11:30
UGTB 181130Z 18005KT 140V200 CAVOK 06/M02 Q1029 R31L/CLRD80 NOSIG
