2007/08/19 03:00
UGTG 190300Z VRB03KT 280V030 9999 SCT050CB BKN100 20/10 Q1015 NOSIG 
