2007/05/23 18:30
UGTL 231830Z 11003KT 360V260 9999 SCT050CB BKN100 22/10 Q1018 NOSIG 
