2010/05/16 12:00
UGTO 161200Z 11007KT 9999 SCT050TCU SCT100 26/13 Q1012 RMK 13CLRD80
