2015/12/18 11:30
UHBB 181130Z 25002MPS CAVOK M15/M18 Q1025 R36/810250 NOSIG RMK QFE751/1001
