2015/12/18 11:30
UHHH 181130Z 27006MPS CAVOK M15/M21 Q1020 R23L/090060 NOSIG RMK QFE758/1011
