2015/12/18 08:00
UHMA 180800Z 06011G14MPS 9999 -SN DRSN SCT010 OVC080 M10/M12 Q0993 RMK QFE741/0988
