2015/12/18 02:30
UHMD 180230Z 35004MPS CAVOK M14/M17 Q1003 RMK QFE752/1003
