2013/09/22 02:00
UHME 220200Z 01003MPS 9999 SCT040 OVC066 08/M03 Q1012 NOSIG RMK QFE744 88CLRD70
