2015/12/18 11:00
UHMM 181100Z 30002MPS 9999 NSC M22/M33 Q0997 RMK QFE733
