2013/07/19 05:00
UHMP 190500Z 23003MPS 9999 SCT100 12/06 Q1015 NOSIG RMK MT OBSC QFE761/1015 SC06
