2013/07/19 07:30
UHNN 190730Z 13008G13MPS 9999 FEW033 22/16 Q1010 NOSIG RMK QFE753 110///60
