2015/12/18 11:00
UHPP 181100Z 33005MPS 9999 NSC M08/M16 Q0991 R34R/850250 NOSIG RMK QFE740/0986
