2013/07/19 06:00
UHSH 190600Z 13005MPS 9999 FEW013 17/11 Q1013 RMK QFE757/1009 13090070
