2015/12/18 11:30
UHSS 181130Z 12001MPS 9999 FEW033CB M09/M10 Q1012 R01/450560 NOSIG RMK MT OBSC QFE758/1010
