2007/05/23 16:30
UHTB 231630Z 04005KT 9999 SCT050CB BKN100 25/09 Q1017 NOSIG 
