2015/12/18 11:30
UHWW 181130Z 00000MPS 9999 NSC M07/M15 Q1030 R25L/0///70 NOSIG RMK QFE771
