2015/12/18 11:30
UIAA 181130Z VRB01MPS 3100 BR NSC M24/M26 Q1023 R29/490060 NOSIG RMK QFE708
