2015/12/18 11:30
UIBB 181130Z 24003MPS 9999 NSC M07/M11 Q1021 R30/390037 NOSIG RMK QFE722/0963
