2015/12/18 11:30
UIII 181130Z VRB01MPS 1500 1000S R30/P2000U BR FU NSC M12/M14 Q1023 R30/820550 NOSIG RMK QFE722/0963
