2015/12/18 11:30
UIUU 181130Z 00000MPS 5000 BR NSC M25/M28 Q1027 R26/811095 NOSIG RMK QFE726/0968
