2015/12/18 11:30
UKBB 181130Z 23003MPS 2200 BR OVC002 02/02 Q1018 88290050 TEMPO 0400 FG OVC002
