2014/06/03 08:00
UKCC 030800Z 11011G16MPS 8000 NSC 23/07 Q1013 08090070 NOSIG
