2014/05/10 11:00
UKCM 101100Z 15004MPS 110V190 CAVOK 21/15 Q1009 NOSIG
