2014/06/08 01:00
UKCW 080100Z 00000MPS CAVOK 20/08 Q1015 0909//70 NOSIG
