2015/12/18 11:30
UKDD 181130Z 25007MPS 210V280 CAVOK 03/M01 Q1021 26090070 NOSIG
