2015/12/18 11:30
UKDE 181130Z 21007MPS 9999 SCT050 03/M01 Q1022 20210370 NOSIG
