2015/12/18 11:30
UKDR 181130Z 22007MPS 9999 SCT040 BKN200 04/01 Q1021 3609//70 NOSIG
