2010/08/14 18:00
UKDZ 141800Z 02002MPS CAVOK 27/12 Q1019 08090070 NOSIG
