2014/07/30 12:00
UKFF 301200Z 06010MPS 040V100 CAVOK 31/09 Q1011 WS RWY01 01010065 NOSIG
