2012/04/05 14:00
UKFK 051400Z 14004MPS 9999 SCT033 OVC100 11/05 Q1016 NOSIG
