2015/12/18 11:30
UKHH 181130Z 24004MPS 9999 BKN021 BKN100 01/M03 Q1019 25190064 TEMPO -FZRASN
