2014/11/19 13:39
UKKG 191339Z 10006MPS 1000 BR OVC003 02/01 Q1025 16210350 TEMPO 0400 RA FG OVC002
