2015/12/18 11:30
UKKK 181130Z 26004MPS 1400 R26/1500N -DZ BR OVC002 02/02 Q1017 26290250 TEMPO 0400 FG OVC001
