2015/12/18 11:30
UKKM 181130Z 24003MPS 1600 -DZ BR OVC002 03/02 Q1017 15220350 TEMPO 1000 -RA BR OVC003
