2015/12/18 11:30
UKLI 181130Z 00000MPS 9999 OVC025 05/04 Q1021 NOSIG
