2015/12/18 11:30
UKLL 181130Z 25004MPS 7000 -RA OVC005 04/03 Q1021 31250360 NOSIG
