2015/12/18 11:30
UKLN 181130Z VRB02MPS 1600 -SHRA BR BKN027CB OVC100 02/02 Q1021 33290260 NOSIG
