2015/12/18 11:30
UKLR 181130Z 26006MPS 9999 OVC005 03/03 Q1018 NOSIG
