2015/12/18 11:30
UKLU 181130Z 13003MPS 1300 -RA BR OVC003 01/01 Q1028 10290060 NOSIG
