2015/12/18 11:30
UKOH 181130Z 25007MPS 9999 BKN010 BKN020CB 04/01 Q1023 21CLRD95 NOSIG
