2015/12/18 11:30
UKON 181130Z 24005MPS 210V290 4700 BR OVC009 01/M01 Q1023 NOSIG
