2015/12/18 11:30
UKOO 181130Z 25004MPS 210V280 7000 BKN008 01/M00 Q1023 16090065 NOSIG
