2015/12/18 11:30
UKWW 181130Z 25004MPS 4000 BR OVC004 02/01 Q1019 NOSIG
