2015/12/18 11:30
ULAA 181130Z 27003MPS 250V310 9999 SCT029 BKN083 M09/M10 Q1013 R26/390138 NOSIG RMK QFE758/1011
