2008/09/06 15:00
ULAK 061500Z 15004MPS 6000 HZ FEW200 BKN100 29/00 Q1015 XNOSIL
