2013/06/27 10:00
ULDD 271000Z 29013G17MPS 9999 SCT030 BKN/// 04/01 Q1013 NOSIG RMK QFE760
