2013/07/19 07:00
ULKK 190700Z 22003MPS 6000 SCT026 18/11 Q1007 NOSIG RMK QFE751 31000060
