2015/12/18 11:30
ULLI 181130Z 14005MPS 090V170 9999 OVC008 M01/M02 Q1009 R10R/520348 R10L/550348 NOSIG
