2015/12/18 11:30
ULMM 181130Z 16004MPS CAVOK M13/M16 Q1005 R13/390135 NOSIG RMK QFE747
