2009/08/05 08:30
ULOL 050830Z 31004MPS 9999 OVC018CB 17/16 Q1019 NOSIG RMK QFE755/1007
