2015/12/18 11:30
ULOO 181130Z 15003MPS 130V190 3600 BR OVC002 01/01 Q1009 R19/290050 RMK QBB080 OBST OBSC QFE752
