2015/12/18 11:30
ULPB 181130Z 00000MPS 9999 FEW016 BKN043 M07/M08 Q1012 RMK QFE755/1007
