2012/12/16 00:30
ULTB 160030Z 14003KT 100V160 000 -SN BR SCT004 BKN077 OVC024 M03/M03 Q1032 R31L/690252 TEMPO 0900 FZFG
