2015/12/18 11:30
ULWC 181130Z 00000MPS CAVOK M07/M09 Q1015 R03/350037 NOSIG RMK QFE751/1002
