2013/07/19 07:00
ULWW 190700Z 15005MPS 9999 BKN033CB OVC/// 14/11 Q1006 TEMPO 4000 -SHRA RMK QFE744 33290147
