2015/12/18 11:30
UMBB 181130Z 24004G07MPS 2400 -DZ BR OVC003 08/07 Q1017 R29/290050 NOSIG RMK QBB090
