2014/01/26 12:00
UMBY 261200Z 29004KT 9999 -DZ SCT012 OVC030 04/02 Q1021 R33/////// NOSIG RMK MT OBSC
