2015/12/18 11:30
UMGG 181130Z 23003MPS 0800 FG VV002 01/01 Q1016 R28/290050 TEMPO 0600 RMK QBB060
