2007/10/25 16:30
UMGR 251630Z 06003MPS CAVOK 08/05 Q1028 11000060 NOSIG
