2015/12/18 11:00
UMII 181100Z 20002MPS 0250 DZ FG VV001 00/00 Q1012 R23/590315 NOSIG RMK QBB040
