2015/12/18 11:30
UMKK 181130Z 24005MPS 9999 SCT014 11/08 Q1013 R24/29//60 NOSIG RMK QFE759/1012
