2015/12/18 11:30
UMMG 181130Z 24002MPS 1900 BR OVC003 06/06 Q1015 R17/190065 NOSIG RMK QBB100
