2015/12/18 11:30
UMMM 181130Z 25002MPS 2800 BR OVC003 04/04 Q1013 R30/720140 TEMPO 0800 FG RMK QFE740 QBB090
