2015/12/18 11:41
UMMS 181141Z 20001MPS 0350 R31/0450 FG VV002 03/03 Q1013 R31/620540 NOSIG
