2015/12/18 11:00
UMOO 181100Z 24002MPS 1200 BR OVC003 01/01 Q1014 R31/750227 NOSIG RMK QBB100
