2015/12/18 11:30
UNAA 181130Z 20005MPS CAVOK M03/M08 Q1025 R20/190055 NOSIG RMK QFE746
