2015/12/18 11:30
UNBB 181130Z 17003MPS 9999 BKN026 M05/M05 Q1019 R24/700555 NOSIG RMK QFE742
