2015/12/18 11:30
UNEE 181130Z 16003MPS 9999 SCT033 M08/M12 Q1020 R23/891035 NOSIG RMK QFE742
