2015/12/18 11:30
UNKL 181130Z 27003MPS 9999 FEW043 M04/M11 Q1021 R29/CLRD65 NOSIG RMK QFE740
