2007/06/28 04:00
UNMA 280400Z 04006MPS 9999 -RA FEW010 BKN020 OVC080 09/05 Q1016 NOSIG RMK QFE758 MT OPEN FBL ICE 1400-4300 8829//60
