2015/12/18 11:30
UNNT 181130Z 18004MPS CAVOK M07/M11 Q1018 R25/810160 R16/810160 NOSIG RMK QFE754/1005
