2015/12/18 11:30
UNOO 181130Z 14004MPS 6000 -SHSN BKN014 BKN033CB M08/M09 Q1008 R25/450540 TEMPO 1000 SHSN BKN005 RMK QFE748
