2015/12/18 11:30
UNTT 181130Z 21007MPS CAVOK M07/M12 Q1017 R21/490140 NOSIG RMK QFE748
