2013/07/19 07:30
UNWW 190730Z VRB02MPS 9999 SCT026 SCT040 BKN200 26/16 Q1004 NOSIG RMK QFE726/0968 1909//70
