2014/05/18 13:00
UOBQ 181300Z 15012KT 120V180 9999 FEW100 32/05 Q1009 R16/CLRD70 NOSIG MK MT PT OBSC
