2012/03/05 09:00
UOBY 050900Z 14004KT 9999 SCT100 07/M08 Q1016 R33/NLRD70 NOSIG RMK G/O
