2008/09/20 02:00
UOFN 200200Z 35001MPS 9999 FEW050CB 13/07 Q1016 NOSIG RMK QFE961 2809//70
