2013/07/19 07:00
UOHH 190700Z 26003MPS 9999 FEW033 SCT/// 26/11 Q1020 NOSIG RMK QFE759 24090060
