2013/07/19 07:30
UOII 190730Z 17003MPS CAVOK 29/11 Q1014 NOSIG RMK QFE758 12////60
