2015/12/18 11:30
UOOO 181130Z 10005MPS 2200 FU NSC M18/M21 Q1010 R01/39//32 NOSIG RMK QFE743
