2010/03/07 15:00
UOTB 071500Z 30036G46KT 9999 SCT050CB SCT100 05/M04 Q1021 WS ALL RWY TEMPO 32060KT RMK 31CLRD80
