2007/12/30 10:30
UPNU 301030Z 11004MPS 6000 SKC M03/M10 Q1033 NOSIG RMK QFE766 31CLRD60
