2015/12/18 11:30
URFF 181130Z 24006MPS 9999 OVC023 04/M00 Q1026 R19/010095 NOSIG
