2015/12/18 11:30
URKA 181130Z 30002MPS 9999 BKN024 05/02 Q1027 R22/010070 RMK QFE765/1020
