2015/12/18 11:30
URKK 181130Z 27003MPS 190V300 CAVOK 05/M03 Q1026 R23C/CLRD70 NOSIG RMK QFE766
