2013/05/20 12:00
URKM 201200Z 08007G12MPS CAVOK 27/04 Q1015 RMK QFE743
