2015/12/18 11:00
URMG 181100Z 13002MPS 070V230 CAVOK 05/M10 Q1026 R26/000070 NOSIG RMK QFE755/1006
