2015/12/18 11:30
URML 181130Z 13002MPS 9999 NSC 05/M03 Q1028 R14/01//70 NOSIG RMK QFE771/1028
