2015/12/18 11:30
URMM 181130Z 32002MPS 9999 NSC 07/M12 Q1024 R30/000070 NOSIG RMK QFE740/0986
