2015/12/18 11:30
URMN 181130Z 07001MPS 9999 NSC 07/M11 Q1024 R24/010070 NOSIG RMK QFE731
