2015/12/18 11:30
URMO 181130Z 00000MPS 9999 NSC 05/M14 Q1024 R10/010070 NOSIG RMK QFE724/0965
