2015/12/18 11:30
URMT 181130Z 30005MPS CAVOK 03/M13 Q1023 R25/010070 NOSIG RMK QFE729
