2015/12/18 11:30
URRR 181130Z 26005MPS 230V320 9999 FEW018 SCT100 02/M03 Q1024 R22/CLRD70 NOSIG RMK QFE760/1014
