2015/12/18 11:30
URSS 181130Z 20003MPS 170V240 9999 FEW033 10/01 Q1027 R02/090070 R06/////// NOSIG RMK R06/20003MPS QFE769
