2015/12/18 11:30
URWA 181130Z 25004MPS CAVOK 01/M06 Q1026 R27/010070 NOSIG RMK QFE771/1029
