2015/12/18 11:30
URWI 181130Z 25006MPS 9999 BKN007 M02/M03 Q1024
