2015/12/18 11:30
URWW 181130Z 16002MPS 7000 -SN OVC009 M02/M04 Q1021 R29/420257 NOSIG
