2015/12/18 11:30
USCC 181130Z 30004MPS CAVOK M13/M16 Q1004 R27/000060 NOSIG RMK QFE733
