2015/12/18 11:30
USCM 181130Z 29006MPS 9999 SCT033 M14/M18 Q1005 R01/450155 NOSIG RMK QFE715
