2015/12/18 11:30
USDD 181130Z 04002MPS 9999 -SN FEW036 M21/M24 Q1010 R22/490257 NOSIG RMK QFE753/1004
