2015/12/18 11:30
USHH 181130Z 30001MPS 9999 -SN BKN027 M21/M24 Q1007 R06/450347 TEMPO BKN005 RMK QFE751
