2007/12/19 10:00
USKK 191000Z 02008G13MPS 9999 5SHSN DRSN SCT015CB OVC070 M06/M08 Q1006 NOSIG RMK QFE741 04790130
