2013/07/19 07:30
USMM 190730Z 04003MPS 9999 FEW003 30/14 Q1010 NOSIG RMK QBB100 QFE756 3209//70
