2013/07/19 07:30
USMU 190730Z 09003MPS 050V140 CAVOK 29/13 Q1011 NOSIG RMK QFE752 09CLRD65
