2015/12/18 11:30
USPP 181130Z 27003MPS 7000 -SN BKN011 OVC083 M16/M17 Q1011 R21/490250 NOSIG RMK QFE747
