2013/07/19 07:30
USRK 190730Z 07003G06MPS 040V100 CAVOK 32/13 Q1005 RMK QFE748 170///60
