2015/12/18 11:30
USRR 181130Z 30002MPS 6000 -SN SCT040 M22/M25 Q1005 R25/390037 NOSIG RMK OBST OBSC QFE749
