2015/12/18 11:30
USSS 181130Z 32004MPS 2600 1200S SN BR BKN012 OVC067 M12/M14 Q1005 R26R/490337 TEMPO 1000 SN BR RMK QFE733
