2015/12/18 11:30
USTR 181130Z VRB01MPS 1300 1200N R21/1300 HZ SCT033 M15/M17 Q1006 R21/450163 TEMPO 1000 SN BR BKN007 RMK QFE745/0993
