2015/12/18 11:30
UTAA 181130Z 03003KT 330V070 8000 OVC008 05/02 Q1029 R88/CLRD70 NOSIG
