2015/12/18 11:00
UTAK 181100Z 35004KT 9999 FEW033 SCT200 08/M01 Q1028 R16/CLRD70 NOSIG
