2015/12/18 11:00
UTAM 181100Z 32006KT 6000 OVC230 08/04 Q1028 NOSIG RMK SC07
