2007/06/20 10:00
UTAN 201000Z 20006MPS 9999 SCT066CB SCT066 FEW300 31/19 Q1001 47 ‎פרב ‎פב
