2008/12/11 10:00
UTAO 111000Z 09003MPS CAVOK 13/05 Q1024 NOSIG
