2015/12/18 11:00
UTAT 181100Z 34010KT 9999 OVC040 02/M04 Q1029 99CLRD70 NOSIG
