2015/12/18 11:00
UTAV 181100Z 27005KT CAVOK 09/00 Q1028 NOSIG
