2008/02/25 09:30
UTBG 250930Z 32020KT 9999 FEW066 SCT100 07/M06 Q1029 NOSIG RMK 31CLRD80 
