2008/06/01 22:00
UTCA 012200Z 03002MPS 5000 HZ SKC 22/13 Q1009 NOSIG
