2015/12/18 11:30
UTDD 181130Z 00000MPS 2600 FU SCT130 05/M03 Q1025 R09/CLRD// NOSIG RMK QFE700/0933
