2015/12/18 11:00
UTDK 181100Z 21001MPS 7000 FEW070 BKN100 04/M01 Q1025 0109//70 RMK QFE711/0948
