2015/12/18 11:30
UTDL 181130Z 08007MPS 3500 BR FEW070CB OVC100 02/M03 Q1028 NOSIG RMK QFE731/0975 88CLRD70
