2015/12/18 11:30
UTDT 181130Z VRB01MPS 2800 BR SCT010 BKN050 05/02 Q1026 35CLRD70 RMK QFE730/0973
