2015/12/18 11:30
UTFA 181130Z 24002KT 2200 BR OVC007 01/M04 Q1029 R88/09//70
