2009/01/21 06:00
UTFC 210600Z 17002MPS 0600 MIFG OVC100 M00/M01 Q1024 R28/CLRD70 NOSIG
