2015/12/18 11:00
UTFF 181100Z 33001KT 290V360 1800 HZ NSC 02/M04 Q1028 R18/CLRD70
