2008/12/18 06:00
UTFM 180600Z 23001MPS 0600 -SN MIFG OVC004 00/00 Q1031 R28/290150 NOSIG
