2015/12/18 11:30
UTFN 181130Z 00000KT 3800 BR OVC033 00/M04 Q1028 R28/CLRD70 NOSIG
