2007/11/02 14:00
UTFP 021400Z 35002MPS 9999 SKC 14/M01 Q1016 NOSIG RMK QFE961 2809//70
