2007/10/07 05:00
UTNI 070500Z 04004MPS 020V080 CAVOK 13/00 Q1025 NOSIG RMK QFE760 13CLRD60
