2015/12/18 11:30
UTNN 181130Z 27003KT CAVOK 01/M18 Q1028 R33/CLRD60 NOSIG
