2015/12/18 11:30
UTSB 181130Z 24005KT CAVOK 08/00 Q1027 R19/CLRD70 NOSIG
