2015/12/18 11:30
UTSK 181130Z 24003KT 9999 FEW028CB OVC100 07/00 Q1027 R16/CLRD70
