2013/06/25 10:00
UTSN 251000Z 04008MPS 9999 NSC 31/08 Q1007 R36/CLRD70
