2015/12/18 11:30
UTSS 181130Z 28006KT 250V310 9999 NSC 05/M01 Q1026 R88/CLRD70 NOSIG
