2015/12/18 11:30
UTST 181130Z 18003KT 8000 NSC 07/01 Q1027 R88/CLRD70 NOSIG
