2008/01/13 21:10
UTTL 132110Z 07082MPS 1400 R08L/P1500N BR FU SKC M14/M15 Q1040 08CLRD70)TEMPO 0500 FZFG VV002
