2011/04/02 01:30
UTTO 020130Z 08004MPS CAVOK 08/02 Q1020 R08L/CLRD70 NOSIG
