2015/12/17 21:30
UTTT 172130Z 15003KT 2100 BR NSC 02/00 Q1027 R08L/CLRD70 NOSIG
