2008/05/09 21:00
UTXN 092100Z 04002MPS 9999 -SHRA OVC033CB 20/13 Q1013 NOSIG RMK QFE959 2809//70
