2015/12/18 11:30
UUBC 181130Z 18002MPS 9999 -SN BKN008 OVC020 M02/M03 Q1014 NOSIG RMK QFE743/0991 R31/492032
