2013/07/19 07:30
UUBI 190730Z 22005MPS 9999 FEW033 BKN200 21/11 Q1009 NOSIG RMK QFE746 29GLRD60
