2007/12/28 05:00
UUBN 280500Z 20004G07MPS 9999 OVC016 M03/M06 Q1030 NOSIG RMK QFE759
