2015/12/18 11:30
UUBP 181130Z 20002MPS 2000 R16/2000N BR OVC003 M00/M01 Q1014 R16/490150 NOSIG RMK QBB100 QFE742/0990
