2015/12/18 11:30
UUBW 181130Z 14002MPS 9999 OVC011 M04/M05 Q1015 R30/////40 NOSIG
