2015/12/18 11:30
UUDD 181130Z 17003MPS 8000 OVC015 M04/M04 Q1014 R14R/590293 R14L/590294 NOSIG
