2015/12/18 11:30
UUDL 181130Z 11001MPS 9999 -SN OVC043 M07/M07 Q1016 R23/810255 NOSIG RMK QFE754
