2015/12/18 11:30
UUEE 181130Z 20002MPS 160V230 8000 OVC007 M03/M04 Q1014 R25R/420245 R25L/410251 NOSIG
