2007/12/28 05:00
UUEM 280500Z 20009MPS 8000 BR OVC015 M03/M05 Q1031 NOSIG RMK QFE760
