2015/12/18 11:30
UUMO 181130Z 15002MPS 8000 OVC010 M03/M04 Q1014 R26/820240 NOSIG RMK QFE745/0994
