2015/12/18 11:30
UUOB 181130Z 23005MPS 9000 OVC009 M01/M02 Q1017 R29/490150 NOSIG
