2015/12/18 10:00
UUOK 181000Z 20002MPS 170V230 1800 R30/1600N -SN BR OVC004 M01/M01 Q1016 R30/190050 NOSIG RMK QFE743/0991
