2015/12/18 11:30
UUOO 181130Z 14002MPS 5000 -SN BR OVC008 M02/M03 Q1016 R12/850542 NOSIG RMK QFE748
