2015/12/18 11:30
UUWW 181130Z 12002MPS 6000 OVC009 M04/M04 Q1014 R24/290050 TEMPO 2000 BR OVC005
