2013/07/19 07:30
UUYH 190730Z 00000MPS 6000 -SHRA OVC010CB 17/15 Q1006 NOSIG RMK QFE743 18250557
