2013/07/19 07:30
UUYS 190730Z VRB02MPS 9999 -SHRA SCT033CB OVC/// 24/14 Q1006 NOSIG RMK QFE748/0997 14290050
