2013/07/19 07:30
UUYW 190730Z 15007MPS CAVOK 29/15 Q1009 NOSIG RMK QFE743 08CLRD60
