2015/12/18 11:30
UUYY 181130Z VRB01MPS 8000 -SHSN BKN014CB M09/M11 Q1009 R01/490241 TEMPO 1000 SHSN RMK QFE748/0997
