2011/03/13 15:00
UVLI 131500Z 20003MPS 9999 SCT040 BKN100 13/M00 Q1015 28090070 NOSIG
