2014/01/29 17:00
UVVB 291700Z 12008KT 2900 -DZ BR OVC005 07/07 Q1021 R33/////// NOSIG RMK MT OBSC 
