2015/12/18 11:30
UWGG 181130Z 21001MPS CAVOK M09/M12 Q1018 R36L/820045 NOSIG RMK QFE756
