2015/12/18 11:30
UWKD 181130Z 30005MPS 9999 -SN BKN011 M11/M13 Q1016 R29/810150 TEMPO 2000 SN BKN005 RMK QFE750/1001
