2015/12/18 11:30
UWKE 181130Z 26005MPS 3200 -SN BKN007 M14/M17 Q1013 R21/490560 NOSIG RMK OBST OBSC QFE743/0990
