2015/12/18 11:30
UWKS 181130Z 27003MPS CAVOK M12/M14 Q1016 R24/850250 NOSIG RMK QFE748
