2013/07/19 07:30
UWLL 190730Z 30004MPS 260V350 CAVOK 24/06 Q1011 20000065 NOSIG RMK QFE748/0997
