2015/12/18 11:00
UWLW 181100Z 28004MPS 8000 NSC M09/M13 Q1018 R20/420545 NOSIG RMK QFE758
