2015/12/18 11:30
UWOO 181130Z 29009MPS 3200 -SN BLSN BKN010 M13/M16 Q1016 R26/830350 NOSIG RMK QFE751/1002
