2015/12/18 11:00
UWOR 181100Z 29010G15MPS 9999 DRSN FEW010 BKN100 M14/M17 Q1008 R25/850552 NOSIG RMK QFE733/0977
