2013/07/19 07:30
UWPP 190730Z 298006MPS 9999 BKN040 24/09 Q1012 11090060 NOSIG RMK QFE744
