2015/12/18 11:30
UWSS 181130Z 29004MPS CAVOK M07/M12 Q1021 R30/820350 NOSIG RMK QFE752
