2015/12/18 11:30
UWUU 181130Z 29002MPS 210V010 4000 -SN OVC018 M15/M18 Q1012 R32R/422048 TEMPO 1000 SN BKN004 RMK QFE748/0997
