2015/12/18 11:30
UWWW 181130Z 30003MPS 9999 -SN SCT020 BKN100 M10/M13 Q1017 R23/850540 NOSIG RMK QFE752/1003
