2009/07/23 07:30
UZBG 230730Z 30009KT 9999 BKN067 29/18 Q1013 NOSIG RMK R30R/CLRD70 
