2009/02/25 03:00
UZBN 250300Z 34006KT 9999 NSC M03/M06 Q1018 R14R/CLRD60 NOSIG RMK G/O QFE688
