2015/12/18 08:30
VAAH 180830Z 05008KT 6000 NSC 27/02 Q1015 NOSIG
