2015/12/18 11:30
VABB 181130Z 29008KT 4000 FU NSC 29/15 Q1011 NOSIG
