2009/07/29 05:30
VABJ 290530Z 20010G20KT 5000 RA SCT015 SCT020 29/25 Q1002 TEMPO 4000
