2010/04/20 04:00
VABM 200400Z 36003KT 8000 NSC 29/16 Q1015
