2007/04/19 01:00
VABO 190100Z 00000KT 4000 HZ SCT100 26/20 Q1009
