2014/11/11 12:00
VABP 111200Z 05004KT 3000 HZ BKN100 28/18 Q1014 NOSIG
