2011/01/29 00:00
VABV 290000Z 32004KT 6000 NSC 16/03 Q1013
