2015/12/18 09:00
VADU 180900Z 05006KT 6000 NSC 29/05 Q1013
