2014/11/11 12:00
VAID 111200Z 05004KT 4000 HZ SCT020 SCT025 29/18 Q1013
