2014/11/11 12:00
VAJB 111200Z 00000KT 6000 SCT025 SCT100 27/16 Q1014
