2014/11/11 12:00
VAKJ 111200Z 00000KT 5000 HZ NSC 30/14 Q1012
