2015/12/18 06:00
VANP 180600Z 03005KT 3000 HZ FEW100 25/08 Q1018 BECMG 5000 HZ
