2010/01/25 07:30
VAPO 250730Z 14004KT 6000 SKC 28/11 Q1017 NOSIG
