2014/10/21 04:50
VAPR 210450Z 00000KT 9999 SKC 19/01 Q1028 NOSIG
