2010/01/25 07:00
VARP 250700Z 14002KT 7000 NSC 27/09 Q1017
