2011/10/05 10:00
VAUD 051000Z 23004KT 8000 FEW030 32/19 Q1013
