2015/12/18 10:10
VCBI 181010Z 23006KT 9000 FEW012 SCT016 FEW018CB 27/24 Q1010 NOSIG
