2015/12/18 11:10
VCRI 181110Z 07006KT 9999 SCT016 BKN080 25/23 Q1010 NOSIG
