2007/08/10 01:00
VDIP 100100Z 10004KT 4000 HZ FEW040 SCT100 29/25 Q1000 NOSIG
