2015/12/18 11:30
VDPP 181130Z 01005KT 330V040 9000 FEW017 27/18 Q1012
