2015/12/18 11:30
VDSR 181130Z VRB02KT 9000 SCT020 25/18 Q1013
