2015/11/02 02:30
VEAT 020230Z 10004KT 5000 BR FEW100 25/22 Q1016 NOSIG
