2014/01/20 06:00
VEBD 200600Z 05006KT 4000 HZ SKC 21/14 Q1023 BECMG 5000
