2015/12/18 08:30
VEBN 180830Z 27006KT 4000 HZ NSC 22/08 Q1016
