2015/12/15 03:30
VEBS 150330Z 08007KT 1200 BR SCT018 OVC090 24/21 Q1015 NOSIG
