2015/12/18 11:30
VECC 181130Z 14003KT 0800 R19L/1700 R01R/1700 RMID/1700 R19R/1700 FG SCT015 BKN100 20/18 Q1013 NOSIG
