2015/12/18 11:30
VEDG 181130Z 08003KT 1600 FU NSC 21/15 Q1014 NOSIG
