2011/10/05 09:30
VEGK 050930Z 16003KT 6000 FEW030 33/23 Q1008 NOSIG
