2007/07/20 10:30
VEGR 201030Z 29010KT 6000 FEW030 35/20 Q1000 NOSIG 
