2015/12/18 11:00
VEGT 181100Z 30005KT 2500 HZ FEW020 21/17 Q1013 NOSIG
