2015/12/18 11:00
VEGY 181100Z 30008KT 2200 HZ NSC 21/08 Q1015 NOSIG
