2015/12/18 08:00
VEIM 180800Z 19006KT 4000 HZ FEW018 19/11 Q1014 NOSIG 
