2015/12/18 06:00
VEJS 180600Z 00000KT 1500 BR SCT015 SCT025 BKN100 22/17 Q1015
