2015/12/18 09:00
VEKO 180900Z 32006KT 4000 HZ NSC 24/02 Q1016
