2015/04/10 07:00
VELP 100700Z 21008KT 3500M HZ SCT018 SCT025 32/18 Q1009
