2014/10/23 02:00
VEMN 230200Z 03006KT 6000 FEW025 26/21 Q1016 NOSIG
