2015/12/18 11:30
VEPT 181130Z 30003KT 1800 FU NSC 19/11 Q1014 NOSIG
