2015/08/30 09:00
VERC 300900Z 32006KT 5000 HZ SCT018 SCT025 FEW030CB BKN100 32/25 Q1004 NOSIG
