2015/12/18 11:00
VERP 181100Z 04002KT 3500 HZ FEW025 BKN100 24/09 Q1015 NOSIG
