2015/12/18 10:50
VGEG 181050Z 11003KT 3200 HZ SCT016 BKN090 16/14 Q1013 TEMPO P/VIS
