2015/12/18 11:20
VGHS 181120Z 00000KT 2500 HZ FEW015 SCT100 21/13 Q1013 TEMPO S/VIS 2000M
