2011/07/22 02:50
VGZR 220250Z 18010KT 3500 DZ BKN009 OVC100 27/25 Q0998 TEMPO RA
