2015/12/18 11:30
VHHH 181130Z 06008KT CAVOK 15/03 Q1026 NOSIG
