2011/10/05 09:30
VIAG 050930Z 33006KT 8000 FEW025 SSCT040 35/16 Q1010 NOSIG
