2011/10/05 09:30
VIAL 050930Z 34003KT 6000 FEW025 33/24 Q1009 NOSIG
