2015/12/18 11:30
VIAR 181130Z VRB02KT 5000 FU NSC 18/05 Q1018 NOSIG
