2007/07/19 10:30
VIAX 191030Z 27010KT 6000 FEW030 SCT250 35/24 Q0998 NOSIG
