2007/05/14 08:30
VIBK 140830Z 18010KT 6000 SKC 40/14 Q1001 NO SIG
