2015/08/25 05:00
VIBN 250500Z 27008KT 5000 HZ SCT020 32/27 Q1002
