2011/10/04 02:30
VIBR 040230Z 00000KT 4000 BR FEW020 SCT030 BKN080 20/18 Q1013
