2015/12/18 11:30
VICG 181130Z 30008KT 5000 HZ SKC 17/06 Q1017 NOSIG
