2009/09/30 01:00
VIDD 300100Z 00000KT 2000 BR NSC 26/24 Q1007 
