2008/05/03 05:30
VIDF 030530Z 24008KT 2800 DU SKC 37/11 Q1000 NOSIG
