2011/10/05 09:30
VIDN 050930Z 28003KT 3500 HZ SCT040 SCT060 29/23 Q1012 
