2007/05/28 07:00
VIDO 280700Z 24010KT 4000 HZ FEW100 40/11 Q1007 NOSIG 
