2015/12/18 11:30
VIDP 181130Z 30005KT 2000 FU NSC 19/06 Q1017 NOSIG
