2011/10/05 10:00
VIGG 051000Z 22005KT 5000 HZ FEW030 SCTTCU035 29/20 Q1015
