2007/08/08 04:30
VIHX 080430Z VRB03KT 6000 SCT025 34/27 Q1000 NOSIG
