2015/12/18 11:00
VIJP 181100Z VRB03KT 3000 HZ NSC 21/M01 Q1018 NOSIG
