2015/12/18 11:30
VIJU 181130Z VRB01KT 6000 FEW100 18/07 Q1017 NOSIG
