2015/12/18 10:30
VILH 181030Z 20004KT 6000 FEW060 01/M21 Q1022 NOSIG RMK AC
