2015/12/18 11:30
VILK 181130Z 20004KT 2500 HZ NSC 19/09 Q1015 NOSIG
