2007/07/19 10:30
VIPK 191030Z VRB03KT 6000 TS FEW025 FEW030CB SCT250 34/26 Q0999 NOSIG
