2011/10/07 08:30
VIPT 070830Z 00000KT 4500 HZ FEW030 32/24 Q1010
