2009/03/12 16:00
VISP 121600Z 29007KT 3500 HZ 23/10 Q1012 NOSIG
