2015/12/18 10:30
VISR 181030Z VRB02KT 5000 HZ FEW090 07/M03 Q1023 NOSIG
