2015/12/18 11:30
VITX 181130Z VRB02KT 6000 FEW070 SCT150 M04/M23 Q1024 NOSIG RMK AC
