2015/12/18 11:00
VLLB 181100Z 02002KT 9999 SCT010 SCT060 OVC070 16/11 Q1020 NOSIG
