2015/12/18 11:00
VLLN 181100Z 00000KT 5000 BR SCT010 SCT050 OVC100 14/14 Q1020 NOSIG
