2015/12/18 11:00
VLPS 181100Z 36002KT 9999 FEW030 FEW200 27/15 Q1015 NOSIG
