2015/12/18 11:00
VLSK 181100Z 09006KT 5000 BR SCT020 BKN100 22/14 Q1019 NOSIG
