2015/12/18 11:30
VLVT 181130Z 04002KT 5000 BR SCT200 25/14 Q1017 NOSIG
