2015/12/18 11:20
VNKT 181120Z 29006KT 250V310 4000 BR FEW020 11/06 Q1016 NOSIG
