2015/12/18 11:30
VOBG 181130Z 11006KT 6000 SCT012 25/16 Q1016
