2015/12/18 11:00
VOBL 181100Z 14007KT 120V190 9999 SCT015 30/19 Q1016 NOSIG
