2012/08/31 07:00
VOBM 310700Z 23013KT 6000 -DZ BKN006 SCT015 BKN080 22/20 Q1010
