2015/12/16 00:00
VOBZ 160000Z 00000KT 1000 BR FEW020 21/20 Q1013
