2015/12/18 11:30
VOCB 181130Z 08006KT 8000 FEW015 28/21 Q1013 NOSIG
