2015/12/18 11:30
VOCL 181130Z 00000KT 8000 FEW015 31/22 Q1009 NOSIG
