2015/11/10 12:00
VOHB 101200Z 07014KT 8000 SCT20 29/20 Q1012
