2015/12/18 11:30
VOHS 181130Z 15003KT 6000 NSC 31/09 Q1014 NOSIG
