2015/12/18 11:30
VOHY 181130Z 08004KT 5000 HZ FEW015 31/11 Q1015 NOSIG
