2014/08/06 02:30
VOMD 060230Z 23012KT 5000 -DZ SCT015 BKN080 23/21 Q1011 NOSIG
