2015/12/18 11:30
VOML 181130Z 27006KT 6000 NSC 30/21 Q1010 NOSIG
