2015/12/18 11:30
VOMM 181130Z 07007KT 7000 FEW020 29/24 Q1011 NOSIG
