2014/01/10 02:00
VOPB 100200Z 00000KT 3500 HZ FEW016 SCT250 24/23 Q1013 NOSIG
