2011/11/02 06:30
VORY 020630Z 08008KT 4000 HZ FEW020 SCT025 BKN200 31/23 Q1011 
