2008/03/14 06:00
VOSS 140600Z 24008KT 9999 SCT010 21/21 Q1009
