2015/12/18 11:30
VOTK 181130Z 29002KT 7000 FEW020 SCT025 29/22 Q1011
