2015/12/18 11:30
VOTR 181130Z 08006KT 6000 SCT018 28/24 Q1011 NOSIG
