2015/12/18 11:00
VOTV 181100Z 04002KT 5000 HZ SCT015 BKN090 28/24 Q1010 NOSIG
