2009/07/14 21:00
VPLC 142100Z VRB01KT 3000 HZ SCT003 OVC100 24/23 Q1007 A2974 NOSIG RMK THAQ
