2013/07/10 22:00
VRMK 102200Z 27006KT 9999 FEW018TCU BKN270 28/24 Q1008
