2015/12/18 11:00
VRMM 181100Z 33003KT 9999 SCT018 FEW019CB SCT120 BKN270 30/25 Q1010 CB NE ESE NOSIG
