2015/12/18 11:30
VTBD 181130Z 04006KT CAVOK 26/17 Q1015 NOSIG
