2015/12/18 11:00
VTBO 181100Z 36010KT 7000 FEW022 BKN300 26/17 Q1014
