2015/12/18 11:30
VTBS 181130Z 01007KT CAVOK 26/16 Q1015 NOSIG
