2015/12/18 11:30
VTBU 181130Z 25003KT 8000 FEW020 BKN300 26/17 Q1014 A2995 NOSIG
