2015/12/18 11:30
VTCC 181130Z 13002KT 9999 BKN035 24/15 Q1017 A3004 NOSIG
