2015/12/18 11:00
VTCL 181100Z 11003KT 9999 FEW025 22/18 Q1016 A3000 INFO
