2015/12/18 11:00
VTCN 181100Z 03003KT CAVOK 21/16 Q1017 A3004
