2015/12/18 07:00
VTCP 180700Z 23004KT 9999 BKN022 OBV120 27/14 Q1016 A3001
