2010/06/28 06:00
VTPB 280600Z 18006KT 9999 SCT024 34/23 Q1005
