2015/12/18 11:00
VTPH 181100Z 01007KT 320V050 8000 NSC 26/18 Q1014 NOSIG
