2015/12/18 10:00
VTPM 181000Z 09006KT 060V120 CAVOK 28/16 Q1013 RMK
