2015/12/18 10:00
VTPO 181000Z 15004KT 9999 FEW022 SCT300 28/15 Q1014
