2015/12/18 10:00
VTPP 181000Z 00000KT 7000 FEW030 27/18 Q1014
