2015/12/18 11:00
VTSB 181100Z 01005KT 8000 SCT018 BKN020 26/24 Q1012 A2991
