2015/12/18 09:00
VTSC 180900Z 06010KT 030V090 7000 VCSH SCT018 BKN040 OVC100 27/27 Q1012 A2988 NOSIG
