2015/12/18 11:00
VTSE 181100Z 04004KT 6000 SCT020 BKN100 27/22 Q1012 A2987 RWY24
