2015/12/18 11:00
VTSG 181100Z 09005KT 060V120 9999 FEW020 BKN300 26/22 Q1012 A2989
