2015/12/18 10:00
VTSH 181000Z 09008KT 6000 -RA FEW016CB SCT030 BKN110 27/25 Q1011 A2986
