2015/12/18 11:00
VTSK 181100Z 09006KT 9999 FEW030 BKN090 25/21 Q1012 A2989
