2015/12/18 11:00
VTSM 181100Z 09013KT 8000 FEW020 28/21 Q1013 A2994
