2015/12/18 11:30
VTSP 181130Z 11017KT 2000 +RA FEW015CB SCT016 BKN100 25/23 Q1012 A2990 NOSIG
