2015/12/18 11:00
VTSR 181100Z VRB08KT 9000 BKN023 BKN120 26/22 Q1011 A2987
