2015/12/18 11:30
VTSS 181130Z 00000KT 7000 -RA SCT018 SCT025 BKN100 25/24 Q1012 A2991 NOSIG
