2015/12/18 11:00
VTST 181100Z 07010KT 9999 FEW018 BKN120 BKN300 27/22 Q1010 RWY08 INFO L
