2015/12/18 11:00
VTUD 181100Z 07004KT 9000 NSC 23/13 Q1018 A3006
