2015/12/18 11:00
VTUI 181100Z 10011KT FEW040 SCT100 23/14 Q1018 A3007 RWY23 INFO H
