2015/12/18 11:00
VTUK 181100Z 04006KT CAVOK 24/12 Q1017 A3003 NOSIG RWY03 INFO M
