2015/12/18 11:00
VTUL 181100Z VRB02KT 8000 SCT038 SCT300 22/14 Q1018 A3006
