2015/12/18 09:00
VTUO 180900Z 05009KT 010V090 9999 FEW018 27/16 Q1016 A3000
