2015/12/18 08:00
VTUQ 180800Z 03006KT 350V060 9999 SCT300 27/14 Q1014 A2997
