2015/12/18 11:00
VTUU 181100Z 01008KT 9000 FEW050 25/16 Q1016 A3001 NOSIG
