2015/12/18 11:00
VTUV 181100Z 03006KT 9000 NSC 23/14 Q1017 A3004 INFO L RWY 36
