2015/12/18 11:30
VVCR 181130Z 01014KT 8000 FEW015 26/20 Q1016 NOSIG
