2015/12/18 11:30
VVNB 181130Z VRB02KT CAVOK 15/09 Q1024 NOSIG
