2015/12/18 11:30
VVTS 181130Z 13008KT 9000 SCT020 29/19 Q1012 NOSIG 
