2015/12/18 11:30
VYMD 181130Z 36005KT 6000 BKN018 FEW020CB OVC100 23/18 Q1014
