2014/11/12 06:00
VYNT 120600Z 04003KT 9000 SCT020 FEW025TCU 33/24 Q1013
