2015/12/18 11:30
VYYY 181130Z 15003KT 6000 HZ FEW020 29/17 Q1013 NOSIG
