2015/12/18 11:30
WAAA 181130Z 10005KT 5000 -TSRA FEW017CB BKN018 25/25 Q1010 NOS IG
