2015/07/31 00:00
WABB 310000Z 25011KT 9999 FEW018 27/24 Q1009 NOSIG
