2015/04/03 00:00
WABP 030000Z 36002KT 3000 -RA BKN008 FEW010CB 24/24 Q1011
