2015/04/28 03:00
WADA 280300Z 15004KT 9999 SCT016 26/25 Q1011
