2015/12/18 11:30
WADD 181130Z 26016KT 9999 FEW016CB SCT017 28/24 Q1008 NOSIG RMK CB TO N IN APCH TO SE
