2015/12/18 11:30
WADL 181130Z 31006KT 6000 RA FEW015CB BKN016 26/25 Q1009 TEMPO FM1200 TL1300 3000 -TSRA FEW015CB BKN016 RMK CB ALL IN RWY
