2015/12/15 13:00
WAHS 151300Z 26002KT 7000 FEW017CB SCT018 28/24 Q1009 CB TO SW/SE 
