2015/12/18 09:00
WAJJ 180900Z 10002KT 9000 FEW012 26/23 Q1007
