2015/04/15 04:00
WAKK 150400Z 06007KT 9999 SCT017 31/24 Q1011
