2015/12/18 11:30
WALL 181130Z 07004KT 8000 SCT020 28/25 Q1009 NOSIG
