2014/02/06 02:00
WALR 060200Z 26005KT 9000 BKN015 29/23 Q1010
