2012/01/16 03:00
WAML 160300Z 34005KT 9999 SCT019 31/27 Q1007 NOSIG
