2015/12/18 11:30
WAMM 181130Z 08002KT 9000 FEW022 27/25 Q1009 NOSIG
