2015/12/15 08:00
WAPP 150800Z 25003KT 6000 -RA BKN016 27/25 Q1006 BECMG TL0900 9000
