2015/11/21 13:00
WAQQ 211300Z 00000KT 8000 FEW015 27/25 Q1009
