2015/12/18 11:30
WARR 181130Z 28007KT 5000 -TSRA SCT018 SCT020CB 26/22 Q1009 TEMPO FM 1100 TL 1200 4000 TSRA BKN018 FEW020CB
