2015/03/04 11:30
WARS 041130Z 16005KT 6000 TS FEW016CB BKN015 27/23 Q1009 NOSIG
