2015/12/18 11:30
WATT 181130Z 27003KT 8000 SCT017 27/25 Q1009 NOSIG
