2015/12/18 11:00
WBGB 181100Z 01005KT 9999 FEW006 SCT014 BKN150 26/23 Q1011
