2015/12/18 11:30
WBGG 181130Z 09003KT 9999 SCT020 BKN150 25/25 Q1012 NOSIG
