2015/12/18 11:00
WBGY 181100Z 34003KT 9999 SCT020 BKN150 25/23 Q1011
