2015/12/18 11:30
WBKK 181130Z 12005KT 090V150 5000 -TSRA FEW012 FEW016CB SCT030 OVC260 25/25 Q1009 NOSIG
