2015/12/18 11:00
WBKL 181100Z 23001KT 6000 -RA SCT010 FEW014CB SCT040 OVC280 25/25 Q1009
