2015/12/18 11:00
WBKS 181100Z 11004KT 060V150 9999 FEW015 SCT140 BKN270 28/26 Q1008
