2015/12/18 11:00
WBKT 181100Z 15003KT 9999 SCT014 SCT140 BKN270 28/26 Q1009
