2015/12/18 11:00
WBKW 181100Z 01001KT 9999 FEW017 SCT140 BKN280 27/25 Q1008
