2015/12/18 11:30
WBSB 181130Z 18002KT 4000 -RA FEW005 SCT014 BKN150 25/25 Q1010 TEMPO 24016KT 3000 RA TSRA
