2012/08/11 13:00
WCIE 111300Z 00000KT CAVOK 03/02 Q1023
