2015/12/18 11:30
WIBB 181130Z 00000KT 8000 FEW016 29/23 Q1010
