2013/02/24 12:00
WICC 241200Z 28006KT 5000 SCT018 24/19 Q1012
