2015/12/18 11:30
WIDD 181130Z 02008KT 9000 SCT015 28/23 Q1013 NOSIG
