2014/02/06 08:00
WIDN 060800Z 34012KT 8000 SCT015 30/21 Q1006
