2015/12/18 11:00
WIHH 181100Z 26004KT 5000 HZ SCT018 27/24 Q1010 NOSIG
