2015/12/18 11:30
WIII 181130Z 26010KT 7000 FEW020CB SCT021 BKN100 28/23 Q1011 NO SIG RMK CB TO NE
