2015/12/18 11:30
WIMM 181130Z 02005KT 4000 SCT018 28/25 Q1010
