2015/12/18 11:30
WIOO 181130Z 21003KT 5000 -RA FEW010CB BKN010 23/22 Q1011 NOSIG
