2008/04/13 10:00
WIPK 131000Z 00000KT 6000 -RC BKN012 24/23 Q1006 NSG 
