2015/03/07 02:00
WIPT 070200Z 16004KT 100V200 8000 SCT020 30/23 Q1012
