2007/06/24 20:00
WKCL 242000Z 02004KT 9000 SCT017 BKO090 29/19 A2985
