2015/12/18 11:00
WMBA 181100Z 28002KT 9999 FEW011 FEW017CB SCT140 BKN280 28/26 Q1010
