2015/12/18 11:00
WMKB 181100Z 20002KT 8000 FEW020 SCT140 BKN270 27/25 Q1010 NOSIG
