2015/12/18 11:00
WMKC 181100Z 08010G20KT 050V110 8000 FEW008 SCT020 BKN220 28/23 Q1012
