2015/12/18 11:00
WMKD 181100Z 05003KT 9999 FEW017CB SCT160 BKN280 28/24 Q1012 NOSIG
