2015/12/18 11:00
WMKE 181100Z 06008KT 010V100 9999 FEW016CB SCT018 BKN240 28/23 Q1011
