2015/12/18 11:00
WMKI 181100Z 08003KT 7000 -TSRA FEW010 FEW017CB SCT028 BKN280 25/24 Q1011
