2015/12/18 11:00
WMKJ 181100Z 02006KT 320V050 9999 FEW023 SCT130 BKN260 27/24 Q1011
