2015/12/18 11:00
WMKL 181100Z 06006KT 300V060 9999 FEW022 SCT140 BKN280 28/23 Q1011
