2015/12/18 11:00
WMKM 181100Z 04004KT 010V070 9999 FEW027 BKN270 28/24 Q1011
