2015/12/18 11:30
WMKP 181130Z 00000KT 7000 -TSRA FEW017CB SCT023 BKN260 25/23 Q1011 NOSIG
