2015/12/18 11:00
WSAP 181100Z 04009KT 8000 FEW016 SCT150 BKN260 29/24 Q1011
