2015/12/18 11:00
WSSL 181100Z 02009KT 8000 FEW016 SCT160 BKN280 28/23 Q1011 RMK 1030Z Q1010 
