2015/12/18 11:30
WSSS 181130Z 03006KT 340V070 7000 FEW018 SCT160 28/24 Q1011 NOSIG
