2007/07/22 01:50
XOBH 220150Z 35028KT CAVOKH33/04 Q1004 A2966
