2013/05/21 11:30
XXXX 211130Z 07004KT 360V140 9999 FEW030 17/09 Q1021 NOSIG
