2015/12/18 11:00
YABA 181100Z AUTO 26012KT 9999 // NCD 18/10 Q1007
