2015/12/18 11:00
YARG 181100Z AUTO 10001KT 9999 // NCD 31/26 Q1004
