2009/10/02 08:50
YAYR 020850Z 34008KT CAVOK 28/M12 Q1021 A3015
