2015/12/18 11:00
YAYT 181100Z 27004KT CAVOK 15/M02 Q1022
