2015/12/18 11:30
YBAS 181130Z AUTO 06010KT 9999 // NCD 30/12 Q1009
