2015/12/18 11:30
YBBN 181130Z 09005KT 9999 FEW030 23/17 Q1017 NOSIG
