2015/12/18 11:30
YBCS 181130Z 16007KT 9999 FEW023 BKN120 27/21 Q1011 NOSIG
