2015/12/18 11:00
YBCV 181100Z AUTO 09008KT //// // NCD 31/07 Q1012
