2015/12/18 11:00
YBDV 181100Z AUTO 35020KT //// // ////// 33/15 Q1006
