2015/12/18 11:00
YBNA 181100Z AUTO 00000KT 9999 // NCD 21/19 Q1017
