2015/12/18 11:00
YBOK 181100Z AUTO 06013KT 9999 // NCD 20/16 Q1017
