2015/12/18 11:30
YBRM 181130Z AUTO 31013KT 9999 // BKN017 31/26 Q1002
