2015/12/18 11:30
YBTL 181130Z AUTO 09011KT 9999 // SCT033 27/19 Q1012
