2015/12/18 11:00
YBUD 181100Z AUTO 11010KT 9999 // NCD 23/16 Q1016
