2015/12/18 11:00
YBWX 181100Z AUTO 25021KT //// // ////// 25/22 Q1004
