2015/12/18 11:00
YCAR 181100Z AUTO 17019KT //// // NCD 24/18 Q1007
