2015/12/18 11:00
YCAS 181100Z AUTO 19004KT //// // ////// 18/16 Q1017
