2015/12/18 11:00
YCBA 181100Z AUTO 04006KT 9999 // NCD 32/10 Q1011
