2015/12/18 11:00
YCBB 181100Z AUTO 35005KT //// // ////// 25/11 Q1016
