2015/12/18 11:00
YCBP 181100Z AUTO 36009KT //// // NCD 32/14 Q1005
