2015/12/18 11:00
YCCY 181100Z AUTO 29005KT //// // ////// 25/21 Q1010
