2015/12/18 11:00
YCDU 181100Z AUTO 07006KT 040V100 9999 // ////// 27/15 Q1004
