2015/12/18 11:30
YCIN 181130Z AUTO 36011KT //// // SCT069 SCT096 SCT120 32/25 Q1002
