2015/12/18 11:00
YCNM 181100Z AUTO 31002KT //// // ////// 26/09 Q1013
