2015/12/18 11:00
YCOM 181100Z AUTO 06009KT 9999 // NCD 21/10 Q1017
