2015/12/18 11:00
YDBY 181100Z AUTO 34017KT //// // ////// 33/26 Q1002
