2015/12/18 11:00
YEML 181100Z AUTO 05013KT 9999 // SCT093 28/17 Q1013
