2015/12/18 11:00
YESP 181100Z AUTO 16010KT 9999 // NCD 18/14 Q1005
