2015/12/18 11:30
YFRT 181130Z AUTO 01015KT //// // ////// 35/09 Q1001
