2015/12/18 11:00
YGFN 181100Z AUTO 00000KT 9999 // NCD 18/15 Q1017
