2015/12/18 11:30
YHID 181130Z AUTO 13007KT 9999 // SCT021 29/24 Q1009
