2015/12/18 11:00
YHUG 181100Z AUTO 29010KT //// // ////// 29/16 Q1011
