2015/12/18 11:00
YKRY 181100Z AUTO 07006KT //// // ////// 19/15 Q1018
