2015/12/18 11:00
YLEC 181100Z AUTO 08007KT //// // ////// 38/02 Q1006
