2015/12/18 11:30
YLHI 181130Z AUTO 09012KT 9999 // BKN029 BKN038 OVC044 20/14 Q1018
