2015/12/18 11:00
YLIS 181100Z AUTO 00000KT 9999 // NCD 18/16 Q1017
