2015/12/18 11:00
YLRE 181100Z AUTO 02004KT 9999 // SCT105 30/14 Q1010
