2015/12/18 11:30
YMAV 181130Z AUTO 21009KT 9999 // OVC006 18/17 Q1010
