2015/12/18 11:00
YMAY 181100Z AUTO 00000KT 9999 // NCD 28/11 Q1010
