2015/12/18 11:00
YMDG 181100Z AUTO 05009KT //// // OVC088 OVC105 25/16 Q1015
