2015/12/18 11:00
YMEK 181100Z AUTO 22014KT 9999 // NCD 37/M03 Q1004
