2015/12/18 11:00
YMEN 181100Z AUTO 21007KT 9999 // NCD 23/15 Q1009
