2015/12/18 11:00
YMER 181100Z AUTO 00000KT 9999 // NCD 20/18 Q1012
