2015/12/18 11:29
YMIA 181129Z AUTO 25010KT 9999 // NCD 34/11 Q1008
