2015/12/18 11:30
YMML 181130Z 25007KT CAVOK 21/15 Q1010 FM1400 MOD TURB BLW 5000FT
