2014/09/11 23:00
YMNN 112300Z 00000KT 9999 -TS SCT15CB SCT016TCU BKN250 25/22 A2997
