2015/12/18 11:00
YMTG 181100Z AUTO 13006KT 9999 // NCD 18/14 Q1007
