2015/12/18 11:00
YNAR 181100Z AUTO 04004KT //// // ////// 28/10 Q1011
