2015/12/18 11:00
YNBR 181100Z AUTO 08007KT 9999 // NCD 24/13 Q1014
