2015/12/18 11:00
YNWN 181100Z AUTO 03011KT 9999 // NCD 37/10 Q1003
