2015/12/18 11:00
YOLD 181100Z AUTO 00000KT 9999 // NCD 36/09 Q1004
