2015/12/18 11:30
YPAD 181130Z 04004KT CAVOK 33/10 Q1005 NOSIG
