2015/12/18 11:00
YPBO 181100Z AUTO 27012KT 9999 // NCD 40/01 Q1002
