2015/12/18 11:30
YPCC 181130Z AUTO 12010KT //// // ////// 28/23 Q1011
