2015/12/18 11:00
YPEA 181100Z AUTO 22015KT //// // NCD 19/11 Q1010
