2015/12/18 11:30
YPGV 181130Z AUTO 36007KT 9999 // NCD 28/26 Q1008
