2015/12/18 11:30
YPJT 181130Z AUTO 21016KT 9999 // NCD 19/11 Q1010
