2015/12/18 11:30
YPKG 181130Z AUTO 25009KT 9999 // NCD 34/M01 Q1003
