2015/12/18 11:30
YPLM 181130Z AUTO 23021KT 9999 // NCD 23/17 Q1005
