2015/12/16 15:16
YPMQ 161516Z AUTO 28004KT 9999 // SCT005 BKN022 OVC036 18/17 Q1016
