2015/12/18 11:30
YPPD 181130Z AUTO 28017KT 9999 // NCD 30/23 Q1001
