2015/12/18 11:30
YPTN 181130Z AUTO 36004KT 9999 // BKN078 OVC088 28/24 Q1007
