2015/12/18 11:30
YPWR 181130Z AUTO 22004KT 9999 // NCD 36/09 Q1005
