2015/12/18 11:30
YPXM 181130Z AUTO 15005KT 9999 // BKN017 OVC031 25/23 Q1012
