2008/06/01 09:00
YQWR 010900Z AUTO 11004KT 9999NDV // NCD 16/M04 Q1024
