2015/12/18 11:00
YRMD 181100Z AUTO 03009KT //// // ////// 26/20 Q1010
