2015/12/18 11:30
YSCB 181130Z AUTO 09009KT 9999 // NCD 26/10 Q1015
