2015/12/18 11:00
YSNW 181100Z AUTO 20002KT 9999 // NCD 19/17 Q1013
