2015/12/18 11:30
YSRI 181130Z AUTO 08006KT 9999 // NCD 24/17 Q1014
