2015/12/18 11:30
YSSY 181130Z 05005KT CAVOK 23/17 Q1014 NOSIG
