2015/12/18 11:00
YSWG 181100Z 36006KT CAVOK 28/10 Q1011
