2015/12/18 11:00
YTEF 181100Z AUTO 25015KT //// // ////// 36/14 Q1003
