2015/12/18 11:30
YTNK 181130Z AUTO 10016KT 3300 // BKN012 BKN017 OVC022 23/23 Q1009
