2015/12/18 11:00
YWGT 181100Z AUTO 33003KT 9999 // NCD 27/07 Q1010
