2015/12/18 11:00
YWHA 181100Z AUTO 15006KT 9999 // NCD 29/16 Q1006
