2015/12/18 11:30
YWLM 181130Z AUTO 04008KT 9999 // NCD 22/16 Q1014
