2015/12/18 11:30
ZBAA 181130Z 18002MPS 8000 NSC M00/M08 Q1036 NOSIG
