2015/09/28 02:00
ZBAL 280200Z 29003MPS 240V320 9999 FEW060 13/08 Q1022
