2014/05/13 05:00
ZBAR 130500Z 36007MPS 9999 SCT040 18/M13 Q1015 NOSIG
