2014/08/14 09:00
ZBCF 140900Z 14007MPS 9999 FEW040 22/10 Q1007 NOSIG
