2014/08/03 11:00
ZBDS 031100Z 03007MPS 5000 -TSRA BR FEW005 SCT030CB 18/18 Q1011 NOSIG
