2013/12/16 23:00
ZBDT 162300Z 29002MPS CAVOK M11/M15 Q1026 NOSIG
