2015/08/19 03:00
ZBEN 190300Z 09004MPS 040V140 CAVOK 24/06 Q1021
