2014/09/08 02:00
ZBER 080200Z 31004MPS 9999 FEW030 16/M05 Q1017 NOSIG
