2014/07/15 02:00
ZBHD 150200Z VRB01MPS 4500 BR NSC 27/22 Q1005 NOSIG
