2015/12/18 11:00
ZBHH 181100Z 04002MPS 360V120 5000 FU NSC M10/M15 Q1031 NOSIG
