2014/10/14 21:00
ZBLA 142100Z 06002MPS 9999 SCT030 01/M05 Q1004 NOSIG
