2014/08/06 02:00
ZBMZ 060200Z VRB01MPS CAVOK 20/09 Q1012 NOSIG
