2013/11/08 22:00
ZBOW 082200Z VRB04MPS CAVOK 05/M09 Q1023 NOSIG
