2014/05/31 13:00
ZBSH 311300Z AUTO 00000MPS 6000 // ////// 19/16 Q1009
