2015/12/18 11:00
ZBSJ 181100Z 03001MPS 2000 FU NSC M03/M07 Q1035 NOSIG
