2015/12/18 11:30
ZBTJ 181130Z 08001MPS 5000 HZ NSC M01/M08 Q1037 NOSIG
