2008/06/01 03:00
ZBTK 010300Z 35008MPS CAVOK 26/10 Q1004 NOSIG
