2014/09/19 23:31
ZBUL 192331Z 07002MPS 030V090 9999 SCT040 14/09 Q1013 NOSIG
