2008/06/08 02:00
ZBXH 080200Z VRB01MPS CAVOK 25/03 Q1012 NOSIG
