2014/09/25 05:00
ZBYC 250500Z 15006MPS 110V180 0400 R26/P2000U HZ NSC 24/13 Q1014 NOSIG
