2015/12/18 11:30
ZBYN 181130Z 04001MPS 3500 HZ NSC M03/M11 Q1031 NOSIG
