2013/05/14 22:30
ZFFF 142230Z AUTO 08010KT 9999 -RA FEW027 27/23 Q1014
