2014/09/08 15:00
ZGBH 081500Z 35002MPS 4000 BR SCT007 FEW026CB BKN033 27/27 Q1005 NOSIG
