2010/01/01 22:00
ZGBS 012200Z 00000MPS 4000 -RA BR SCT009 OVC030 13/11 Q1017
