2015/02/17 17:00
ZGCD 171700Z 28001MPS 5000 BR NSC 14/10 Q1018 NOSIG
