2013/10/09 23:00
ZGCJ 092300Z 00000MPS 2500 BR NSC 12/11 Q1017 NOSIG
