2014/08/31 16:00
ZGDY 311600Z 03006MPS 9999 OVC033 24/19 Q1011 NOSIG
