2015/12/18 11:30
ZGGG 181130Z 01003MPS CAVOK 13/01 Q1026 NOSIG
