2015/12/18 11:00
ZGHA 181100Z 04001MPS CAVOK 07/01 Q1030 NOSIG
