2014/08/23 05:00
ZGHC 230500Z AUTO 21002MPS 130V270 9999 // //// 27/23 Q1012
