2015/12/18 11:00
ZGKL 181100Z VRB02MPS 9999 SCT043 OVC066 10/M02 Q1028 NOSIG
