2014/09/08 14:00
ZGMX 081400Z 20002MPS CAVOK 27/25 Q1008 NOSIG
