2015/12/18 11:00
ZGNN 181100Z 02002MPS CAVOK 14/05 Q1025 NOSIG
