2015/12/18 11:00
ZGOW 181100Z 10002MPS 7000 NSC 14/08 Q1026 NOSIG
