2014/11/08 09:00
ZGSD 080900Z 02006MPS 2500 -DZ BR FEW005 OVC033 19/18 Q1017 NOSIG
