2015/12/18 11:00
ZGSZ 181100Z 05002MPS CAVOK 14/02 Q1026 NOSIG
