2013/12/09 00:00
ZGZJ 090000Z 31002MPS 0800 R34/0800N FG NSC 15/14 Q1016 BECMG 1500 BR
