2015/12/18 11:00
ZHCC 181100Z 12002MPS 5000 HZ NSC 02/M09 Q1033 NOSIG
