2013/03/22 06:00
ZHES 220600Z 00000MPS 1600 -RA BR FEW005 OVC040 13/13 Q1011 NOSIG
