2015/12/18 11:00
ZHHH 181100Z 06002MPS CAVOK 04/M05 Q1032 NOSIG
