2014/08/23 01:00
ZHLY 230100Z 24003MPS 5000 BR NSC 24/20 Q1009 NOSIG
