2013/01/03 13:00
ZHNY 031300Z 07002MPS CAVOK M03/M14 Q1039 NOSIG
