2014/08/22 23:00
ZHSN 222300Z 16004MPS 100V190 0200 R17/0175 -RA FG VV020 12/12 Q1021 NOSIG
