2014/08/23 01:00
ZHXF 230100Z 29002MPS CAVOK 25/23 Q1008 NOSIG
