2013/11/22 22:00
ZHYC 222200Z 09001MPS 0400 FG SCT020 OVC040 11/10 Q1022 NOSIG
