2015/12/18 11:00
ZJHK 181100Z 03004MPS 9999 OVC026 17/13 Q1023 NOSIG
