2015/12/18 11:00
ZJSY 181100Z 08006MPS CAVOK 21/15 Q1020 NOSIG
