2012/10/02 09:00
ZLDH 020900Z 36002MPS 290V040 CAVOK 24/M04 Q1015
