2011/07/11 06:00
ZLGM 110600Z 33003MPS 260V010 9999 FEW046 BKN090 21/M02 Q1023 NOSIG
