2014/07/13 23:00
ZLGY 132300Z 15002MPS 110V200 9999 FEW030 14/12 Q1015 NOSIG
