2013/12/09 00:00
ZLIC 090000Z 20001MPS CAVOK M15/M17 Q1026 NOSIG
