2015/12/18 11:00
ZLLL 181100Z 32002MPS 7000 NSC M09/M15 Q1023 NOSIG
