2013/10/18 22:30
ZLQY 182230Z 01004MPS CAVOK 05/M02 Q1029 NOSIG
