2013/10/09 22:00
ZLXH 092200Z 29004MPS CAVOK M00/M05 Q1033 NOSIG
