2008/11/06 13:00
ZLXN 061300Z AUTO 00000MPS //// // //// 03/M03 Q1026
