2015/12/18 11:00
ZLXY 181100Z 04002MPS 5000 HZ NSC 00/M08 Q1030 NOSIG
