2014/08/19 07:00
ZLYA 190700Z 11003MPS 080V170 9999 FEW030 29/12 Q1017 NOSIG
