2013/10/21 08:00
ZLYL 210800Z 18004MPS CAVOK 15/M01 Q1020 NOSIG
