2015/03/10 19:00
ZLYS 101900Z 28006MPS 9999 FEW033 M06/M18 Q1031 NOSIG
