2014/03/04 03:00
ZLZW 040300Z 12002MPS CAVOK 02/M18 Q1024 NOSIG
