2007/08/08 13:00
ZMGG 081300Z 05010KT 9999 FEW016 SCT080 BKN200 17/15 Q1025
