2009/06/11 02:00
ZMMN 110200Z VRB01MPS 9999 SCT035 18/06 Q1012 NOSIG RMK QFE649.2 62 MOP
