2009/11/01 01:00
ZMTL 010100Z VRB02MPS CAVOK M22/M23 Q1031 NOSIG RMK QFE629 0 94 
