2015/12/18 11:30
ZMUB 181130Z 17003MPS 6000NW NSC M26/M29 Q1022 NOSIG RMK QFE658.8 77 NT
