2014/02/15 00:00
ZMZO 150000Z 05006KT 9999 FEW012 26/22 Q1013 NOSIG
