2013/10/21 19:00
ZPDL 211900Z AUTO 17006MPS 9999 ///////// 14/12 Q1023
