2011/12/24 02:00
ZPDQ 240200Z 10005MPS CAVOK 01/M15 Q1025 NOSIG
