2015/03/15 11:00
ZPJH 151100Z 28003MPS 240V300 CAVOK 31/07 Q1011 NOSIG
