2007/12/15 21:30
ZPLC 152130Z 00000MPS CAVOK 05/02 Q1022 NOSIG
