2014/11/25 23:00
ZPLJ 252300Z VRB01MPS CAVOK 02/M01 Q1018 NOSIG
