2012/12/04 00:00
ZPMS 040000Z 00000MPS 0100 FG VV001 08/08 Q1018 NOSIG
