2015/12/18 11:00
ZPPP 181100Z 22004MPS 9999 SCT023 06/05 Q1022 NOSIG
