2014/09/24 00:00
ZPSM 240000Z VRB01MPS 9999 FEW013 SCT026 BKN040 20/18 Q1018 NOSIG
