2014/01/08 11:00
ZPZT 081100Z AUTO 35003MPS /// /// M01/M04 Q1023 NOSIG
