2015/12/18 11:00
ZSAM 181100Z 05008MPS CAVOK 13/06 Q1028 NOSIG
