2015/03/22 11:00
ZSCG 221100Z 10005MPS CAVOK 16/00 Q1024 NOSIG
