2015/03/22 11:00
ZSCN 221100Z 35001MPS CAVOK 17/13 Q1019 NOSIG
