2013/06/05 05:00
ZSDY 050500Z 13004MPS 3500 HZ NSC 27/19 Q1012 NOSIG
