2013/03/10 04:00
ZSFY 100400Z 06006MPS CAVOK 10/M09 Q1028 NOSIG
