2015/12/18 11:00
ZSFZ 181100Z 03008MPS 9999 SCT022 OVC033 12/07 Q1030 NOSIG
