2014/10/11 11:00
ZSGZ 111100Z 35003MPS CAVOK 25/16 Q1014 NOSIG
