2015/12/18 11:30
ZSHC 181130Z 10002MPS 7000 NSC 04/M03 Q1034 NOSIG
