2014/10/11 11:00
ZSJD 111100Z 04002MPS 010V080 CAVOK 22/13 Q1016 NOSIG
