2013/07/29 09:00
ZSJG 290900Z 32008MPS 290V340 2000 R09/1400 +TSRA FEW010 OVC020 FEW020CB 27/27 Q0999 NOSIG
