2013/09/23 09:00
ZSJH 230900Z 10003MPS 3000 -SHRA BR FEW010 SCT016 OVC033 FEW040CB 27/26 Q1008 NOSIG
