2014/02/10 08:00
ZSJJ 100800Z 02006MPS 9999 FEW013 BKN050 02/M06 Q1029
