2015/03/22 11:00
ZSJN 221100Z 07004MPS 040V100 CAVOK 07/M12 Q1027 NOSIG
