2013/05/20 09:00
ZSJU 200900Z 22003MPS 6000 BKN060 25/20 Q1004 NOSIG
