2015/10/20 00:00
ZSLG 200000Z 00000MPS 1000 BR NSC 12/11 Q1017 NOSIG
