2015/12/18 11:00
ZSNB 181100Z VRB01MPS 6000 NSC 04/M01 Q1034 NOSIG
