2015/12/18 11:00
ZSNJ 181100Z 08002MPS 9000 NSC 02/M08 Q1034 NOSIG
