2014/08/14 09:00
ZSNT 140900Z 05002MPS 9999 -RA BKN009 BKN030 23/23 Q1007 NOSIG
