2015/12/18 11:00
ZSOF 181100Z 07002MPS 5000 HZ NSC 03/M08 Q1033 NOSIG
