2015/12/18 11:30
ZSPD 181130Z 07002MPS CAVOK 05/01 Q1035 NOSIG
