2015/12/18 11:00
ZSQD 181100Z VRB01MPS 5000 FU NSC 02/M13 Q1035 NOSIG
