2015/03/22 11:00
ZSQZ 221100Z 04007MPS 360V080 9999 BKN050 18/06 Q1020 NOSIG
