2015/12/18 11:30
ZSSS 181130Z 10003MPS 060V140 CAVOK 07/00 Q1034 NOSIG
