2015/03/22 11:00
ZSTX 221100Z VRB02MPS 9999 SCT033 16/08 Q1020 NOSIG
