2015/03/22 11:00
ZSWH 221100Z 31003MPS CAVOK 03/M11 Q1028 NOSIG
