2015/08/02 08:00
ZSWX 020800Z 24004MPS 9999 FEW040 37/23 Q1007 NOSIG
