2014/10/11 11:00
ZSWY 111100Z 36006MPS 9999 BKN040 24/16 Q1015 NOSIG
