2015/03/22 11:00
ZSWZ 221100Z VRB02MPS 9999 FEW033 15/02 Q1024 NOSIG
