2015/03/22 11:00
ZSXZ 221100Z 07007MPS CAVOK 13/03 Q1024 NOSIG
