2013/09/28 00:00
ZSYA 280000Z VRB02MPS 2300 -RA BR SCT006 OVC030 17/17 Q1013 RERA NOSIG
