2013/06/29 00:00
ZSYC 290000Z 09002MPS 050V110 4000 BR SCT004 BKN020 OVC060 23/22 Q1005 NOSIG
