2015/03/22 11:00
ZSYT 221100Z 30002MPS CAVOK 03/M08 Q1029 NOSIG
