2014/08/26 03:00
ZSZS 260300Z 05003MPS 010V090 5000 BR NSC 27/23 Q1014 NOSIG
