2013/02/02 00:00
ZUAL 020000Z 31002MPS 250V040 9999 BKN080 M15/M19 Q1028 NOSIG
