2015/03/22 06:00
ZUAS 220600Z 18006MPS 0400 -DZ FG VV001 13/13 Q1016 NOSIG
