2014/08/04 12:00
ZUBD 041200Z AUTO 14006MPS 9999 /// ////// 13/06 Q1031 NOSIG
