2014/03/31 14:11
ZUGH 311411Z 23002MPS 4000 -RA SCT040 OVC070 16/14 Q1018 NOSIG
