2015/12/18 11:00
ZUGY 181100Z 14002MPS 090V170 9999 SCT023 OVC033 04/M01 Q1023 NOSIG
