2008/06/22 04:00
ZUJZ 220400Z VRB01MPS 7000 -RA FEW/// SCT006 OVC040 10/08 Q1024 NOSIG
