2014/08/11 23:00
ZUKD 112300Z 34001MPS 9999 -SHRA FEW010 BKN026 05/04 Q1029
