2014/03/19 23:00
ZUKJ 192300Z 08006MPS 040V120 2200 RA BR FEW004 SCT010 OVC015 08/07 Q1022 NOSIG=(12
