2014/08/26 01:00
ZULB 260100Z 33002MPS 0800 FG SCT001 SCT007 OVC033 22/21 Q1016 NOSIG
