2014/09/04 07:00
ZULS 040700Z 08005MPS 9999 FEW036 SCT036CB SCT070 18/09 Q1026 NOSIG
