2015/01/18 22:00
ZULZ 182200Z 00000MPS 4500 BR FEW026 OVC040 09/08 Q1026 NOSIG
