2015/06/14 21:00
ZUMY 142100Z 29001MPS 2700 -RA BR SCT008 OVC060 20/20 Q1008 NOSIG
