2015/10/20 01:00
ZUPS 200100Z VRB01MPS 1500 R23/0250U BCFG BR SCT005 BKN020 12/11 Q1023 BECMG 0200 4000 BR BKN020
