2014/11/08 09:00
ZUQJ 080900Z 05002MPS 030V150 6000 SCT020 OVC033 12/07 Q1021 NOSIG
