2014/05/13 22:00
ZUTC 132200Z 00000MPS 9999 FEW030 15/14 Q1017 NOSIG
