2013/08/16 02:00
ZUTR 160200Z 05007MPS 9999 SCT016 BKN040 26/20 Q1005 NOSIG
