2015/12/18 11:00
ZUUU 181100Z 24001MPS 8000 SCT040 07/02 Q1026 NOSIG
