2013/08/12 10:00
ZUWX 121000Z 22004MPS 180V280 9999 TS FEW030CB 26/20 Q1006 NOSIG
