2014/06/19 13:00
ZUYB 191300Z 28002MPS 7000 SHRA SCT033CB BKN033 OVC050 24/24 Q1001 NOSIG
