2013/11/21 10:00
ZUYI 211000Z 15005MPS 8000 SCT012 BKN040 14/13 Q1016 NOSIG
