2014/10/11 23:00
ZUZY 112300Z 29002MPS 260V330 4500 BR NSC 14/11 Q1024 NOSIG
