2013/11/12 02:00
ZWAK 120200Z 00000MPS 2400 BR FEW040 M01/M02 Q1029 NOSIG
