2015/03/01 11:00
ZWAT 011100Z 00000MPS 7000 NSC M10/M14 Q1028 NOSIG
