2013/10/18 00:00
ZWBL 180000Z AUTO 02003MPS //// // //// 07/02 Q1028
