2014/08/14 23:00
ZWKC 142300Z 04002MPS CAVOK 18/08 Q1008 NOSIG
