2015/05/14 02:00
ZWKL 140200Z 11005MPS 9999 FEW040 23/01 Q1015 NOSIG
