2014/05/11 05:00
ZWKM 110500Z 01007G12MPS CAVOK 20/M13 Q1013 NOSIG
