2014/08/19 05:00
ZWKN 190500Z 16003MPS 130V190 CAVOK 21/11 Q1020 NOSIG
