2014/07/01 08:00
ZWNL 010800Z 27003MPS 230V330 CAVOK 32/02 Q1011 NOSIG
