2015/12/18 11:00
ZWSH 181100Z 12003MPS 6000 -SN BKN030 M07/M11 Q1026 NOSIG
