2010/10/27 02:00
ZWTL 270200Z AUTO VRB01MPS 9000 // NCD 11/M02 Q1029
