2014/04/15 16:00
ZWTN 151600Z 20002MPS CAVOK 16/M12 Q1014 NOSIG
