2015/12/18 11:30
ZWWW 181130Z VRB01MPS 0900 R25/1700D FZFG SCT008 M17/M19 Q1028 BECMG TL1250 0700 FZFG
