2015/09/19 17:00
ZWYN 191700Z AUTO VRB01MPS 9999NDV NCD 14/10 Q1019
