2014/09/27 08:00
ZYAS 270800Z AUTO VRB01MPS CAVOK 22/04 Q1015
