2014/07/02 16:00
ZYBS 021600Z AUTO 17001MPS //// ////// 15/14 Q1009
