2015/12/18 11:00
ZYCC 181100Z 25002MPS 5000 FU NSC M12/M17 Q1035 NOSIG
