2013/08/18 02:00
ZYCH 180200Z 35003MPS 290V060 CAVOK 26/21 Q1006 NOSIG
