2014/08/14 07:00
ZYCY 140700Z 25002MPS CAVOK 29/16 Q1006 NOSIG
