2014/06/04 01:00
ZYDD 040100Z AUTO 06002MPS 020V100 //// // //// 25/16 Q1008
