2013/10/25 04:00
ZYDQ 250400Z 33008MPS 9999 SCT040 06/M02 Q1020 NOSIG
