2015/12/18 11:00
ZYHB 181100Z 20004MPS 2000 HZ NSC M16/M18 Q1033 NOSIG
