2014/09/04 00:00
ZYHE 040000Z 02003MPS 1500 BR SCT001 SCT003 OVC026 16/11 Q1007 NOSIG
