2013/07/25 02:00
ZYJD 250200Z 01004MPS 9999 SCT020 SCT020TCU 24/19 Q1004 NOSIG
