2014/08/23 03:00
ZYJM 230300Z 07002MPS 9999 FEW030CB SCT026 26/20 Q1006 NOSIG
