2013/03/30 21:00
ZYJX 302100Z 28007MPS 9999 FEW040 M06/M10 Q1018
