2014/08/19 21:00
ZYJZ 192100Z 00000MPS 2000 BR NSC 19/18 Q1010 NOSIG
