2014/10/19 06:00
ZYMD 190600Z 21008MPS 5000 FU BKN030 20/05 Q1008 NOSIG
