2013/10/29 05:00
ZYQQ 290500Z 30003MPS 150V050 CAVOK 05/M08 Q1024 NOSIG
