2015/12/18 11:30
ZYTL 181130Z VRB02MPS CAVOK M01/M08 Q1035 NOSIG
