2015/12/18 11:30
ZYTX 181130Z 02002MPS 330V040 CAVOK M05/M12 Q1036 NOSIG
