2013/09/27 00:00
ZYYJ 270000Z 35001MPS CAVOK 06/03 Q1017 NOSIG
