2011/10/03 20:28
ZZZZ 032028Z 00000KT 9999 00/M08 A2992 RMK TEST TEST TEST
