2008/04/01 00:00
KA02 010000 AAXX 01004 91350 32474 80715 10311 20251 30141 40148 51007 85201 333 20267 592/9 58000 79999 85819 555 90100 91353 24474 5069 10306 20261 30096 40403 5//// 83202 333 20256 561/9 58005 83819 555 90100 91425 11474 80403 10256 20244 30122 40123 51005 60294 78082 882// 333 20233 56199 58015 70290 88816 555 91000 91434 32474 61007 10294 20249 30142 40144 5//// 82230 333 20261 56221 58010 82819 84362 555 91000
