2007/06/23 27:00
MJJP 232700Z 13015KT 9999 FEW024 33/23 Q1014
