2014/05/01 78:00
OMFW 017800Z 24002KT 8000 NSC 33/15 Q1007 A2975
