2008/08/17 05:00
OMZC 170500 METIR OIBP 170500Z 14008KT 5000 DU SKC 36/28 Q0999 A?953
