2011/03/27 23:80
OTWD 272380Z 31008KT 280V340 CAVOK 19/11 Q1017 NOSIG
