2010/07/05 13:39
RJHW 051328 METAR KJHW 051315Z AUTO 23005KT 7SM CLRAR KT 7SM CLR 24/20 A3009 RMK AO1  
