2014/09/24 16:00
SAPY 241600 METAR SGEN 241600Z 15010KT 9999 BKN015 OVC035 23/19 Q1016
