2008/07/10 12:00
SAWM 101200 RRB METAR SAWG 101200Z 36007KT CAVOK M04/M07 Q1017
