2010/02/22 14:28
SPUY 221420 SPECI SULS 221420Z 06010KT 5000 DZBR SCT005 OVC012 23/20 Q1009
